id|name|cep|address|number|neighborhood|citie|state|country|cnpj|fl_aprove|fl_active|fl_billing|company_id|fl_client|fl_deleted|created_at|updated_at|complement|manager_email|headquarter|company_email|abaco_email|id|company_id|client_id|created_at|updated_at|mail_company|mail_client
463|A. DE MOURA LOURENCO ALARMES|09760-390|R JOAO VERSOLATO|287|BAETA NEVES|SAO BERNARDO DO CAMPO|SP|BRASIL|12.506.394/0001-33|0|1|1|1|0|0|3/8/21 9:05|3/8/21 9:05|(NULL)|(NULL)|(NULL)|(NULL)|(NULL)|536|3|463|3/8/21 9:08|3/8/21 9:08|Amanda.Lemos@dsm.com, Bruna.Moraes@dsm.com, Beatriz.Souza@dsm.com, Brenda.Antinarelli@dsm.com, Luiz-Guilherme-Xavier-Cacao.Luiz-Cacao@dsm.com, SHE.CONTRACTOR@dsm.com|nathalia.quaresma@aboutsec.com.br
284|A.S.S.SOLDAGEM LTDA|40484-305|AL C-5 (BELA VISTA LOBATO)|56|ALTO DO CABRITO|SALVADOR|BA|BRASIL|33.869.846/0001-11|0|1|1|1|0|0|4/2/20 15:19|4/2/20 15:19|CASA|(NULL)|(NULL)|(NULL)|g3.dsm@abacotecnologia.com.br|290|3|284|4/2/20 15:19|4/2/20 15:19|(NULL)|(NULL)
364|ABIMAEL CARLOS CAMPOS 31257023802|18114-695|R GALDINO JOSE RODRIGUES|5|FORNAZARI|VOTORANTIM|SP|BRASIL|29.959.765/0001-35|0|1|1|1|0|0|8/12/20 12:50|8/12/20 12:50|(NULL)|(NULL)|(NULL)|(NULL)|(NULL)|396|3|364|8/12/20 12:51|8/12/20 12:52|Amanda.Lemos@dsm.com, Bruna.Moraes@dsm.com, Beatriz.Souza@dsm.com, Brenda.Antinarelli@dsm.com, Luiz-Guilherme-Xavier-Cacao.Luiz-Cacao@dsm.com, SHE.CONTRACTOR@dsm.com|xicrinha2@yahoo.com.br, caeamorim@gmail.com
380|ACT-LIFT SERVICOS PARA EQUIPAMENTOS DE ELEVAÇÃO LTDA|06154-040|R MARTINS FONTES|370|VELOSO|OSASCO|SP|BRASIL|18.745.598/0001-03|0|1|1|1|0|0|9/24/20 12:02|9/24/20 12:02|(NULL)|(NULL)|(NULL)|(NULL)|(NULL)|420|3|380|9/24/20 12:02|2/8/21 14:49|isadora.bonato@dsm.com, SHE.CONTRACTOR@dsm.com|contato@actlift.com.br
305|ADAO LUCIANO NERY 10214965880|13905-762|R ELIETE MARIA NEVES|213|RESIDENCIAL SANTA MARIA AMPARO|AMPARO|SP|BRASIL|24.925.876/0001-07|0|1|1|1|0|0|4/14/20 8:48|5/14/20 8:42|(NULL)|Flavia.Pereira@dsm.com, SHE.CONTRACTOR@dsm.com|(NULL)|irbeneto@pifferefilhos.com.br|g3.dsm@abacotecnologia.com.br|388|3|305|8/4/20 11:57|8/4/20 11:59|Luiz.Bittencourt@dsm.com, she.contractor@dsm.com|irbeneto@pifferefilhos.com.br
259|ADEILSON FERREIRA NOIA|48609-490|AV ESTADOS UNIDOS|0|RODOVIARIOS|PAULO AFONSO|BA|BRASIL|36.374.087/0001-04|0|1|1|1|0|0|3/10/20 9:57|3/10/20 10:09|s/n casa|Bruna.Moraes@dsm.com,Beatriz.Souza@dsm.com,Amanda.Camargo@dsm.com,SHE.CONTRACTOR@dsm.com|(NULL)|felipelima@rczengenharia.com.br,barreto@rczengenharia.com.br,assumpcao.rsa@gmail.com|g3.dsm@abacotecnologia.com.br|251|3|259|3/10/20 9:58|2/8/21 14:50|Amanda.Lemos@dsm.com, Bruna.Moraes@dsm.com, Beatriz.Souza@dsm.com, Brenda.Antinarelli@dsm.com, Luiz-Guilherme-Xavier-Cacao.Luiz-Cacao@dsm.com, SHE.CONTRACTOR@dsm.com|felipelima@rczengenharia.com.br,barreto@rczengenharia.com.br,assumpcao.rsa@gmail.com
476|ADILTON FERNANDES PROJETOS E SERVICOS|61760-000|2A VERDE|100|COACU|EUSEBIO|CE|BRASIL|41.750.450/0001-89|0|1|1|1|0|0|4/29/21 13:52|4/29/21 13:52|(NULL)|(NULL)|(NULL)|(NULL)|(NULL)|555|131|476|4/29/21 13:53|4/29/21 13:54|Amanda.Lemos@dsm.com, Bruna.Moraes@dsm.com, Beatriz.Souza@dsm.com, Brenda.Antinarelli@dsm.com, Luiz-Guilherme-Xavier-Cacao.Luiz-Cacao@dsm.com, SHE.CONTRACTOR@dsm.com|elisa.rabelo@polimatec.com.br
8|ADW EQUIPAMENTOS INDUSTRIAIS LTDA|08597-620|R FLOR DE LIS|1052|QUINTA DA BOA VISTA (RESIDENCIAL)|ITAQUAQUECETUBA|SP|BRASIL|14.730.731/0001-05|0|1|1|1|0|0|9/3/19 15:25|3/6/20 11:33|(NULL)|bruna.moraes@dsm.com, beatriz.souza@dsm.com, amanda.camargo@dsm.com, she.contractor@dsm.com|(NULL)|tatiane.matter@airdraw.com.br, vitor@airdraw.com.br|g3.dsm@abacotecnologia.com.br|3|3|8|10/15/19 12:41|2/8/21 14:50|Amanda.Lemos@dsm.com, Bruna.Moraes@dsm.com, Beatriz.Souza@dsm.com, Brenda.Antinarelli@dsm.com, Luiz-Guilherme-Xavier-Cacao.Luiz-Cacao@dsm.com, SHE.CONTRACTOR@dsm.com|tatiane.matter@airdraw.com.br, vitor@airdraw.com.br
350|AGILENT TECHNOLOGIES BRASIL LTDA|06460-040|AV MARCOS PENTEADO DE ULHOA RODRIGUES|939|TAMBORE|BARUERI|SP|BRASIL|03.290.250/0001-00|0|1|1|1|0|0|7/7/20 10:50|7/7/20 10:50|ANDAR 6 SALA B EDIF JACARANDA|(NULL)|(NULL)|(NULL)|(NULL)|374|3|350|7/7/20 10:51|9/29/21 9:42|Luiz.Bittencourt@dsm.com, she.contractor@dsm.com|integracao-brazil@agilent.com, duait.sobrinho@agilent.com
482|AGRISOLUS DO BRASIL S.A.|87302-846|R ARARUNA|1886|JARDIM TOPAZIO|CAMPO MOURAO|PR|BRASIL|20.431.139/0001-05|0|1|1|1|0|0|5/18/21 11:07|5/18/21 11:07|(NULL)|(NULL)|(NULL)|(NULL)|(NULL)|563|3|482|5/18/21 11:08|5/18/21 11:27|Luiz.Bittencourt@dsm.com, SHE.CONTRACTOR@dsm.com|derimar.krul@agrisolus.com.br
437|AIR TEC SYSTEM MAQUINAS E EQUIPAMENTOS LTDA|12940-440|R CASTRO FAFE|526|CENTRO|ATIBAIA|SP|BRASIL|37.852.760/0001-37|0|1|1|1|0|0|12/18/20 15:50|12/18/20 15:50|SALA PERU N 04|(NULL)|(NULL)|(NULL)|(NULL)|503|3|437|12/18/20 15:50|12/18/20 15:51|Amanda.Lemos@dsm.com, Bruna.Moraes@dsm.com, Beatriz.Souza@dsm.com, Brenda.Antinarelli@dsm.com, Luiz-Guilherme-Xavier-Cacao.Luiz-Cacao@dsm.com, SHE.CONTRACTOR@dsm.com|dearaujo@air-tec.it
346|AIRCONN COMERCIO E SERVICOS EIRELI|13295-000|R MARIA SOLDEIRA LOURENCON|680|SANTA JULIA|ITUPEVA|SP|BRASIL|21.276.585/0001-47|0|1|1|1|0|0|7/1/20 13:24|7/1/20 13:24|SALA 1|(NULL)|(NULL)|(NULL)|(NULL)|362|3|346|7/1/20 13:33|7/1/20 13:41|Luiz.Bittencourt@dsm.com, SHE.CONTRACTOR@dsm.com|mercia@jvacompressores.com.br
509|ALESSANDRO JOSE DA SILVA|06160-290|R GEORGINA MOTTA MARCHETTI|73|BANDEIRAS|OSASCO|SP|BRASIL|42.350.087/0001-77|0|1|1|1|0|0|7/19/21 10:12|7/19/21 10:12|(NULL)|(NULL)|(NULL)|(NULL)|(NULL)|592|3|509|7/19/21 10:12|7/19/21 10:12|Isadora.Bonato@dsm.com, she.contractor@dsm.com|contato@actlift.com.br
9|ALESSANDRO RODRIGUES SOROCABA EPP - BRASTEK|18070-067|AVENIDA IPANEMA|811|VILA NOVA SOROCABA|SOROCABA|SP|BRASIL|22.720.490/0001-33|0|1|1|1|0|0|9/3/19 15:43|6/29/21 10:36|(NULL)|bruna.moraes@dsm.com, beatriz.souza@dsm.com, amanda.camargo@dsm.com, she.contractor@dsm.com|(NULL)|atendimento@brastek.com.br|g3.dsm@abacotecnologia.com.br|4|3|9|10/15/19 12:41|2/8/21 14:51|paulo.pereira@dsm.com, Amanda.Lemos@dsm.com, Bruna.Moraes@dsm.com, Beatriz.Souza@dsm.com, Brenda.Antinarelli@dsm.com, Luiz-Guilherme-Xavier-Cacao.Luiz-Cacao@dsm.com, SHE.CONTRACTOR@dsm.com|atendimento@brastek.com.br
420|ALEXANDRE GHIZELLINI 27681897828|13482-375|R ARNALDO STOCCO|714|JARDIM NOSSA SENHORA DE FATIMA|LIMEIRA|SP|BRASIL|32.791.973/0001-82|0|1|1|1|0|0|12/9/20 14:49|12/9/20 14:49|(NULL)|(NULL)|(NULL)|(NULL)|(NULL)|485|3|420|12/9/20 14:49|12/9/20 14:52|Amanda.Lemos@dsm.com, Bruna.Moraes@dsm.com, Beatriz.Souza@dsm.com, Brenda.Antinarelli@dsm.com, Luiz-Guilherme-Xavier-Cacao.Luiz-Cacao@dsm.com, SHE.CONTRACTOR@dsm.com|adm@glbtechautomacao.com.br
369|ALMO ENGENHARIA LTDA|15910-000|R ANTONIO COLATRELLA|231|JARDIM SANTA RITA|MONTE ALTO|SP|BRASIL|06.008.002/0001-03|0|1|1|1|0|0|8/27/20 9:59|8/27/20 9:59|(NULL)|(NULL)|(NULL)|(NULL)|(NULL)|404|3|369|8/27/20 9:59|2/8/21 14:51|Isadora.Bonato@dsm.com, she.contractor@dsm.com|almoadmpreventiva2@gmail.com
429|ALPHA MONTA|06654-535|R JOSE SILVESTRE NUNES|17|JARDIM SAO PAULO|ITAPEVI|SP|BRASIL|24.734.166/0001-08|0|1|1|1|0|0|12/16/20 10:34|12/16/20 10:34|(NULL)|(NULL)|(NULL)|(NULL)|(NULL)|496|3|429|12/16/20 10:36|2/8/21 15:55|Isadora.Bonato@dsm.com, she.contractor@dsm.com|montagem.brasil@mecalux.com
10|ALSCO TOALHEIRO BRASIL LTDA - MAIRINQUE|04745-506|AVENIDA VITOR MANZINI|470|SANTO AMARO|SÃO PAULO|SP|BRASIL|33.325.184/0002-08|0|1|1|1|0|0|9/3/19 15:59|3/5/20 15:31|(NULL)|leticia.ramos@dsm.com, gislaine.oliveira@dsm.com, she.contractor@dsm.com|(NULL)|fabio.rossi@alsco.com.br, mauricio@alsco.com.br|g3.dsm@abacotecnologia.com.br|5|3|10|10/15/19 12:41|8/24/21 14:05|g3.dsm@abacotecnologia.com.br, leticia.ramos@dsm.com, gislaine.oliveira@dsm.com, she.contractor@dsm.com|atendimento.rouparia@alsco.com.br
281|ALSCO TOALHEIRO BRASIL LTDA - PECÉM|61760-000|R CEL FREIRE|24|GUARIBAS|EUSEBIO|CE|BRASIL|33.325.184/0007-04|0|1|1|1|0|0|3/31/20 13:41|3/31/20 13:41|(NULL)|Maria.Sombra@dsm.com, maria.barbosa@dsm.com, she.contractor@dsm.com|(NULL)|alscofz@alsco.com.br|g3.dsm@abacotecnologia.com.br|275|131|281|3/31/20 13:42|10/19/21 11:31|Bruno.Mantini@dsm.com, maria.barbosa@dsm.com, she.contractor@dsm.com, Natanielle.Silva@dsm.com|alscofz@alsco.com.br
529|AMBIARTE COMERCIAL DE JUNDIAI LTDA|13209-355|R DO RETIRO|2683|VILA DAS HORTENCIAS|JUNDIAI|SP|BRASIL|02.177.057/0001-96|0|1|1|1|0|0|9/3/21 11:35|9/3/21 11:35|(NULL)|(NULL)|(NULL)|(NULL)|(NULL)|617|3|529|9/3/21 11:36|9/3/21 11:36|she.contractor@dsm.com, Fernanda.Bueno-da-Silva@dsm.com|ambiarte@ambiarte.com.br
11|AMBIENTAL ECOPROCESSOS EIRELI|18013-280|AVENIDA ENGENHEIRO CARLOS REINALDO MENDES|1460|ALEM PONTE|SOROCABA|SP|BRASIL|23.547.902/0001-48|0|1|1|1|0|0|9/6/19 13:55|3/6/20 9:04|(NULL)|ivelize.machado@dsm.com, paulo.pereira@dsm.com, luciana.florentino@dsm.com, she.contractor@dsm.com|(NULL)|rh2@sorocabaambiental.com.br, sgi@sorocabaambiental.com.br, sorocaba@sorocabaambiental.com.br|g3.dsm@abacotecnologia.com.br|6|3|11|10/15/19 12:41|2/8/21 15:10|Isadora.Bonato@dsm.com, she.contractor@dsm.com|rh2@sorocabaambiental.com.br, sgi@sorocabaambiental.com.br, sorocaba@sorocabaambiental.com.br
467|ANDERSON RODRIGO DA CRUZ|13571-385|AV DOUTOR HEITOR JOSE REALI|1425|DISTRITO INDUSTRIAL MIGUEL ABDELNUR|SAO CARLOS|SP|BRASIL|09.151.248/0001-28|0|1|1|1|0|0|3/16/21 9:55|3/16/21 9:55|BLOCO 07;APT 502|(NULL)|(NULL)|(NULL)|(NULL)|543|3|467|3/16/21 9:55|3/16/21 9:56|Isadora.Bonato@dsm.com, she.contractor@dsm.com|logistica@salengenharia.com.br, logistica2@salengenharia.com.br
276|ANDRE CARLOS PASCOAL 10201215721|27115-400|R ANTONIO DE ALMEIDA|327|SANTO ANTONIO|BARRA DO PIRAI|RJ|BRASIL|36.706.957/0001-03|0|1|1|1|0|0|3/20/20 8:46|3/20/20 8:46|CONJ|Bruna.Moraes@dsm.com, Amanda.Camargo@dsm.com, Beatriz.Souza@dsm.com, she.contractor@dsm.com|(NULL)|felipelima@rczengenharia.com.br|g3.dsm@abacotecnologia.com.br|268|3|276|3/20/20 8:46|2/8/21 14:52|Amanda.Lemos@dsm.com, Bruna.Moraes@dsm.com, Beatriz.Souza@dsm.com, Brenda.Antinarelli@dsm.com, Luiz-Guilherme-Xavier-Cacao.Luiz-Cacao@dsm.com, SHE.CONTRACTOR@dsm.com|felipelima@rczengenharia.com.br
271|ANDRELU AR CONDICIONADO|25035-370|R COSTA RUBIM|1088|VILA LEOPOLDINA|DUQUE DE CAXIAS|RJ|BRASIL|26.289.331/0001-87|0|1|1|1|0|0|3/19/20 9:39|3/19/20 9:39|LOJA|felipelima@rczengenharia.com.br|(NULL)|Bruna.Moraes@dsm.com,Amanda.Camargo@dsm.com,Beatriz.Souza@dsm.com,she.contractor@dsm.com|g3.dsm@abacotecnologia.com.br|263|3|271|3/19/20 9:40|2/8/21 14:53|Amanda.Lemos@dsm.com, Bruna.Moraes@dsm.com, Beatriz.Souza@dsm.com, Brenda.Antinarelli@dsm.com, Luiz-Guilherme-Xavier-Cacao.Luiz-Cacao@dsm.com, SHE.CONTRACTOR@dsm.com|felipelima@rczengenharia.com.br
168|ANDREWS CRUZ DE OLIVEIRA|18120-000|R BENEDITO DE OLIVEIRA VIANA|321|VILA BARRETO|MAIRINQUE|SP|BRASIL|35.963.205/0001-57|0|1|1|1|0|0|1/24/20 16:30|3/6/20 10:32|(NULL)|bruna.moraes@dsm.com, beatriz.souza@dsm.com, amanda.camargo@dsm.com, she.contractor@dsm.com|(NULL)|felipelima@rczengenharia.com.br, assumpcao.rsa@gmail.com, barreto@rczengenharia.com.br|g3.dsm@abacotecnologia.com.br|159|3|168|1/24/20 16:31|2/8/21 14:53|Amanda.Lemos@dsm.com, Bruna.Moraes@dsm.com, Beatriz.Souza@dsm.com, Brenda.Antinarelli@dsm.com, Luiz-Guilherme-Xavier-Cacao.Luiz-Cacao@dsm.com, SHE.CONTRACTOR@dsm.com|felipelima@rczengenharia.com.br, assumpcao.rsa@gmail.com, barreto@rczengenharia.com.br
340|ANTON PAAR BRASIL|04026-090|R JOSE DE MAGALHAES|646|VILA MARIANA|SAO PAULO|SP|BRASIL|17.025.823/0001-74|0|1|1|1|0|0|6/18/20 14:04|6/18/20 14:04|(NULL)|(NULL)|(NULL)|(NULL)|(NULL)|354|3|340|6/18/20 14:05|6/22/20 13:52|Isadora.Bonato@dsm.com, she.contractor@dsm.com|gabrielle.ribeiro@anton-paar.com, fernando.novaes@anton-paar.com, debora.soares@anton-paar.com
362|APOLLO BALANÇAS|03189-030|PC TRISTAO DA CUNHA|77|VILA ORATORIO|SAO PAULO|SP|BRASIL|08.800.105/0001-37|0|1|1|1|0|0|8/12/20 10:24|8/12/20 10:24|SL 01|(NULL)|(NULL)|(NULL)|(NULL)|394|3|362|8/12/20 10:25|8/25/21 14:22|Isadora.Bonato@dsm.com, she.contractor@dsm.com|vagner.bernardo@mt.com
451|ARVEN ENGENHARIA INDUSTRIAL LTDA|09551-000|R FLORIDA|350|BARCELONA|SAO CAETANO DO SUL|SP|BRASIL|08.220.541/0001-37|0|1|1|1|0|0|1/14/21 15:25|1/14/21 15:25|APT 104|(NULL)|(NULL)|(NULL)|(NULL)|516|3|451|1/14/21 15:25|2/8/21 14:54|Amanda.Lemos@dsm.com, Bruna.Moraes@dsm.com, Beatriz.Souza@dsm.com, Brenda.Antinarelli@dsm.com, Luiz-Guilherme-Xavier-Cacao.Luiz-Cacao@dsm.com, SHE.CONTRACTOR@dsm.com|arven@arvenprojetos.com.br
278|ASMJBPM - ME|25050-370|AV CRUZEIRO DO SUL|155|VILA SARAPUI|DUQUE DE CAXIAS|RJ|BRASIL|36.712.899/0001-12|0|1|1|1|0|0|3/27/20 8:22|3/27/20 9:15|(NULL)|Bruna.Moraes@dsm.com, Beatriz.Souza@dsm.com, Amanda.Camargo@dsm.com, SHE.CONTRACTOR@dsm.com|(NULL)|felipelima@rczengenharia.com.br|g3.dsm@abacotecnologia.com.br|270|3|278|3/27/20 8:22|2/8/21 14:54|Amanda.Lemos@dsm.com, Bruna.Moraes@dsm.com, Beatriz.Souza@dsm.com, Brenda.Antinarelli@dsm.com, Luiz-Guilherme-Xavier-Cacao.Luiz-Cacao@dsm.com, SHE.CONTRACTOR@dsm.com|felipelima@rczengenharia.com.br
13|ASS VULCANIZAÇÃO E COMÉRCIO EIRELLI|04419-060|RUA RAFAEL ADORNO|25|JARDIM MIRIAM|SÃO PAULO|SP|BRASIL|05.401.687/0001-90|0|1|1|1|0|0|9/6/19 14:06|5/15/20 9:39|(NULL)|Sarah.Victoria-Avelina-Ribeiro@dsm.com, she.contractor@dsm.com|(NULL)|monica@vulcamix.com.br, ccarlosmaia@terra.com.br|g3.dsm@abacotecnologia.com.br|9|3|13|11/5/19 17:04|2/8/21 14:54|Isadora.Bonato@dsm.com, she.contractor@dsm.com|monica@vulcamix.com.br, camila@vulcamix.com.br, gabriela@vulcamix.com.br
14|ASSEIO SANEAMENTO AMBIENTAL LTDA|06460-120|AVENIDA CECI|348|CENTRO EMPRESARIAL TAMBORE|BARUERI|SP|BARSIL|60.094.406/0001-02|0|1|1|1|0|0|9/6/19 14:10|3/5/20 15:04|(NULL)|heloisa.rocha@dsm.com, she.contractor@dsm.com|(NULL)|taina.pantaleao@rentokil-initial.com|g3.dsm@abacotecnologia.com.br|10|3|14|11/5/19 17:04|8/18/21 9:33|lariane.moraes@dsm.com, she.contractor@dsm.com|taina.pantaleao@rentokil-initial.com
421|ASSOCIACAO DOS PROFISSIONAIS DE RESGATE E EMERGENCIAS MEDICAS - APREMED|18030-005|AV COMENDADOR PEREIRA INACIO|1040|JARDIM VERGUEIRO|SOROCABA|SP|BRASIL|08.215.593/0001-15|0|1|1|1|0|0|12/10/20 9:48|12/10/20 9:48|SALA: 02;|(NULL)|(NULL)|(NULL)|(NULL)|488|3|421|12/10/20 9:48|2/18/21 12:40|(NULL)|(NULL)
110|ASURIS COMÉRCIO E SERVIÇOS DE INFORMÁTICA LTDA|04004-030|RUA DESEMBARGADOR ELISEU GUILHERME|282|PARAISO|SÃO PAULO|SP|BRASIL|08.899.539/0001-36|0|1|1|1|0|0|9/18/19 14:45|9/18/19 14:45|(NULL)|(NULL)|(NULL)|(NULL)|(NULL)|106|3|110|11/5/19 17:34|11/5/19 17:34|(NULL)|(NULL)
263|ATIVE CLEAN COMÉRCIO E SERVIÇOS|03069-030|R CORONEL GUSTAVO SANTIAGO|265|VILA ZILDA|SAO PAULO|SP|BRASIL|26.109.828/0001-76|0|1|1|1|0|0|3/13/20 15:23|3/13/20 15:23|AP 43|Leticia.Ramos@dsm.com, SHE.CONTRACTOR@dsm.com|(NULL)|ativeclean@hotmail.com|g3.dsm@abacotecnologia.com.br|256|3|263|3/13/20 15:24|7/26/21 9:20|g3.dsm@abacotecnologia.com.br, Leticia.Ramos@dsm.com, SHE.CONTRACTOR@dsm.com|atendimento@ativeclean.com.br
432|ATLAS COORDENACOES E SERVICOS ADMINISTRATIVOS LTDA|89654-000|R JOAO XXIII|160|CENTRO|AGUA DOCE|SC|BRASIL|36.046.277/0001-00|0|1|1|1|0|0|12/16/20 18:38|12/16/20 18:38|(NULL)|(NULL)|(NULL)|(NULL)|(NULL)|498|3|432|12/16/20 18:40|12/16/20 18:43|Amanda.Lemos@dsm.com, Bruna.Moraes@dsm.com, Beatriz.Souza@dsm.com, Brenda.Antinarelli@dsm.com, Luiz-Guilherme-Xavier-Cacao.Luiz-Cacao@dsm.com, SHE.CONTRACTOR@dsm.com|rh@installautomacao.com.br
525|BAHIANA DISTRIBUIDORA DE GAS LTDA|61635-365|ROD BR-222|0|TABAPUA|CAUCAIA|CE|BRASIL|46.395.687/0039-85|0|1|1|1|0|0|9/1/21 11:03|9/1/21 11:03|KM 06 QUADRA34|(NULL)|(NULL)|(NULL)|(NULL)|614|131|525|9/1/21 11:04|9/1/21 11:04|SHE.CONTRATOR@dsm.com, Samille-Gomes.Vieira@dsm.com|consultoria@4msengenharia.com
15|BAUKO EQUIPAMENTOS DE MOVIMENTAÇÃO E ARMAZENAGEM S.A - MAIRINQUE|06298-060|RUA SANTA EROTILDES|200|VILA DOS REMEDIOS|OSASCO|SP|BARSIL|12.210.380/0001-78|0|1|1|1|0|0|9/6/19 14:56|8/10/21 10:38|(NULL)|denis.almeida@dsm.com, she.contractor@dsm.com|(NULL)|leandro.basilio@bauko.com.br|g3.dsm@abacotecnologia.com.br|11|3|15|11/5/19 17:04|2/18/21 12:33|denis.almeida@dsm.com, marcio.garcia@dsm.com, Amanda.Lemos@dsm.com, Bruna.Moraes@dsm.com, Beatriz.Souza@dsm.com, Brenda.Antinarelli@dsm.com, Luiz-Guilherme-Xavier-Cacao.Luiz-Cacao@dsm.com, SHE.CONTRACTOR@dsm.com|alisson.barbosa@bauko.com.br
231|BAUKO EQUIPAMENTOS DE MOVIMENTAÇÃO E ARMAZENAGEM S.A - PECEM|06298-060|RUA SANTA EROTILDES|200|VILA DOS REMEDIOS|SÃO PAULO|SP|BRASIL|12.210.380/0001-78|0|1|1|1|0|0|2/18/20 16:18|3/30/20 15:31|(NULL)|luciana.baldan@dsm.com, marcio.garcia@dsm.com|(NULL)|leandro.basilio@bauko.com.br|g3.dsm@abacotecnologia.com.br|225|131|231|2/18/20 16:21|2/18/21 12:33|denis.almeida@dsm.com, marcio.garcia@dsm.com, Amanda.Lemos@dsm.com, Bruna.Moraes@dsm.com, Beatriz.Souza@dsm.com, Brenda.Antinarelli@dsm.com, Luiz-Guilherme-Xavier-Cacao.Luiz-Cacao@dsm.com, SHE.CONTRACTOR@dsm.com|alisson.barbosa@bauko.com.br
394|BELGE ENGENHARIA E SISTEMAS LTDA|04620-001|R BERNADINO DE CAMPOS|318|BROOKLIN PAULISTA|SAO PAULO|SP|BRASIL|00.567.365/0001-00|0|1|1|1|0|0|10/29/20 12:47|10/29/20 12:47|CONJUNTO 103|(NULL)|(NULL)|(NULL)|(NULL)|446|3|394|10/29/20 12:48|10/29/20 12:49|Amanda.Lemos@dsm.com, Bruna.Moraes@dsm.com, Beatriz.Souza@dsm.com, Brenda.Antinarelli@dsm.com, Luiz-Guilherme-Xavier-Cacao.Luiz-Cacao@dsm.com, SHE.CONTRACTOR@dsm.com|hcoelho@belge.com.br
518|BELMAC INSTALACOES, MANUTENCAO E REFRIGERACAO EIRELI|18020-001|R CORONEL NOGUEIRA PADILHA|724|VILA HORTENCIA|SOROCABA|SP|BRASIL|22.588.179/0001-82|0|1|1|1|0|0|8/20/21 9:43|8/20/21 9:43|(NULL)|(NULL)|(NULL)|(NULL)|(NULL)|605|3|518|8/20/21 9:43|8/20/21 9:43|Luiz.Bittencourt@dsm.com, SHE.CONTRACTOR@dsm.com|contas@belmac.com.br
285|BERTOLINI SISTEMAS DE ARMAZENAGEM S/A|95700-010|R FRANCISCO LUIZ BERTOLINI|235|CONCEICAO|BENTO GONCALVES|RS|BRASIL|15.358.988/0003-02|0|1|1|1|0|0|4/2/20 15:46|4/2/20 15:46|ANDAR 2|bruna.moraes@dsm.com, beatriz.souza@dsm.com, amanda.camargo@dsm.com, she.contractor@dsm.com|(NULL)|lauri.zanon@bertolini.com.br, jgsmontagens@hotmail.com, wilson.garcia@bertolini.com.br|g3.dsm@abacotecnologia.com.br|291|3|285|4/2/20 15:47|2/8/21 14:55|Amanda.Lemos@dsm.com, Bruna.Moraes@dsm.com, Beatriz.Souza@dsm.com, Brenda.Antinarelli@dsm.com, Luiz-Guilherme-Xavier-Cacao.Luiz-Cacao@dsm.com, SHE.CONTRACTOR@dsm.com|lauri.zanon@bertolini.com.br, jgsmontagens@hotmail.com, wilson.garcia@bertolini.com.br
249|BEUMER LATINOAMERICANA EQUIPAMENTOS LTDA|13069-330|AV JOHN DALTON|301|CONDOMINIO TECHNO PARK|CAMPINAS|SP|BRASIL|96.353.750/0001-16|0|1|1|1|0|0|3/3/20 13:55|3/3/20 13:55|EDIF 3 BLOCO A|(NULL)|(NULL)|(NULL)|(NULL)|242|3|249|3/3/20 13:56|7/8/21 12:28|Isadora.Bonato@dsm.com, she.contrator@dsm.com|Leticia.Lopes@beumer.com
249|BEUMER LATINOAMERICANA EQUIPAMENTOS LTDA|13069-330|AV JOHN DALTON|301|CONDOMINIO TECHNO PARK|CAMPINAS|SP|BRASIL|96.353.750/0001-16|0|1|1|1|0|0|3/3/20 13:55|3/3/20 13:55|EDIF 3 BLOCO A|(NULL)|(NULL)|(NULL)|(NULL)|416|131|249|9/21/20 11:42|9/21/20 11:44|maria.barbosa@dsm.com, lorenna.sousa@dsm.com, Amanda.Lemos@dsm.com, Bruna.Moraes@dsm.com, Beatriz.Souza@dsm.com, Brenda.Antinarelli@dsm.com, Luiz-Guilherme-Xavier-Cacao.Luiz-Cacao@dsm.com, SHE.CONTRACTOR@dsm.com|leticia.lopes@beumer.com,
511|BRAGA CURSOS E TREINAMENTOS TECNICOS|62674-000|R RAIMUNDO PROCOPIO|4|PECEM|SAO GONÇALO DO AMARANTE|CE|BRASIL|20.391.338/0001-29|0|1|1|1|0|0|7/20/21 11:22|7/20/21 11:22|(NULL)|(NULL)|(NULL)|(NULL)|(NULL)|594|131|511|7/20/21 11:25|7/20/21 11:25|Maria.Barbosa@dsm.com, SHE.CONTRACTOR@dsm.com|Willame.Albuquerque@dsm.com
357|BRASIF S/A EXPORTACAO IMPORTACAO|13213-105|AV JOSE ALVES DE OLIVEIRA|4520|DISTRITO INDUSTRIAL|JUNDIAI|SP|BRASIL|52.226.073/0025-77|0|1|1|1|0|0|7/31/20 11:48|7/31/20 11:48|LOTE 01 -D QUADRA4|(NULL)|(NULL)|(NULL)|(NULL)|386|3|357|7/31/20 11:48|2/8/21 15:25|Isadora.Bonato@dsm.com, she.contractor@dsm.com|ligia.galvao@brasif.com.br, marcelo.pedroso@brasif.com.br
335|BRASLIMP TRANSPORTES ESPECIALIZADOS LTDA|60874-401|ROD QUARTO ANEL VIARIO|2346|PEDRAS|FORTALEZA|CE|BRASIL|12.216.990/0001-89|0|1|1|1|0|0|6/12/20 9:56|6/12/20 9:56|(NULL)|Samille-Gomes.Vieira@dsm.com, Maria.Barbosa@dsm.com, SHE.CONTRACTOR@dsm.com|(NULL)|(NULL)|g3.dsm@abacotecnologia.com.br|348|131|335|6/12/20 9:57|5/31/21 12:51|Samille-Gomes.Vieira@dsm.com, Maria.Barbosa@dsm.com, SHE.CONTRACTOR@dsm.com, Bruno.Mantini@dsm.com|credenciamento@braslimp.com.br
501|BRENO CAETANO MOTA|06130-100|R ANTONIO BENEDITO DO AMARAL|164|SANTO ANTONIO|OSASCO|SP|BRASIL|40.889.368/0001-77|0|1|1|1|0|0|7/13/21 13:54|7/13/21 13:54|(NULL)|(NULL)|(NULL)|(NULL)|(NULL)|583|3|501|7/13/21 13:54|7/13/21 13:55|Amanda.Lemos@dsm.com, Bruna.Moraes@dsm.com, Beatriz.Souza@dsm.com, Brenda.Antinarelli@dsm.com, Luiz-Guilherme-Xavier-Cacao.Luiz-Cacao@dsm.com, SHE.CONTRACTOR@dsm.com|daniel.planejamento@genpro.com.br
430|BUCHI BRASIL LTDA|13271-200|R FRANCISCO GLICERIO|175|VILA EMBARE|VALINHOS|SP|BRASIL|14.603.261/0001-00|0|1|1|1|0|0|12/16/20 10:37|12/16/20 10:37|(NULL)|(NULL)|(NULL)|(NULL)|(NULL)|603|3|430|8/19/21 11:01|8/19/21 11:02|Luiz.Bittencourt@dsm.com, she.contractor@dsm.com|Nascimento.G@buchi.com
411|BUHLER INDUSTRIA E COMERCIO DE EQUIPAMENTOS INDUSTRIAIS LTDA|89129-600|R DONA FRANCISCA|8300|DISTRITO INDUSTRIAL|JOINVILLE|SC|BRASIL|60.885.761/0003-61|0|1|1|1|0|0|12/4/20 14:07|12/4/20 14:07|MDULOS 1,2,3,4 E 5 BLOCO M|(NULL)|(NULL)|(NULL)|(NULL)|472|3|411|12/4/20 14:08|9/13/21 10:34|Luiz.Bittencourt@dsm.com, she.contractor@dsm.com|ana.tomio@buhlergroup.com
494|C. R. NUNES MONTAGENS EIRELI|06826-530|R IGUACU|67|JARDIM NOVO CAMPO LIMPO|EMBU DAS ARTES|SP|BRASIL|20.864.353/0001-47|0|1|1|1|0|0|6/30/21 10:56|6/30/21 10:56|SLJ; SALA: 01;|(NULL)|(NULL)|(NULL)|(NULL)|574|3|494|6/30/21 10:57|9/16/21 11:20|Luiz.Bittencourt@dsm.com, SHE.CONTRACTOR@dsm.com|Obras@vidy.com.br
440|C.F.S. COMERCIO E SERVICOS DE EQUIPAMENTOS ELETRONICOS LTDA|05526-000|R ALMIRANTE ARISTIDES GUILHEM|139|JARDIM JUSSARA|SAO PAULO|SP|BRASIL|06.957.664/0001-20|0|1|1|1|0|0|12/21/20 10:37|12/21/20 10:37|(NULL)|(NULL)|(NULL)|(NULL)|g3.dsm@abacotecnologia.com.br|508|3|440|12/22/20 9:11|6/1/21 10:36|Silvia-S.Santos@dsm.com, she.contractor@dsm.com|isabella.camilo@aboutsec.com.br
290|C.L.A TRANSPORTES DE PASSAGEIROS LTDA|18147-000|R AREEIRO|14|MEIRELLES|ARACARIGUAMA|SP|BRASIL|21.919.463/0004-74|0|1|1|1|0|0|4/3/20 13:58|4/3/20 13:58|(NULL)|leticia.ramos@dsm.com, she.contractor@dsm.com, gislaine.oliveira@dsm.com, she.contractor@dsm.com|(NULL)|toninhomoura@clatransportes.com.br|g3.dsm@abacotecnologia.com.br|296|3|290|4/3/20 13:59|9/9/21 14:08|macleane.sales-araujo@dsm.com, she.contractor@dsm.com|antoniomoura@clatransportes.com.br
416|CAINA GABRIEL VIEIRA DA SILVA|13876-816|R ADELIA MIUCCI PERES|52|JARDIM PRIMAVERA|SAO JOAO DA BOA VISTA|SP|BRASIL|38.441.193/0001-99|0|1|1|1|0|0|12/7/20 14:58|12/7/20 14:58|(NULL)|(NULL)|(NULL)|(NULL)|(NULL)|479|3|416|12/7/20 14:59|12/23/20 11:21|Amanda.Lemos@dsm.com, Bruna.Moraes@dsm.com, Beatriz.Souza@dsm.com, Brenda.Antinarelli@dsm.com, Luiz-Guilherme-Xavier-Cacao.Luiz-Cacao@dsm.com, SHE.CONTRACTOR@dsm.com|lucineide@villarta.com.br
183|CALDEIRARIA SANTA ROSA DE LEME EIRELI|13313-090|VIELA ANHANGUERA|185|SERELEPE|LEME|SP|BRASIL|02.736.277/0001-02|0|1|1|1|0|0|1/30/20 13:19|3/5/20 15:08|KM185|luciana.florentino@dsm.com, she.contractor@dsm.com|(NULL)|financeiro@caldeirariasantarosa.com.br|g3.dsm@abacotecnologia.com.br|442|3|183|10/23/20 14:42|2/8/21 14:56|Isadora.Bonato@dsm.com, she.contractor@dsm.com|financeiro@caldeirariasantarosa.com.br
266|CALIBRACOM CONTROLE DE PROCESSOS INDUSTRIAIS LTDA|18085-510|R ODAIR DIAS DE SOUZA|419|JARDIM MORUMBI I|SOROCABA|SP|BRASIL|12.740.226/0001-08|0|1|1|1|0|0|3/16/20 9:07|3/16/20 9:07|(NULL)|rafael.souza@dsm.com, she.contractor@dsm.com|(NULL)|comercial2@calibracom.com.br|g3.dsm@abacotecnologia.com.br|452|3|266|11/11/20 10:44|11/11/20 10:45|rafael.souza@dsm.com, she.contractor@dsm.com|marcos@calibracom.com.br, priscila@calibracom.com.br, vendas@calibracom.com.br
185|CAMARO ELECTRIC AUTOMAÇÃO INDUSTRIAL LTDA|13324-220|RUA ESTADOS UNIDOS|123|JARDIM AMERICA|SALTO|SP|BRASIL|19.419.285/0001-28|0|1|1|1|0|0|2/3/20 10:31|2/3/20 10:31|(NULL)|(NULL)|(NULL)|(NULL)|(NULL)|282|3|185|4/2/20 14:13|6/22/20 13:50|Luiz.Bittencourt@dsm.com, SHE.CONTRACTOR@dsm.com|danielle@camaroelectric.com.br
425|CARLOS EDUARDO SALAZAR|13273-420|R DOS AMARILIS|455|PARQUE CECAP|VALINHOS|SP|BRASIL|40.036.740/0001-00|0|1|1|1|0|0|12/14/20 15:50|12/14/20 15:50|(NULL)|(NULL)|(NULL)|(NULL)|g3.dsm@abacotecnologia.com.br|493|3|425|12/14/20 16:23|12/14/20 16:26|Amanda.Lemos@dsm.com, Bruna.Moraes@dsm.com, Beatriz.Souza@dsm.com, Brenda.Antinarelli@dsm.com, Luiz-Guilherme-Xavier-Cacao.Luiz-Cacao@dsm.com, SHE.CONTRACTOR@dsm.com|adm@glbtechautomacao.com.br
239|CARV RESGATE - MONALIZA RODRIGUES PINHEIRO TREINAMENTO|60320-517|RUA HENRIQUE ELLERY|499|MONTE CASTELO|FORTALEZA|CE|BRASIL|17.254.747/0001-79|0|1|1|1|0|0|2/20/20 15:14|3/30/20 16:06|ALTOS|maria.sombra@dsm.com, maria.barbosa@dsm.com, marcio.garcia@dsm.com|(NULL)|comercial@carvresgate.com|g3.dsm@abacotecnologia.com.br|478|131|239|12/7/20 11:27|8/9/21 11:43|Lorenna.Sousa@dsm.com, she.contractor@dsm.com, Maria.Barbosa@dsm.com|comercial@carvresgate.com
286|CCJ|24461-265|AV PAULA LEMOS|326|MUTUAGUACU|SAO GONCALO|RJ|BRASIL|34.181.228/0001-47|0|1|1|1|0|0|4/2/20 16:04|4/2/20 16:04|CASA 2|(NULL)|(NULL)|(NULL)|g3.dsm@abacotecnologia.com.br|292|3|286|4/2/20 16:04|4/2/20 16:04|(NULL)|(NULL)
355|CDC - UNDERBID|03124-070|R VITOANTONIO DEL VECCHIO|62|PARQUE DA MOOCA|SAO PAULO|SP|BRASIL|02.042.271/0001-35|0|1|1|1|0|0|7/23/20 11:19|7/23/20 11:19|(NULL)|(NULL)|(NULL)|(NULL)|(NULL)|383|3|355|7/23/20 11:20|7/23/20 11:23|gislaine.oliveira@dsm.com, Leticia.Ramos@dsm.com, she.contractor@dsm.com, g3.dsm@abacotecnologia.com.br|francisca@grupocdctelecom.com.br, atendimento@grupocdctelecom.com.br
267|CE TELECOM|60750-015|AV JOAO DE ARAUJO LIMA|571|PREFEITO JOSE WALTER|FORTALEZA|CE|BRASIL|27.928.465/0001-63|0|1|1|1|0|0|3/16/20 16:21|3/30/20 16:07|SALA 105|SHE.CONTRACTOR@dsm.com, Maria.Barbosa@dsm.com, marcio.garcia@dsm.com, maria.sombra@dsm.com, amanda.dutra@dsm.com|(NULL)|henrique@cetelecom.com.br|g3.dsm@abacotecnologia.com.br|553|131|267|4/19/21 16:24|4/19/21 16:24|(NULL)|(NULL)
384|CHEMETRIC INSTRUMENTACAO ANALITICA LIMITADA|22710-113|EST DOS BANDEIRANTES|1430|TAQUARA|RIO DE JANEIRO|RJ|BRASIL|04.392.153/0001-82|0|1|1|1|0|0|9/30/20 8:38|9/30/20 8:38|SALA 201|(NULL)|(NULL)|(NULL)|(NULL)|424|3|384|9/30/20 8:38|9/30/20 8:39|SHE.CONTRACTOR@dsm.com, rafael.souza@dsm.com|financeiro@chemetric.com.br
445|CIA DE GAS DO CEARA CEGAS|60830-005|AV WASHINGTON SOARES|6475|JOSE DE ALENCAR|FORTALEZA|CE|BRASIL|73.759.185/0001-96|0|1|1|1|0|0|12/28/20 11:22|12/28/20 11:22|(NULL)|(NULL)|(NULL)|(NULL)|(NULL)|509|131|445|12/28/20 11:28|12/28/20 11:29|she.contractor@dsm.com, lorenna.sousa@dsm.com|iasmim.victor@cegas.com.br
480|CIAFILTER SOROCABA EIRELI|18085-360|R ITAPEVA|56|JARDIM LEOCADIA|SOROCABA|SP|BRASIL|29.189.774/0001-94|0|1|1|1|0|0|5/14/21 10:25|5/14/21 10:25|(NULL)|(NULL)|(NULL)|(NULL)|(NULL)|561|3|480|5/14/21 10:26|5/14/21 10:55|gislaine.oliveira@dsm.com, SHE.CONTRACTOR@dsm.com|financeiro@ciafilter.com.br
326|CIARA MAQUINAS E EQUIPAMENTOS COMERCIO LTDA (CIA MÁQUINAS)|60730-230|AV LUIZ VIEIRA|1131|PARQUE SAO JOSE|FORTALEZA|CE|Brasil|07.900.562/0001-30|0|1|1|1|0|0|4/24/20 15:00|4/24/20 15:00|(NULL)|SHE.CONTRACTOR@dsm.com, marcio.garcia@dsm.com, Maria.Barbosa@dsm.com, Lorenna.Sousa@dsm.com|(NULL)|gildasia.ferreira@ciaramaquinas.com.br|g3.dsm@abacotecnologia.com.br|334|131|326|4/24/20 15:01|12/8/20 12:52|SHE.CONTRACTOR@dsm.com, marcio.garcia@dsm.com, Maria.Barbosa@dsm.com, Lorenna.Sousa@dsm.com|contato@ciaramaquinas.com.br, servico@ciaramaquinas.com.br
18|CILENE LOUREIRO TRANSPORTES E GUINDASTES EIRELI|18105-001|AVENIDA PARANA|4283|CAJURU DO SUL|SOROCABA|SP|BRASIL|11.954.882/0001-40|0|1|1|1|0|0|9/6/19 16:59|3/6/20 10:39|(NULL)|bruna.moraes@dsm.com, beatriz.souza@dsm.com, amanda.camargo@dsm.com, luciana.florentino@dsm.com, she.contractor@dsm.com|(NULL)|rh@mcguindastes.com.br, cilene@mcguindastes.com.br|g3.dsm@abacotecnologia.com.br|364|3|18|7/2/20 12:15|2/8/21 14:57|Amanda.Lemos@dsm.com, Bruna.Moraes@dsm.com, Beatriz.Souza@dsm.com, Brenda.Antinarelli@dsm.com, Luiz-Guilherme-Xavier-Cacao.Luiz-Cacao@dsm.com, SHE.CONTRACTOR@dsm.com|rh@mcguindastes.com.br, cilene@mcguindastes.com.br
288|CL AMBIENTAL EIRELI|13343-803|R REVERENDO WILLYBALDO PERALTA ALVES|298|JARDIM ELDORADO|INDAIATUBA|SP|BRASIL|16.995.357/0001-97|0|1|1|1|0|0|4/2/20 16:42|4/2/20 16:42|(NULL)|ivelize.machado@dsm.com, paulo.pereira@dsm.com, she.contractor@dsm.com, she.contractor@dsm.com|(NULL)|financeiro@clambiental.com.br, manutencao.gerencia@clambiental.com.br|g3.dsm@abacotecnologia.com.br|294|3|288|4/2/20 16:43|7/29/21 11:29|g3.dsm@abacotecnologia.com.br, ivelize.machado@dsm.com, paulo.pereira@dsm.com, she.contractor@dsm.com|financeiro@clambiental.com.br
459|CM COMANDOS LINEARES LTDA|04675-085|AV ENGENHEIRO ALBERTO DE ZAGOTTIS|760|JARDIM TAQUARAL|SAO PAULO|SP|BRASIL|52.898.194/0001-98|0|1|1|1|0|0|2/3/21 12:13|2/3/21 12:13|(NULL)|(NULL)|(NULL)|(NULL)|(NULL)|527|3|459|2/3/21 12:13|2/3/21 12:17|Amanda.Lemos@dsm.com, Bruna.Moraes@dsm.com, Beatriz.Souza@dsm.com, Brenda.Antinarelli@dsm.com, Luiz-Guilherme-Xavier-Cacao.Luiz-Cacao@dsm.com, SHE.CONTRACTOR@dsm.com|assistencia@cmcomandos.com.br
186|COLD CONTROL AR CONDICIONADO LTDA|05047-002|RUA CORIOLANO|2058|LAPA|SÃO PAULO|SP|BRASIL|01.992.001/0001-22|0|1|1|1|0|0|2/3/20 11:32|2/3/20 11:32|(NULL)|(NULL)|(NULL)|(NULL)|(NULL)|628|131|186|10/13/21 9:56|10/13/21 10:44|lorenna.sousa@dsm.com, she.contractor@dsm.com|luciana@coldcontrol.com.br
186|COLD CONTROL AR CONDICIONADO LTDA|05047-002|RUA CORIOLANO|2058|LAPA|SÃO PAULO|SP|BRASIL|01.992.001/0001-22|0|1|1|1|0|0|2/3/20 11:32|2/3/20 11:32|(NULL)|(NULL)|(NULL)|(NULL)|(NULL)|347|3|186|6/9/20 9:21|9/8/21 8:48|she.contractor@dsm.com, Isadora.Bonato@dsm.com|(NULL)
20|COMBAT-FIRE BOMBEIROS E SEGURANÇA LTDA|06850-300|AV PRESIDENTE JANIO DA SILVA QUADROS|930|PARQUE PARAISO|ITAPECERICA DA SERRA|SP|Brasil|06.080.842/0001-87|0|1|1|1|0|0|9/6/19 17:12|3/6/20 11:43|SALA 01|bruna.moraes@dsm.com, beatriz.souza@dsm.com, amanda.camargo@dsm.com, she.contractor@dsm.com|(NULL)|geabscombatfireservicos@gmail.com, combatfire@uol.com.br|g3.dsm@abacotecnologia.com.br|15|3|20|11/5/19 17:04|2/8/21 14:57|Amanda.Lemos@dsm.com, Bruna.Moraes@dsm.com, Beatriz.Souza@dsm.com, Brenda.Antinarelli@dsm.com, Luiz-Guilherme-Xavier-Cacao.Luiz-Cacao@dsm.com, SHE.CONTRACTOR@dsm.com|geabscombatfireservicos@gmail.com, combatfire@uol.com.br
450|COMERCIAL PRIME FOOD LTDA|18085-360|R ITAPEVA|197|JARDIM LEOCADIA|SOROCABA|SP|BRASIL|19.137.358/0001-99|0|1|1|1|0|0|1/13/21 15:12|1/13/21 15:12|(NULL)|(NULL)|(NULL)|(NULL)|(NULL)|515|3|450|1/13/21 15:12|1/14/21 9:41|paulo.pereira@dsm.com, she.contractor@dsm.com|contato@comlprimefood.com.br, ssilva@comlprimefood.com.br
188|COMPANHIA ULTRAGAZ - PAULÍNIA|13147-070|AVENIDA ERNESTO IGEL|2848|BONFIM|PAULINIA|SP|BRASIL|61.602.199/0194-84|0|1|1|1|0|0|2/3/20 12:06|3/5/20 15:10|(NULL)|denis.almeida@dsm.com, luciana.florentino@dsm.com, she.contractor@dsm.com|(NULL)|cobrancauac@ultragaz.com.br , lua.santos@ultragaz.com.br|g3.dsm@abacotecnologia.com.br|390|3|188|8/5/20 9:57|2/8/21 15:02|she.contractor@dsm.com, Isadora.Bonato@dsm.com|lua.santos@ultragaz.com.br
485|COMTEC CENTER COMERCIAL LTDA|04407-100|R DOM JOAO SOARES COELHO|551|AMERICANOPOLIS|SAO PAULO|SP|BRASIL|56.941.180/0001-60|0|1|1|1|0|0|5/26/21 8:46|5/26/21 8:46|(NULL)|(NULL)|(NULL)|(NULL)|(NULL)|566|3|485|5/26/21 8:47|5/27/21 10:14|she.contractor@dsm.com, Isadora.Bonato@dsm.com|gabriel@comteclab.com.br
454|CONCRE-TEST CONTROLE TECNOLOGICO LTDA|13087-490|R JORGE DE FIGUEIREDO CORREA|1685|CHACARA PRIMAVERA|CAMPINAS|SP|BRASIL|51.874.105/0001-00|0|1|1|1|0|0|1/19/21 15:09|1/19/21 15:09|(NULL)|(NULL)|(NULL)|(NULL)|(NULL)|520|3|454|1/19/21 15:13|2/15/21 9:34|Amanda.Lemos@dsm.com, Bruna.Moraes@dsm.com, Beatriz.Souza@dsm.com, Brenda.Antinarelli@dsm.com, Luiz-Guilherme-Xavier-Cacao.Luiz-Cacao@dsm.com, SHE.CONTRACTOR@dsm.com|lindomar@guiterconstrucoes.com.br
22|CONCREJATO SERVIÇOS TÉCNICOS DE ENGENHARIA S/A|04565-001|RUA FLORIDA|1738|CIDADE MONCOES|SÃO PAULO|SP|BRASIL|29.994.423/0005-80|0|1|1|1|0|0|9/9/19 12:07|3/5/20 15:10|(NULL)|luciana.florentino@dsm.com, she.contractor@dsm.com|(NULL)|marcos.felipe@concrejato.com.br|g3.dsm@abacotecnologia.com.br|406|3|22|8/31/20 10:55|2/8/21 15:03|she.contractor@dsm.com, Isadora.Bonato@dsm.com|marcos.felipe@concrejato.com.br
189|CONECTY SYSTEM - MANUTENÇÃO DE EQUIPAMENTOS DE INFORMÁTICA LTDA|05831-150|R MANUEL VIEIRA SARMENTO|13|CHACARA SANTANA|SAO PAULO|SP|Brasil|09.446.322/0001-33|0|1|1|1|0|0|2/3/20 14:04|3/6/20 11:56|LETRA A|bruna.moraes@dsm.com, beatriz.souza@dsm.com, amanda.camargo@dsm.com, she.contractor@dsm.com|(NULL)|rh@installautomacao.com.br|g3.dsm@abacotecnologia.com.br|490|3|189|12/10/20 15:21|2/8/21 15:04|Amanda.Lemos@dsm.com, Bruna.Moraes@dsm.com, Beatriz.Souza@dsm.com, Brenda.Antinarelli@dsm.com, Luiz-Guilherme-Xavier-Cacao.Luiz-Cacao@dsm.com, SHE.CONTRACTOR@dsm.com|rh@installautomacao.com.br
419|CONSTRUTORA INOVAR SOROCABA LTDA-ME|18031-180|R MARINHA ANTONIA DAMINI|142|JARDIM EMILIA|SOROCABA|SP|BRASIL|17.820.364/0001-10|0|1|1|1|0|0|12/9/20 11:27|12/9/20 11:27|CASA RUA/AV NORMAL|(NULL)|(NULL)|(NULL)|g3.dsm@abacotecnologia.com.br|483|3|419|12/9/20 11:29|7/12/21 12:23|Fernanda.Bueno-da-Silva@dsm.com, SHE.CONTRACTOR@dsm.com, Fernanda.Bueno-da-Silva@dsm.com|rh@inovarconstrutora.com
353|CONTAINERS FLADAFI LTDA|18120-000|AV DO CAFE|950|HORTO|MAIRINQUE|SP|BRASIL|07.246.790/0001-39|0|1|1|1|0|0|7/13/20 10:39|7/13/20 10:39|(NULL)|(NULL)|(NULL)|(NULL)|(NULL)|601|3|353|8/11/21 14:23|8/11/21 15:22|Amanda.Lemos@dsm.com, Bruna.Moraes@dsm.com, Beatriz.Souza@dsm.com, Brenda.Antinarelli@dsm.com, Luiz-Guilherme-Xavier-Cacao.Luiz-Cacao@dsm.com, SHE.CONTRACTOR@dsm.com|locacoes2@fladafi.com.br
356|CONTROLFIT SISTEMAS DE ENERGIA LTDA|09891-010|R WALDEMAR MARTINS FERREIRA (ALVINOPOLIS)|293|JORDANOPOLIS|SAO BERNARDO DO CAMPO|SP|BRASIL|10.743.480/0001-34|0|1|1|1|0|0|7/28/20 10:55|7/28/20 10:55|(NULL)|(NULL)|(NULL)|(NULL)|(NULL)|384|3|356|7/28/20 10:56|2/8/21 15:05|she.contractor@dsm.com, Isadora.Bonato@dsm.com|cintia.agostinelli@controlfit.com.br
354|CORDEIRO REMOÇÕES GUINDASTES E TRANSPORTES LTDA|61600-970|RUA ALENCAR OLIVEIRA|915|PASSARÉ|FORTALEZA|CE|BRASIL|07.209.686/0001-74|0|1|1|1|0|0|7/17/20 11:01|7/17/20 11:01|(NULL)|(NULL)|(NULL)|(NULL)|(NULL)|381|131|354|7/17/20 11:01|7/20/20 11:55|Amanda.Lemos@dsm.com, Bruna.Moraes@dsm.com, Beatriz.Souza@dsm.com, Brenda.Antinarelli@dsm.com, Luiz-Guilherme-Xavier-Cacao.Luiz-Cacao@dsm.com, SHE.CONTRACTOR@dsm.com|leandro.junior@cordeiroguindastes.com.br, evandom@grupocordeiro.srv.br
27|CRISTALFORT DELAMURA - COMÉRCIO DE VIDROS LTDA|18130-320|RUA AMADOR BUENO|4|CENTRO|SÃO ROQUE|SP|BRASIL|00.183.234/0001-11|0|1|1|1|0|0|9/9/19 12:46|3/6/20 10:43|(NULL)|bruna.moraes@dsm.com, beatriz.souza@dsm.com, amanda.camargo@dsm.com, luciana.florentino@dsm.com, she.contractor@dsm.com|(NULL)|comercial@cristaldelamura.com.br|g3.dsm@abacotecnologia.com.br|337|3|27|5/5/20 9:27|2/8/21 15:05|Amanda.Lemos@dsm.com, Bruna.Moraes@dsm.com, Beatriz.Souza@dsm.com, Brenda.Antinarelli@dsm.com, Luiz-Guilherme-Xavier-Cacao.Luiz-Cacao@dsm.com, SHE.CONTRACTOR@dsm.com, isadora.bonato@dsm.com|comercial@cristaldelamura.com.br
375|CROMALINK INSTRUMENTOS ANALITICOS LIMITADA|30411-105|R CORONEL PEDRO JORGE|409|PRADO|BELO HORIZONTE|MG|BRASIL|64.524.143/0001-85|0|1|1|1|0|0|9/17/20 8:52|9/17/20 8:52|APT 402|(NULL)|(NULL)|(NULL)|(NULL)|413|131|375|9/17/20 8:53|9/17/20 9:07|she.contractor@dsm.com, lorena.gomes@dsm.com|cromalink@gmail.com
520|CSL LABORATORIO AMBIENTAL LTDA|13478-116|R FRANCISCO MANOEL|141|JARDIM SANTANA|AMERICANA|SP|BRASIL|17.853.985/0001-09|0|1|1|1|0|0|8/20/21 12:50|8/20/21 12:50|(NULL)|(NULL)|(NULL)|(NULL)|(NULL)|607|3|520|8/20/21 12:51|8/20/21 12:51|ivelize.machado@dsm.com, SHE.CONTRACTOR@dsm.com|(NULL)
441|CYKLOP DO BRASIL EMBALAGENS LTDA|09941-750|R ESPIRITO SANTO (VL ORIENTAL)|161|CANHEMA|DIADEMA|SP|BRASIL|56.993.512/0001-50|0|1|1|1|0|0|12/21/20 14:58|5/19/21 11:28|(NULL)|(NULL)|(NULL)|(NULL)|g3.dsm@abacotecnologia.com.br|506|3|441|12/21/20 16:17|12/21/20 16:21|Amanda.Lemos@dsm.com, Bruna.Moraes@dsm.com, Beatriz.Souza@dsm.com, Brenda.Antinarelli@dsm.com, Luiz-Guilherme-Xavier-Cacao.Luiz-Cacao@dsm.com, SHE.CONTRACTOR@dsm.com|andre.guimaraes@cyklop.com.br,sandra.marques@cyklop.com.br
344|DANILO DE LIMA MARTINS|13073-340|R CAMARGO PIMENTEL|38|JARDIM GUANABARA|CAMPINAS|SP|BRASIL|32.596.664/0001-51|0|1|1|1|0|0|6/25/20 9:28|6/25/20 9:28|(NULL)|(NULL)|(NULL)|(NULL)|(NULL)|360|3|344|6/25/20 9:28|2/8/21 15:06|she.contractor@dsm.com, Isadora.Bonato@dsm.com|logistica2@salengenharia.com.br
191|DEK AUTOMAÇÃO LTDA|26015-005|RODOVIA PRESIDENTE DUTRA|16000|JARDIM IGUAÇU|NOVA IGUAÇU|RJ|BRASIL|03.053.502/0001-79|0|1|1|1|0|0|2/3/20 17:01|2/3/20 17:09|(NULL)|(NULL)|(NULL)|(NULL)|(NULL)|467|3|191|12/2/20 12:31|2/8/21 15:06|she.contractor@dsm.com, Isadora.Bonato@dsm.com|vendas@konus.com.br
540|DIEGO TADEU ROSA|13186-004|R AGUDOS|161|JARDIM SANTO ANDRE|HORTOLANDIA|SP|BRASIL|23.951.050/0001-05|0|1|1|1|0|0|10/20/21 9:26|10/20/21 9:26|(NULL)|(NULL)|(NULL)|(NULL)|(NULL)|630|3|540|10/20/21 9:28|10/20/21 9:28|Isadora.Bonato@dsm.com, she.contractor@dsm.com|adm.campinas@villarta.com.br
29|DIGICROM ANALÍTICA LTDA|04691-110|RUA DOS MARIANOS|227|CAMPO GRANDE|SAO PAULO|SP|BRASIL|60.160.546/0001-31|0|1|1|1|0|0|9/9/19 13:00|3/5/20 15:15|(NULL)|ivelize.machado@dsm.com, paulo.pereira@dsm.com, she.contractor@dsm.com|(NULL)|flaviane@digimed.ind.br, ana.gabriela@digimed.ind.br|g3.dsm@abacotecnologia.com.br|463|3|29|11/25/20 10:49|10/20/21 10:17|ivelize.machado@dsm.com, paulo.pereira@dsm.com, she.contractor@dsm.com, Jessica.Paixao@dsm.com|julia@digimed.ind.br
148|DILSON ROBERTO SILVA JUNIOR|18045-330|AV LONDRES|495|JARDIM EUROPA|SOROCABA|SP|Brasil|31.879.790/0001-50|0|1|1|1|0|0|12/27/19 12:04|3/6/20 11:52|APT 22|bruna.moraes@dsm.com, beatriz.souza@dsm.com, amanda.camargo@dsm.com, she.contractor@dsm.com|(NULL)|gerente.adm@montalug.com.br, departamentopessoal@montalug.com.br|g3.dsm@abacotecnologia.com.br|137|3|148|12/27/19 12:13|2/8/21 15:07|Amanda.Lemos@dsm.com, Bruna.Moraes@dsm.com, Beatriz.Souza@dsm.com, Brenda.Antinarelli@dsm.com, Luiz-Guilherme-Xavier-Cacao.Luiz-Cacao@dsm.com, SHE.CONTRACTOR@dsm.com|gerente.adm@montalug.com.br, departamentopessoal@montalug.com.br
192|DIMEP - DIMAS DE MELO PIMENTA SISTEMAS DE PONTO E ACESSO|13073-270|RUA FELIPE DOS SANTOS|50|JARDIM GUANABARA|CAMPINAS|SP|BRASIL|61.099.008/0027-80|0|1|1|1|0|0|2/3/20 17:24|2/3/20 17:24|(NULL)|(NULL)|(NULL)|(NULL)|(NULL)|298|3|192|4/3/20 15:13|4/3/20 15:13|(NULL)|(NULL)
133|DINERLEI GUIDOTTI|13601-012|RUA DONA REGINA MICHIELIN|362|JARDIM BELVEDERE|ARARAS|SP|BRASIL|24.174.270/0001-87|0|1|1|1|0|0|11/11/19 15:22|5/7/20 11:40|(NULL)|Lorenna.Sousa@dsm.com, Maria.Barbosa@dsm.com, SHE.CONTRACTOR@dsm.com|(NULL)|dinerlei@arapredi.com.br, rafaela@arapredi.com.br|g3.dsm@abacotecnologia.com.br|125|131|133|11/11/19 15:47|6/16/20 12:17|Lorenna.Sousa@dsm.com, Maria.Barbosa@dsm.com, SHE.CONTRACTOR@dsm.com|dinerlei@arapredi.com.br, rafaela@arapredi.com.br
31|DOMÍNIO - SERVIÇOS E COMÉRCIO DE EQUIPAMENTOS PARA AUTOMAÇÃO LTDA - ME|02033-000|AV GENERAL ATALIBA LEONEL|1223|SANTANA|SAO PAULO|SP|Brasil|10.941.964/0001-98|0|1|1|1|0|0|9/9/19 16:33|3/6/20 11:47|SALA 104|bruna.moraes@dsm.com, beatriz.souza@dsm.com, amanda.camargo@dsm.com, she.contractor@dsm.com|(NULL)|renan.cardoso@dominio-aut.com.br|g3.dsm@abacotecnologia.com.br|26|3|31|11/5/19 17:04|2/8/21 15:08|Amanda.Lemos@dsm.com, Bruna.Moraes@dsm.com, Beatriz.Souza@dsm.com, Brenda.Antinarelli@dsm.com, Luiz-Guilherme-Xavier-Cacao.Luiz-Cacao@dsm.com, SHE.CONTRACTOR@dsm.com|renan.cardoso@dominio-aut.com.br
453|DUO-TECH SOLUCOES EM INSTALACOES ELETRICAS LTDA|12951-200|AV INDUSTRIAL WALTER KLOTH|75|JARDIM DAS PALMEIRAS|ATIBAIA|SP|BRASIL|18.958.130/0001-05|0|1|1|1|0|0|1/19/21 11:12|1/19/21 11:12|CASA 4|(NULL)|(NULL)|(NULL)|(NULL)|519|3|453|1/19/21 11:12|5/24/21 13:35|(NULL)|(NULL)
132|ECMI MONTAGENS INDUSTRIAIS EIRELI|18017-158|R FERNANDO SILVA|190|JARDIM ASTRO|SOROCABA|SP|Brasil|00.361.474/0001-69|0|1|1|1|0|0|11/11/19 10:45|3/6/20 11:51|ANDAR 3 SALA 304 R 54|bruna.moraes@dsm.com, beatriz.souza@dsm.com, amanda.camargo@dsm.com, she.contractor@dsm.com|(NULL)|dp@cmibb.com.br, planejamento.caldeiraria@cmibb.com.br|g3.dsm@abacotecnologia.com.br|124|3|132|11/11/19 10:47|2/8/21 15:09|Amanda.Lemos@dsm.com, Bruna.Moraes@dsm.com, Beatriz.Souza@dsm.com, Brenda.Antinarelli@dsm.com, Luiz-Guilherme-Xavier-Cacao.Luiz-Cacao@dsm.com, SHE.CONTRACTOR@dsm.com|dp@cmibb.com.br, planejamento.caldeiraria@cmibb.com.br
32|ECOPROCESSOS LTDA|13073-270|AVENIDA BRASILIA|372|JARDIM D'ICARAI|SALTO|SP|Brasil|02.293.997/0001-40|0|1|1|1|0|0|9/9/19 17:02|3/5/20 15:16|(NULL)|ivelize.machado@dsm.com, paulo.pereira@dsm.com, luciana.florentino@dsm.com, she.contractor@dsm.com|(NULL)|rh2@sorocabaambiental.com.br, sgi@sorocabaambiental.com.br, sorocaba@sorocabaambiental.com.br|g3.dsm@abacotecnologia.com.br|27|3|32|11/5/19 17:04|2/8/21 15:10|she.contractor@dsm.com, Isadora.Bonato@dsm.com|sorocaba@sorocabaambiental.com.br, marcos@sorocabaambiental.com.br
486|EDGAR RODRIGUES 30714086843|18108-090|R JOSE SARTI|249|BRIGADEIRO TOBIAS|SOROCABA|SP|BRASIL|40.858.195/0001-20|0|1|1|1|0|0|5/27/21 12:55|5/27/21 12:55|CASA 02|(NULL)|(NULL)|(NULL)|(NULL)|567|3|486|5/27/21 12:55|5/27/21 12:59|she.contractor@dsm.com, Isadora.Bonato@dsm.com|gerente.adm@montalug.com.br, departamentopessoal@montalug.com.br
127|EDUARDO RAMOS DOS SANTOS INSTALAÇÕES|06730-000|R ESPERANCA|201|JARDIM VARGEM GRANDE|VARGEM GRANDE PAULISTA|SP|Brasil|22.307.435/0001-16|0|1|1|1|0|0|11/4/19 15:58|3/6/20 11:49|(NULL)|bruna.moraes@dsm.com, beatriz.souza@dsm.com, amanda.camargo@dsm.com, she.contractor@dsm.com|(NULL)|rosangela.ramos@erss.com.br,eduardo.ramos@erss.com.br|g3.dsm@abacotecnologia.com.br|121|3|127|11/5/19 17:34|2/8/21 15:10|Amanda.Lemos@dsm.com, Bruna.Moraes@dsm.com, Beatriz.Souza@dsm.com, Brenda.Antinarelli@dsm.com, Luiz-Guilherme-Xavier-Cacao.Luiz-Cacao@dsm.com, SHE.CONTRACTOR@dsm.com|rosangela.ramos@erss.com.br,eduardo.ramos@erss.com.br
426|EFICAZ INSTALACOES ELETRICAS LTDA|89804-430|R ALFREDO WAGNER|255|ALVORADA|CHAPECO|SC|BRASIL|21.192.333/0001-30|0|1|1|1|0|0|12/15/20 9:45|12/15/20 9:45|LETRA E|(NULL)|(NULL)|(NULL)|(NULL)|494|3|426|12/15/20 9:45|2/8/21 15:10|Amanda.Lemos@dsm.com, Bruna.Moraes@dsm.com, Beatriz.Souza@dsm.com, Brenda.Antinarelli@dsm.com, Luiz-Guilherme-Xavier-Cacao.Luiz-Cacao@dsm.com, SHE.CONTRACTOR@dsm.com|rh@installautomacao.com.br
464|ELECTRO TECNICA NIPO BRASILEIRA LTDA|09950-320|R PAULO AFONSO|233|VL N SRA APARECIDA|DIADEMA|SP|BRASIL|48.128.706/0001-60|0|1|1|1|0|0|3/8/21 12:15|3/8/21 12:15|(NULL)|(NULL)|(NULL)|(NULL)|(NULL)|537|3|464|3/8/21 12:15|3/8/21 12:16|Amanda.Lemos@dsm.com, Bruna.Moraes@dsm.com, Beatriz.Souza@dsm.com, Brenda.Antinarelli@dsm.com, Luiz-Guilherme-Xavier-Cacao.Luiz-Cacao@dsm.com, SHE.CONTRACTOR@dsm.com|aty@aty.com.br
34|ELETRA ASSISTÊNCIA TÉCNICA E MONTAGEM INDUSTRIAL LTDA|09629-090|RUA SÃO SILVESTRE|68|RUDGE RAMOS|SÃO BERNARDO DO CAMPOS|SP|BRASIL|07.227.669/0001-60|0|1|1|1|0|0|9/13/19 10:45|3/5/20 15:17|AVENIDA ANTONINO DIAS BASTOS, 1173|luciana.florentino@dsm.com, she.contractor@dsm.com|(NULL)|jadsondossantos@terra.com.br|g3.dsm@abacotecnologia.com.br|28|3|34|11/5/19 17:04|2/8/21 15:11|she.contractor@dsm.com, Isadora.Bonato@dsm.com|jadsondossantos@terra.com.br
393|ELETRON COMÉRCIO, MANUTENÇÃO E MONTAGEM ELETRICA INDUSTRIAL LTDA|13178-222|R DOIS|73|PQ. FLORELY|SUMARE|SP|BRASIL|03.180.893/0001-92|0|1|1|1|0|0|10/29/20 11:42|10/29/20 11:42|(NULL)|(NULL)|(NULL)|(NULL)|(NULL)|445|3|393|10/29/20 11:42|2/8/21 15:11|she.contractor@dsm.com, Isadora.Bonato@dsm.com|fernanda.stoppa@ultragaz.com.br, eletron_eletron@outlook.com
36|ELEVADORES VILLARTA LTDA (CAMPINAS)|13207-030|RUA RALPHO LEITE DE BARROS|273|JARDIM DO TREVO|CAMPINAS|SP|BRASIL|54.222.401/0006-20|0|1|1|1|0|0|9/13/19 10:58|3/6/20 10:49|(NULL)|bruna.moraes@dsm.com, beatriz.souza@dsm.com, amanda.camargo@dsm.com, luciana.florentino@dsm.com, she.contractor@dsm.com|(NULL)|admjundiai02@villarta.com.br, lucineide@villarta.com.br|g3.dsm@abacotecnologia.com.br|365|3|36|7/2/20 12:15|8/27/21 11:27|she.contractor@dsm.com, Isadora.Bonato@dsm.com|adm.campinas@villarta.com.br
245|ELEVADORES VILLARTA LTDA (FORTALEZA)|60822-275|R J. DE FIGUEIREDO FILHO|114|CAMBEBA|FORTALEZA|CE|BRASIL|54.222.401/0020-88|0|1|1|1|0|0|2/24/20 9:54|4/5/21 10:06|(NULL)|(NULL)|(NULL)|(NULL)|(NULL)|239|131|245|2/24/20 9:54|2/24/20 9:54|(NULL)|(NULL)
35|ELEVADORES VILLARTA LTDA (JUNDIAÍ)|09629-090|RUA SECUNDINO VEIGA|443|VILA VIANELO|JUNDIAI|SP|BRASIL|54.222.401/0005-49|0|1|1|1|0|0|9/13/19 10:54|3/6/20 10:49|(NULL)|bruna.moraes@dsm.com, beatriz.souza@dsm.com, amanda.camargo@dsm.com, luciana.florentino@dsm.com, she.contractor@dsm.com|(NULL)|admjundiai02@villarta.com.br, lucineide@villarta.com.br|g3.dsm@abacotecnologia.com.br|341|3|35|5/12/20 10:48|8/27/21 11:27|she.contractor@dsm.com, Isadora.Bonato@dsm.com|adm.campinas@villarta.com.br
197|EMON DESENHOS TÉCNICOS EIRELI|04115-000|R PEDRO POMPONAZZI|555|JARDIM VILA MARIANA|SAO PAULO|SP|BRASIL|09.000.198/0001-88|0|1|1|1|0|0|2/5/20 13:46|3/6/20 14:57|APT 601|bruna.moraes@dsm.com, beatriz.souza@dsm.com, amanda.camargo@dsm.com, she.contractor@dsm.com|(NULL)|lidia.planejamento@genpro.com.br|g3.dsm@abacotecnologia.com.br|188|3|197|2/5/20 13:46|2/8/21 15:12|Amanda.Lemos@dsm.com, Bruna.Moraes@dsm.com, Beatriz.Souza@dsm.com, Brenda.Antinarelli@dsm.com, Luiz-Guilherme-Xavier-Cacao.Luiz-Cacao@dsm.com, SHE.CONTRACTOR@dsm.com|lidia.planejamento@genpro.com.br
38|ENDRESS + HAUSER CONTROLE E AUTOMAÇÃO LTDA|04029-901|AVENIDA IBIRAPUERA|2033|INDIANOPOLIS|SÃO PAULO|SP|Brasil|49.423.619/0001-06|0|1|1|1|0|0|9/13/19 11:12|3/6/20 14:59|3º ANDAR/6º ANDAR|bruna.moraes@dsm.com, beatriz.souza@dsm.com, amanda.camargo@dsm.com, luciana.florentino@dsm.com, she.contractor@dsm.com|(NULL)|vitoria.pereira@endress.com, agendamento.br.sc@endress.com|g3.dsm@abacotecnologia.com.br|366|3|38|7/2/20 12:15|2/8/21 15:12|Amanda.Lemos@dsm.com, Bruna.Moraes@dsm.com, Beatriz.Souza@dsm.com, Brenda.Antinarelli@dsm.com, Luiz-Guilherme-Xavier-Cacao.Luiz-Cacao@dsm.com, SHE.CONTRACTOR@dsm.com, Isadora.Bonato@dsm.com|vitoria.pereira@endress.com, agendamento.br.sc@endress.com
171|ENGEBRAN MONTAGENS ELETROMECÂNICAS LTDA|18016-150|RUA SIZINA AZEVEDO SCHREPEL|351|JARDIM PIRATININGA|SOROCABA|SP|BRASIL|02.102.665/0001-31|0|1|1|1|0|0|1/27/20 12:22|3/6/20 15:33|(NULL)|bruna.moraes@dsm.com, beatriz.souza@dsm.com, amanda.camargo@dsm.com, she.contractor@dsm.com|(NULL)|dp@cmibb.com.br, planejamento.caldeiraria@cmibb.com.br|g3.dsm@abacotecnologia.com.br|162|3|171|1/27/20 12:31|2/8/21 15:13|Amanda.Lemos@dsm.com, Bruna.Moraes@dsm.com, Beatriz.Souza@dsm.com, Brenda.Antinarelli@dsm.com, Luiz-Guilherme-Xavier-Cacao.Luiz-Cacao@dsm.com, SHE.CONTRACTOR@dsm.com|dp@cmibb.com.br, planejamento.caldeiraria@cmibb.com.br
39|ENGECOMP COMÉRCIO DE MATERIAIS E SERVIÇOS EIRELI|18114-001|AVENIDA LUIZ DO PATROCINIO FERNANDES|1036|RIO ACIMA|VOTORANTIM|SP|BRASIL|13.077.456/0001-00|0|1|1|1|0|0|9/13/19 11:28|3/6/20 15:41|SALA 2|bruna.moraes@dsm.com, beatriz.souza@dsm.com, amanda.camargo@dsm.com, she.contractor@dsm.com, luciana.florentino@dsm.com|(NULL)|renata.moreira@engecomp.ind.br, fabricio.santos@engecomp.ind.br, rodrigo.sacchetti@engecomp.ind.br, felipe.moraes@engecomp.ind.br|g3.dsm@abacotecnologia.com.br|33|3|39|11/5/19 17:04|9/20/21 9:51|she.contractor@dsm.com, isadora.bonato@dsm.com|renata.moreira@engecomp.ind.br, luiz.alves@engecomp.ind.br
391|ENGECOMP INSTALACOES INDUSTRIAIS EIRELI|18114-001|AV LUIZ DO PATROCINO FERNANDES|1036|VILA DOMINGUINHO|VOTORANTIM|SP|BRASIL|30.672.508/0001-05|0|1|1|1|0|0|10/20/20 14:24|10/20/20 14:24|TERREO|(NULL)|(NULL)|(NULL)|(NULL)|438|131|391|10/20/20 14:24|8/27/21 9:21|Lorenna.Sousa@dsm.com, SHE.CONTRACTOR@dsm.com, maria.barbosa@dsm.com|renata.moreira@engecomp.ind.br, luiz.alves@engecomp.ind.br
328|ENGEMED SAÚDE OCUPACIONAL EIRELI|01332-903|R ITAPEVA|500|CERQUEIRA CESAR|SÃO PAULO|SP|BRASIL|60.910.080/0001-44|0|1|1|1|0|0|5/4/20 9:43|5/4/20 9:46|6 ANDAR CJ. 6CD|lucleide.santos@dsm.com, SHE.CONTRACTOR@dsm.com, Leticia.Ramos@dsm.com|(NULL)|karina.moreira@engemed.med.br, edilaine.belo@engemed.med.br|g3.dsm@abacotecnologia.com.br|336|3|328|5/4/20 9:43|7/29/20 14:25|g3.dsm@abacotecnologia.com.br, lucleide.santos@dsm.com, SHE.CONTRACTOR@dsm.com, Leticia.Ramos@dsm.com|edilaine.belo@engemed.med.br, luiz.xavier@engemed.med.br
447|ENGEMOV PRODUTOS INDUSTRIAIS EIRELI (CENTRAL DAS CORREIAS)|61930-305|AV DOS MARINHEIROS|519|CIDADE NOVA|MARACANAU|CE|BRASIL|17.945.848/0001-96|0|1|1|1|0|0|12/29/20 15:22|12/29/20 15:22|(NULL)|(NULL)|(NULL)|(NULL)|(NULL)|510|131|447|12/29/20 15:22|9/21/21 9:06|Amanda.Lemos@dsm.com, Bruna.Moraes@dsm.com, Beatriz.Souza@dsm.com, Brenda.Antinarelli@dsm.com, Luiz-Guilherme-Xavier-Cacao.Luiz-Cacao@dsm.com, SHE.CONTRACTOR@dsm.com|gerente.adm@montalug.com.br
452|ENSATEC - INDUSTRIA, COMERCIO E ASSISTENCIA TECNICA DE BALANCAS LTDA|84016-410|R FIDELIS AUGUSTO ALVES|2091|JARDIM CARVALHO|PONTA GROSSA|PR|BRASIL|02.117.991/0001-12|0|1|1|1|0|0|1/19/21 10:04|1/19/21 10:04|(NULL)|(NULL)|(NULL)|(NULL)|(NULL)|518|3|452|1/19/21 10:05|1/19/21 10:55|Thomas.Pereira@dsm.com, SHE.CONTRACTOR@dsm.com|sandro@ensatec.com.br, alana@ensatec.com.br
360|ESTAF EQUIPAMENTOS S/A|60731-534|AV GENERAL OSORIO DE PAIVA|4500|BOM JARDIM|FORTALEZA|CE|BRASIL|11.184.785/0009-73|0|1|1|1|0|0|8/6/20 9:28|8/6/20 9:28|(NULL)|(NULL)|(NULL)|(NULL)|(NULL)|392|131|360|8/6/20 9:29|8/6/20 9:29|Amanda.Lemos@dsm.com, Bruna.Moraes@dsm.com, Beatriz.Souza@dsm.com, Brenda.Antinarelli@dsm.com, Luiz-Guilherme-Xavier-Cacao.Luiz-Cacao@dsm.com, SHE.CONTRACTOR@dsm.com|rogelane.lopes@estaf.com.br
406|ETIEL COMERCIO E MONTAGENS ELETRICAS LTDA|04678-001|R PROFESSOR GUILHERME BELFORT SABINO|439|CAMPININHA|SAO PAULO|SP|BRASIL|02.582.425/0001-81|0|1|1|1|0|0|11/26/20 16:57|11/26/20 16:57|(NULL)|(NULL)|(NULL)|(NULL)|(NULL)|530|3|406|2/15/21 9:58|2/15/21 9:58|Amanda.Lemos@dsm.com, Bruna.Moraes@dsm.com, Beatriz.Souza@dsm.com, Brenda.Antinarelli@dsm.com, Luiz-Guilherme-Xavier-Cacao.Luiz-Cacao@dsm.com, SHE.CONTRACTOR@dsm.com|departamentopessoal@montalug.com.br
462|EVANDRO CARLOS DA ROSA|18113-810|R JOSE ROQUE GUERRA|223|ALTOS DE VOTORANTIM|VOTORANTIM|SP|BRASIL|35.874.626/0001-01|0|1|1|1|0|0|2/22/21 11:27|2/22/21 11:27|(NULL)|(NULL)|(NULL)|(NULL)|(NULL)|532|3|462|2/22/21 11:28|2/22/21 11:28|Amanda.Lemos@dsm.com, Bruna.Moraes@dsm.com, Beatriz.Souza@dsm.com, Brenda.Antinarelli@dsm.com, Luiz-Guilherme-Xavier-Cacao.Luiz-Cacao@dsm.com, SHE.CONTRACTOR@dsm.com|gabriela.apolinario@installautomacao.com.br
41|EXCEDE DIAGNÓSTICO E PREVENÇÃO LTDA|04038-000|RUA BORGES LAGOA|564|VILA CLEMENTINO|SÃO PAULO|SP|BRASIL|24.180.230/0001-48|0|1|1|1|0|0|9/13/19 12:45|3/6/20 15:44|CONJUNTO 72|bruna.moraes@dsm.com, beatriz.souza@dsm.com, amanda.camargo@dsm.com, she.contractor@dsm.com|(NULL)|ivo.excede@hotmail.com|g3.dsm@abacotecnologia.com.br|538|131|41|3/9/21 13:58|3/9/21 14:02|Amanda.Lemos@dsm.com, Bruna.Moraes@dsm.com, Beatriz.Souza@dsm.com, Brenda.Antinarelli@dsm.com, Luiz-Guilherme-Xavier-Cacao.Luiz-Cacao@dsm.com, SHE.CONTRACTOR@dsm.com|ivo.excede@hotmail.com
456|FABIO CESAR MARTINS DE ALMEIDA MEDEIROS 35656599809|18050-260|AV SANTA CRUZ|255|JARDIM VERA CRUZ|SOROCABA|SP|BRASIL|36.858.485/0001-04|0|1|1|1|0|0|1/28/21 9:27|1/28/21 9:27|BLOCO 11;APT 34|(NULL)|(NULL)|(NULL)|(NULL)|521|3|456|1/28/21 9:31|1/28/21 9:31|(NULL)|(NULL)
151|FABRICA MEDEIROS LTDA|12238-500|RUA JANUÁRIA|661|CHACARAS REUNIDAS|SÃO JOSÉ DOS CAMPOS|SP|BRASIL|17.375.084/0001-40|0|1|1|1|0|0|1/6/20 10:16|6/2/21 10:04|(NULL)|bruna.moraes@dsm.com, beatriz.souza@dsm.com, amanda.camargo@dsm.com, luciana.florentino@dsm.com, she.contractor@dsm.com|(NULL)|fabricamedeiros@fabricamedeiros.com, rh@fabricamedeiros.com|g3.dsm@abacotecnologia.com.br|140|3|151|1/6/20 10:20|2/8/21 15:14|Amanda.Lemos@dsm.com, Bruna.Moraes@dsm.com, Beatriz.Souza@dsm.com, Brenda.Antinarelli@dsm.com, Luiz-Guilherme-Xavier-Cacao.Luiz-Cacao@dsm.com, SHE.CONTRACTOR@dsm.com|fabricamedeiros@fabricamedeiros.com, rh@fabricamedeiros.com
399|FELIPE AUGUSTO PIERRONI|13301-876|AL SANTA THEREZINHA|202|JARDIM THEODORA|ITU|SP|Brasil|34.747.190/0001-27|0|1|1|1|0|0|11/11/20 14:24|11/11/20 14:24|(NULL)|(NULL)|(NULL)|(NULL)|(NULL)|453|3|399|11/11/20 14:52|2/8/21 15:15|Amanda.Lemos@dsm.com, Bruna.Moraes@dsm.com, Beatriz.Souza@dsm.com, Brenda.Antinarelli@dsm.com, Luiz-Guilherme-Xavier-Cacao.Luiz-Cacao@dsm.com, SHE.CONTRACTOR@dsm.com|adm@glbtechautomacao.com.br
149|FELIPE MIRANDA CORDEIRO 35395088806|08773-380|AVENIDA FRANCISCO RODRIGUES FILHO|2001|VILA MOGILAR|MOGI DAS CRUZES|SP|BRASIL|18.919.771/0001-42|0|1|1|1|0|0|12/27/19 12:27|12/27/19 12:27|BLOCO CA;APT 25|(NULL)|(NULL)|(NULL)|(NULL)|283|3|149|4/2/20 14:20|4/2/20 14:20|(NULL)|(NULL)
398|FINE SOUND IMPORTACAO, COMERCIO E SERVICOS DE SONORIZACAO LTDA|03125-080|R AGOSTINHO LATTARI|621|PARQUE DA MOOCA|SAO PAULO|SP|BRASIL|04.390.666/0002-35|0|1|1|1|0|0|11/5/20 14:33|11/5/20 14:33|(NULL)|(NULL)|(NULL)|(NULL)|(NULL)|451|3|398|11/5/20 14:41|11/5/20 16:59|Silvia-S.Santos@dsm.com, she.contractor@dsm.com|diego@finesound.com.br
296|FL ADMINISTRAÇÃO|20766-721|EST ADHEMAR BEBIANO|4800|ENGENHO DA RAINHA|RIO DE JANEIRO|RJ|BRASIL|35.935.241/0001-07|0|1|1|1|0|0|4/6/20 12:04|4/6/20 12:04|BLOCO 7 AP 807|(NULL)|(NULL)|(NULL)|g3.dsm@abacotecnologia.com.br|303|3|296|4/6/20 12:04|4/6/20 12:04|(NULL)|(NULL)
342|FLOWSERVICE|06703-000|AV PROFESSOR JOSE BARRETO|1739|JARDIM DINORAH|COTIA|SP|BRASIL|10.848.090/0001-29|0|1|1|1|0|0|6/22/20 10:51|7/2/20 12:20|ANDAR: 2; SALA: 23;|(NULL)|(NULL)|(NULL)|(NULL)|358|3|342|6/22/20 10:51|6/22/20 13:52|Luiz.Bittencourt@dsm.com, she.contractor@dsm.com|atendimento@flowservice.com.br
280|FOCUS CONTROLE AMBIENTAL LTDA|60761-281|AV BERNARDO MANUEL|10211|PARQUE DOIS IRMAOS|FORTALEZA|CE|BRASIL|08.355.354/0002-41|0|1|1|1|0|0|3/31/20 8:42|3/31/20 8:42|(NULL)|keterine.coutinho@dsm.com, Maria.Barbosa@dsm.com, SHE.CONTRACTOR@dsm.com|(NULL)|comercial@focusambiental.com.br, focus@focusambiental.com.br|g3.dsm@abacotenologia.com.br|274|131|280|3/31/20 8:42|6/16/20 12:18|keterine.coutinho@dsm.com, Maria.Barbosa@dsm.com, SHE.CONTRACTOR@dsm.com|comercial@focusambiental.com.br, focus@focusambiental.com.br
248|FORNECEDOR TESTE|09020-160|RUA ELISA FLÁQUER|100|CENTRO|SANTO ANDRÉ|SP|Brasil|12.345.678/0001-00|0|1|1|1|0|0|2/28/20 15:27|2/28/20 15:59|SALA A|g3@abacotecnologia.com.br|(NULL)|g3@abacotecnologia.com.br|g3@abacotecnologia.com.br|241|247|248|2/28/20 15:57|2/28/20 15:57|g3@abacotecnologia.com.br|g3@abacotecnologia.com.br
248|FORNECEDOR TESTE|09020-160|RUA ELISA FLÁQUER|100|CENTRO|SANTO ANDRÉ|SP|Brasil|12.345.678/0001-00|0|1|1|1|0|0|2/28/20 15:27|2/28/20 15:59|SALA A|g3@abacotecnologia.com.br|(NULL)|g3@abacotecnologia.com.br|g3@abacotecnologia.com.br|598|3|248|7/23/21 15:39|7/23/21 15:39|(NULL)|(NULL)
269|FORNECEDORA-MÁQUINAS E EQUIPAMENTOS LTDA|60840-285|AV FREI CIRILO|2524|CAJZEIRAS|FORTALEZA|CE|BRASIL|07.197.718/0001-69|0|1|1|1|0|0|3/18/20 10:45|3/18/20 10:45|(NULL)|Maria.Barbosa@dsm.com, SHE.CONTRACTOR@dsm.com, Lorenna.Sousa@dsm.com|(NULL)|edwiges.vieira@fornecedoramaquinas.com.br, david.carvalho@fornecedoramaquinas.com.br|g3.dsm@abacotecnologia.com.br|385|131|269|7/30/20 9:55|7/30/20 9:56|g3.dsm@abacotecnologia.com.br, Lorenna.Sousa@dsm.com, SHE.CONTRACTOR@dsm.com, Maria.Barbosa@dsm.com|edwiges.vieira@fornecedoramaquinas.com.br
43|G.A ENGENHARIA E COMÉRCIO LTDA|06410-120|RUA FRANCISCO DE MELLO PALHETA|213|JARDIM DOS CAMARGOS|BARUERI|SP|BRASIL|96.499.637/0001-43|0|1|1|1|0|0|9/13/19 12:58|3/6/20 15:46|CASA 01|bruna.moraes@dsm.com, beatriz.souza@dsm.com, amanda.camargo@dsm.com, she.contractor@dsm.com|(NULL)|anacristina@gaengenharia.com.br, micheldomingues@gaengenharia.com.br, ricardocustodio@gaengenharia.com.br|g3.dsm@abacotecnologia.com.br|367|3|43|7/2/20 12:15|2/8/21 15:16|Amanda.Lemos@dsm.com, Bruna.Moraes@dsm.com, Beatriz.Souza@dsm.com, Brenda.Antinarelli@dsm.com, Luiz-Guilherme-Xavier-Cacao.Luiz-Cacao@dsm.com, SHE.CONTRACTOR@dsm.com|anacristina@gaengenharia.com.br, micheldomingues@gaengenharia.com.br, ricardocustodio@gaengenharia.com.br
198|GABRIEL NASCIMENTO DE ALMEIDA|25640-550|R VINTE E QUATRO DE MAIO|409|ALTO DA SERRA|PETROPOLIS|RJ|BRASIL|22.489.127/0001-59|0|1|1|1|0|0|2/5/20 15:14|3/5/20 15:22|(NULL)|luciana.florentino@dsm.com, she.contractor@dsm.com|(NULL)|logistica2@salengenharia.com.br|g3.dsm@abacotecnologia.com.br|356|3|198|6/19/20 10:08|2/8/21 15:16|she.contractor@dsm.com, isadora.bonato@dsm.com|gonzalo@salengenharia.com.br, logistica@salengenharia.com.br, logistica2@salengenharia.com.br
539|GARDENIA CONSULTORIA E PROJETOS DE ENGENHARIA E INFORMATICA LTDA|02037-001|R DOUTOR OLAVO EGIDIO|873|SANTANA|SAO PAULO|SP|BRASIL|10.494.617/0001-64|0|1|1|1|0|0|10/18/21 9:59|10/18/21 9:59|CONJ 02|(NULL)|(NULL)|(NULL)|(NULL)|629|3|539|10/18/21 10:03|10/18/21 10:03|Amanda.Lemos@dsm.com, Bruna.Moraes@dsm.com, Beatriz.Souza@dsm.com, Brenda.Antinarelli@dsm.com, Luiz-Guilherme-Xavier-Cacao.Luiz-Cacao@dsm.com, SHE.CONTRACTOR@dsm.com|daniel.planejamento@genpro.com.br
199|GEA EQUIPAMENTOS E SOLUÇÕES LTDA|13054-750|AV MERCEDES BENZ|679|DISTRITO INDUSTRIAL|CAMPINAS|SP|BRASIL|02.095.850/0007-31|0|1|1|1|0|0|2/5/20 15:27|2/17/20 16:55|ANDAR: 1; : PREDIO 4D2 PISO 2.;|(NULL)|(NULL)|(NULL)|(NULL)|440|3|199|10/21/20 13:56|2/8/21 15:16|she.contractor@dsm.com, isadora.bonato@dsm.com|Raphaela.Almeida@gea.com
519|GEIA ASSESSORIA EM PROJETOS DE MEIO AMBIENTE LTDA|83324-180|R MARIALVA|431|EMILIANO PERNETA|PINHAIS|PR|BRASIL|13.885.418/0001-75|0|1|1|1|0|0|8/20/21 11:18|8/20/21 11:18|(NULL)|(NULL)|(NULL)|(NULL)|(NULL)|606|3|519|8/20/21 11:18|8/20/21 11:24|ivelize.machado@dsm.com, SHE.CONTRACTOR@dsm.com|andrey.zem@geiaambiental.com.br
44|GENPRO ENGENHARIA S.A|01049-000|RUA FORMOSA|75|CENTRO|SÃO PAULO|SP|BRASIL|00.753.622/0001-90|0|1|1|1|0|0|9/13/19 14:08|3/6/20 15:47|4º ANDAR|bruna.moraes@dsm.com, beatriz.souza@dsm.com, amanda.camargo@dsm.com, she.contractor@dsm.com|(NULL)|lidia.planejamento@genpro.com.br|g3.dsm@abacotecnologia.com.br|400|3|44|8/21/20 8:45|2/8/21 15:16|Amanda.Lemos@dsm.com, Bruna.Moraes@dsm.com, Beatriz.Souza@dsm.com, Brenda.Antinarelli@dsm.com, Luiz-Guilherme-Xavier-Cacao.Luiz-Cacao@dsm.com, SHE.CONTRACTOR@dsm.com|lidia.planejamento@genpro.com.br, edwin@genpro.com.br
378|GERAFORÇA LOCACAO E COMERCIO DE EQUIPAMENTOS LTDA|06713-630|EST DO CAPUAVA|6351|MOINHO VELHO|COTIA|SP|BRASIL|53.002.077/0001-67|0|1|1|1|0|0|9/23/20 11:28|9/23/20 11:28|A - B|(NULL)|(NULL)|(NULL)|(NULL)|426|3|378|10/1/20 9:51|10/1/20 9:52|she.contractor@dsm.com, isadora.bonato@dsm.com|cristiano.rodrigues@geraforca.com.br
154|GLBTECH MONTAGENS INDUSTRIAIS|13310-000|RUA MARIO PRIETO|60|JARDIM PAULISTA|ITU|SP|BRASIL|28.655.099/0001-89|0|1|1|1|0|0|1/6/20 14:24|3/6/20 15:50|(NULL)|bruna.moraes@dsm.com, beatriz.souza@dsm.com, amanda.camargo@dsm.com, she.contractor@dsm.com|(NULL)|alan.ferreira@glbtechautomacao.com.br, adm@glbtechautomacao.com.br|g3.dsm@abacotecnologia.com.br|143|3|154|1/6/20 14:29|2/8/21 15:18|Amanda.Lemos@dsm.com, Bruna.Moraes@dsm.com, Beatriz.Souza@dsm.com, Brenda.Antinarelli@dsm.com, Luiz-Guilherme-Xavier-Cacao.Luiz-Cacao@dsm.com, SHE.CONTRACTOR@dsm.com|alan.ferreira@glbtechautomacao.com.br, adm@glbtechautomacao.com.br
268|GLOBAL FORCE MANUTENCOES LTDA|18147-000|EST DA RONDA|80|DISTRITO INDUSTRIAL|ARACARIGUAMA|SP|BRASIL|20.222.070/0001-00|0|1|1|1|0|0|3/17/20 14:29|3/17/20 14:29|GALPAO: 4;|Beatriz.Souza@dsm.com, SHE.CONTRACTOR@dsm.com, Bruna.Moraes@dsm.com, Amanda.Camargo@dsm.com|(NULL)|eduardo@gfe.eng.br|g3.dsm@abacotecnologia.com.br|560|3|268|5/11/21 11:04|5/11/21 11:04|Amanda.Lemos@dsm.com, Bruna.Moraes@dsm.com, Beatriz.Souza@dsm.com, Brenda.Antinarelli@dsm.com, Luiz-Guilherme-Xavier-Cacao.Luiz-Cacao@dsm.com, SHE.CONTRACTOR@dsm.com|eduardo@gfe.eng.br
47|GLOBOFIRE EQUIPAMENTOS CONTRA INCÊNDIO LTDA|05588-001|AVENIDA ENGENEHIRO HEITOR ANTONIO EIRAS GARCIA|1727|BUTANTÃ|SÃO PAULO|SP|Brasil|04.196.351/0001-70|0|1|1|1|0|0|9/13/19 14:35|9/13/19 14:35|RUA AMADOR BUENO, 4|(NULL)|(NULL)|(NULL)|(NULL)|41|3|47|11/5/19 17:04|2/1/21 15:46|Kelly.Fernandes-dos-Santos@dsm.com, she.contractor@dsm.com|danilo@globofire.com.br
234|GPS PREDIAL SISTEMAS DE SEGURANÇA LTDA|60761-435|R TOPAZIO|184|MONDUBIM|FORTALEZA|CE|BRASIL|16.328.205/0004-83|0|1|1|1|0|0|2/19/20 11:31|3/30/20 16:08|: PARTE;|maria.sombra@dsm.com|(NULL)|marcio.evangelista@gpssa.com.br|g3.dsm@abacotecnologia.com.br|228|131|234|2/19/20 11:32|5/31/21 12:51|maria.sombra@dsm.com, maria.barbosa@dsm.com, she.contractor@dsm.com, Natanielle.Silva@dsm.com, Bruno.Mantini@dsm.com|marcio.evangelista@gpssa.com.br
48|GRHATS TRABALHO TEMPORÁRIO LTDA|18080-695|RUA JOÃO NASCIMENTO|751|VILA ODIM|SOROCABA|SP|BRASIL|08.802.616/0001-98|0|1|1|1|0|0|9/13/19 14:45|4/3/20 13:25|RUA ESPERANÇA, 201|Diego.Marinho@dsm.com, Marcio.Alves-Da-Silva@dsm.com, carolina.branco@dsm.com, she.contractor@dsm.com|(NULL)|gerencia@grhats.com.br|g3.dsm@abacotecnologia.com.br|42|3|48|11/5/19 17:04|6/22/20 13:47|g3.dsm@abacotecnologia.com.br, Diego.Marinho@dsm.com, Marcio.Alves-Da-Silva@dsm.com, carolina.branco@dsm.com, she.contractor@dsm.com|gerencia@grhats.com.br
48|GRHATS TRABALHO TEMPORÁRIO LTDA|18080-695|RUA JOÃO NASCIMENTO|751|VILA ODIM|SOROCABA|SP|BRASIL|08.802.616/0001-98|0|1|1|1|0|0|9/13/19 14:45|4/3/20 13:25|RUA ESPERANÇA, 201|Diego.Marinho@dsm.com, Marcio.Alves-Da-Silva@dsm.com, carolina.branco@dsm.com, she.contractor@dsm.com|(NULL)|gerencia@grhats.com.br|g3.dsm@abacotecnologia.com.br|441|131|48|10/23/20 12:52|10/23/20 12:53|maria.barbosa@dsm.com, she.contractor@dsm.com|apoio@grhgroup.com.br
49|GRINGO MATERIAIS DE CONSTRUÇÃO E TERRAPLENAGEM LTDA|18120-000|AVENIDA UM|970|JARDIM GRANADA|MAIRINQUE|SP|BRASIL|49.558.802/0001-00|0|1|1|1|0|0|9/13/19 14:52|3/6/20 15:52|(NULL)|bruna.moraes@dsm.com, beatriz.souza@dsm.com, amanda.camargo@dsm.com, she.contractor@dsm.com|(NULL)|jb.gringo@gmail.com|g3.dsm@abacotecnologia.com.br|43|3|49|11/5/19 17:04|2/8/21 15:18|Amanda.Lemos@dsm.com, Bruna.Moraes@dsm.com, Beatriz.Souza@dsm.com, Brenda.Antinarelli@dsm.com, Luiz-Guilherme-Xavier-Cacao.Luiz-Cacao@dsm.com, SHE.CONTRACTOR@dsm.com|jb.gringo@gmail.com
50|GRUPO DIAS SERVIÇOS EMPRESARIAIS EIRELI - LIMPEZA|18035-640|RUA CORONEL CAVALHEIROS|970|CENTRO|SOROCABA|SP|BRASIL|13.115.411/0001-74|0|1|1|1|0|0|9/13/19 15:00|3/5/20 15:23|SALA 01|lucleide.santos@dsm.com, leticia.ramos@dsm.com, she.contractor@dsm.com|(NULL)|controladoria@gdiasrh.com.br, faturamento@gdiasrh.com.br|g3.dsm@abacotecnologia.com.br|44|3|50|11/5/19 17:04|7/29/20 14:29|g3.dsm@abacotecnologia.com.br, lucleide.santos@dsm.com, leticia.ramos@dsm.com, she.contractor@dsm.com|controladoria@gdiasrh.com.br, faturamento@gdiasrh.com.br, operacoes.mq@gdiasrh.com.br
141|GRUPO DIAS SERVIÇOS EMPRESARIAIS EIRELI - JARDINAGEM|18035-640|RUA CORONEL CAVALHEIROS|31|CENTRO|SOROCABA|SP|BRASIL|13.115.411/0001-74|0|1|1|1|0|0|12/10/19 13:12|3/5/20 15:24|SALA 1|lucleide.santos@dsm.com, leticia.ramos@dsm.com, she.contractor@dsm.com|(NULL)|controladoria@gdiasrh.com.br, faturamento@gdiasrh.com.br|g3.dsm@abacotecnologia.com.br|147|3|141|1/10/20 15:56|7/29/20 14:30|g3.dsm@abacotecnologia.com.br, lucleide.santos@dsm.com, leticia.ramos@dsm.com, she.contractor@dsm.com|controladoria@gdiasrh.com.br, faturamento@gdiasrh.com.br, operacoes.mq@gdiasrh.com.br
376|GTS GESTÃO, CALIBRAÇÃO DE EQUIPAMENTOS EIRELI|60030-140|R GUILHERME ROCHA|253|CENTRO|FORTALEZA|CE|BRASIL|11.291.391/0001-67|0|1|1|1|0|0|9/17/20 13:13|9/17/20 13:13|SALA: 904; EDIF: JALCY;|(NULL)|(NULL)|(NULL)|(NULL)|414|131|376|9/17/20 13:14|9/18/20 8:42|lorena.gomes@dsm.com, she.contractor@dsm.com, maria.barbosa@dsm.com|gerson_tomaz@hotmail.com
512|GUINDASILVA GUINDASTES E TRANSPORTES LTDA|18023-000|ROD RAPOSO TAVARES|0|VILA ARTURA|SOROCABA|SP|BRASIL|21.634.500/0001-55|0|1|1|1|0|0|7/21/21 10:51|7/21/21 10:51|KM: KM 96 MAIS 46 METROS;|(NULL)|(NULL)|(NULL)|(NULL)|595|3|512|7/21/21 10:51|7/21/21 10:52|Amanda.Lemos@dsm.com, Bruna.Moraes@dsm.com, Beatriz.Souza@dsm.com, Brenda.Antinarelli@dsm.com, Luiz-Guilherme-Xavier-Cacao.Luiz-Cacao@dsm.com, SHE.CONTRACTOR@dsm.com|rh@guindasilva.com.br
431|GUIOMAR FERRARI DA SILVA|18080-155|R AGUIAR DE BARROS|361|VILA ADELIA|SOROCABA|SP|BRASIL|27.636.289/0001-96|0|1|1|1|0|0|12/16/20 15:51|12/16/20 15:51|(NULL)|(NULL)|(NULL)|(NULL)|(NULL)|497|3|431|12/16/20 15:52|2/8/21 15:19|Amanda.Lemos@dsm.com, Bruna.Moraes@dsm.com, Beatriz.Souza@dsm.com, Brenda.Antinarelli@dsm.com, Luiz-Guilherme-Xavier-Cacao.Luiz-Cacao@dsm.com, SHE.CONTRACTOR@dsm.com|lindomar@guiterconstrucoes.com.br
164|GUITER ENGENHARIA E CONSTRUÇÃO EIRELI|07600-000|R ANA MARIA CONCEICAO CAMARGO|29|CENTRO|MAIRIPORA|SP|BRASIL|09.265.948/0001-43|0|1|1|1|0|0|1/20/20 10:03|3/6/20 15:53|(NULL)|bruna.moraes@dsm.com, beatriz.souza@dsm.com, amanda.camargo@dsm.com, she.contractor@dsm.com|(NULL)|reginaldo@guiterconstrucoes.com.br, lindomar@guiterconstrucoes.com.br, federico@guiterconstrucoes.com.br|g3.dsm@abacotecnologia.com.br|155|3|164|1/20/20 10:03|9/23/21 11:57|Amanda.Lemos@dsm.com, Bruna.Moraes@dsm.com, Beatriz.Souza@dsm.com, Brenda.Antinarelli@dsm.com, Luiz-Guilherme-Xavier-Cacao.Luiz-Cacao@dsm.com, SHE.CONTRACTOR@dsm.com|lindomar@guiterconstrucoes.com.br, aline@guiterconstrucoes.com.br, rh@guiterconstrucoes.com.br
51|GUVEN SANEAMENTO LTDA|18085-520|RUA IBIUNA|237|JARDIM LEOCADIA|SOROCABA|SP|BRASIL|29.861.211/0001-09|0|1|1|1|0|0|9/13/19 15:07|3/6/20 15:57|AVENIDA ANTONINO DIAS BASTOS, 1173|ivelize.machado@dsm.com, paulo.pereira@dsm.com, she.contractor@dsm.com, she.contractor@dsm.com|(NULL)|juliana.domingues@guvensaneamento.com.br, eduardo.beserra@guvensaneamento.com.br, edson.lopes@guvensaneamento.com.br|g3.dsm@abacotecnologia.com.br|368|3|51|7/2/20 12:15|1/28/21 11:08|ivelize.machado@dsm.com, paulo.pereira@dsm.com, she.contractor@dsm.com, she.contractor@dsm.com, g3.dsm@abacotecnologia.com.br|juliana.domingues@guvensaneamento.com.br
409|H.L.A. COMERCIO E LOCACAO DE CONTAINERS LTDA|06730-000|AV GERALDO DOS SANTOS|220|BAIRRO DO PORTAO VERMELHO|São Paulo|SP|Brasil|20.610.272/0001-10|0|1|1|1|0|0|12/3/20 17:17|12/3/20 17:17|(NULL)|(NULL)|(NULL)|(NULL)|(NULL)|471|3|409|12/3/20 18:02|12/3/20 18:02|(NULL)|leonardo@hlacontainers.com.br, eduardo.ramos@erss.com.br
324|H2O AMBIENTAL EIRELI|18095-530|R MARIA LOPES MONTEIRO|150|JARDIM SANTA ROSALIA|SOROCABA|SP|Brasil|03.918.854/0001-40|0|1|1|1|0|0|4/23/20 15:07|4/23/20 15:08|(NULL)|Bruna.Moraes@dsm.com, Amanda.Camargo@dsm.com, Beatriz.Souza@dsm.com, SHE.CONTRACTOR@dsm.com|(NULL)|adm@h2oambiental.com.br|g3.dsm@abacotecnologia.com.br|332|3|324|4/23/20 15:12|2/8/21 15:19|Amanda.Lemos@dsm.com, Bruna.Moraes@dsm.com, Beatriz.Souza@dsm.com, Brenda.Antinarelli@dsm.com, Luiz-Guilherme-Xavier-Cacao.Luiz-Cacao@dsm.com, SHE.CONTRACTOR@dsm.com|adm@h2oambiental.com.br
492|HBR MAQUINAS E EQUIPAMENTOS LTDA|05550-000|R MARCO GIANNINI|280|JARDIM GILDA MARIA|SAO PAULO|SP|BRASIL|06.344.350/0001-51|0|1|1|1|0|0|6/17/21 10:06|6/17/21 10:06|SALA: 1;|(NULL)|(NULL)|(NULL)|(NULL)|572|3|492|6/17/21 10:07|6/17/21 10:28|she.contractor@dsm.com, isadora.bonato@dsm.com|eduarda.silva@hbr.net
156|HERNANDEZ MAZZER ENGENHARIA LTDA|03637-030|RUA PARACANA|159|PENHA DE FRANCA|SÃO PAULO|SP|BRASIL|30.409.024/0001-60|0|1|1|1|0|0|1/7/20 15:06|3/6/20 16:01|CASA 5|bruna.moraes@dsm.com, beatriz.souza@dsm.com, amanda.camargo@dsm.com, she.contractor@dsm.com|(NULL)|lidia.planejamento@genpro.com.br|g3.dsm@abacotecnologia.com.br|587|3|156|7/14/21 10:00|7/14/21 10:01|Amanda.Lemos@dsm.com, Bruna.Moraes@dsm.com, Beatriz.Souza@dsm.com, Brenda.Antinarelli@dsm.com, Luiz-Guilherme-Xavier-Cacao.Luiz-Cacao@dsm.com, SHE.CONTRACTOR@dsm.com|daniel.planejamento@genpro.com.br
201|HIDROGEOLOGIKA|04602-000|R BARAO DO TRIUNFO|88|CAMPO BELO|SAO PAULO|SP|BRASIL|02.017.105/0001-89|0|1|1|1|0|0|2/5/20 18:48|2/5/20 18:48|SALA 1506|(NULL)|(NULL)|(NULL)|(NULL)|613|3|201|8/31/21 9:41|8/31/21 10:30|Isadora.Bonato@dsm.com, she.contractor@dsm.com|financeiro@clambiental.com.br
202|HIDROJATO NACIONAL LIMPEZA TÉCNICA LTDA|06268-120|AVENIDA ROBERTO PINTO SOBRINHO|230|PARQUE INDUSTRIAL MAZZEI|OSASCO|SP|BRASIL|02.303.624/0001-03|0|1|1|1|0|0|2/6/20 11:56|3/5/20 15:26|(NULL)|natalie.montebello@dsm.com, she.contractor@dsm.com|(NULL)|roberval@hidrojatonacional.com.br|g3.dsm@abacotecnologia.com.br|411|3|202|9/11/20 8:17|9/11/20 8:18|Natalia.de-angelo@dsm.com, she.contractor@dsm.com|roberval@hidrojatonacional.com.br
134|HILMAR SANTOS BASTOS|60841-032|AV WASHINGTON SOARES|8652|MESSEJANA|FORTALEZA|CE|BRASIL|02.656.989/0001-11|0|1|1|1|0|0|11/11/19 16:26|3/30/20 16:09|(NULL)|she.contractor@dsm.com, maria.barbosa@dsm.com, Lorenna.Sousa@dsm.com, marcio.garcia@dsm.com|(NULL)|hsbtermometal@gmail.com|g3.dsm@abacotecnologia.com.br|127|131|134|11/11/19 19:05|6/16/20 12:20|she.contractor@dsm.com, maria.barbosa@dsm.com, Lorenna.Sousa@dsm.com, marcio.garcia@dsm.com|hsbtermometal@gmail.com
204|HOERBIGER BRASIL LTDA|07750-020|R OSASCO|1020|PQ EMPRES ANHANGUERA|CAJAMAR|SP|BRASIL|48.075.816/0001-00|0|1|1|1|0|0|2/6/20 18:22|2/6/20 18:22|(NULL)|(NULL)|(NULL)|(NULL)|(NULL)|346|3|204|6/8/20 14:17|7/8/21 12:53|Isadora.Bonato@dsm.com, she.contractor@dsm.com|fabio.belezoni@hoerbiger.com, andre.fernandes@hoerbiger.com
535|HOMOGENEO - SAUDE, SEGURANCA E HIGIENE OCUPACIONAL LTDA|09625-080|R ANGELO DAVID THOME|155|RUDGE RAMOS|SAO BERNARDO DO CAMPO|SP|BRASIL|14.794.795/0001-61|0|1|1|1|0|0|9/14/21 10:44|9/14/21 10:44|SALA 01|(NULL)|(NULL)|(NULL)|(NULL)|623|3|535|9/17/21 9:18|9/17/21 9:20|Luiz.Bittencourt@dsm.com, SHE.CONTRACTOR@dsm.com|Financeiro@homogeneo.com.br
481|HORA SOL - COMERCIO E ASSISTENCIA DE RELOGIOS LTDA|14810-287|AV JORGE HADDAD|552|JARDIM PAULISTANO (VILA XAVIER)|ARARAQUARA|SP|BRASIL|50.399.542/0001-57|0|1|1|1|0|0|5/18/21 10:06|5/18/21 10:06|(NULL)|(NULL)|(NULL)|(NULL)|(NULL)|562|3|481|5/18/21 10:06|10/14/21 9:11|Amanda.Lemos@dsm.com, Bruna.Moraes@dsm.com, Beatriz.Souza@dsm.com, Brenda.Antinarelli@dsm.com, Luiz-Guilherme-Xavier-Cacao.Luiz-Cacao@dsm.com, SHE.CONTRACTOR@dsm.com|adm01@horasol.com
524|ID ENGENHARIA LTDA|60525-225|R DOUTOR JULIO MACIEL|1050|HENRIQUE JORGE|FORTALEZA|CE|BRASIL|35.299.001/0001-63|0|1|1|1|0|0|8/30/21 11:11|8/30/21 11:11|(NULL)|(NULL)|(NULL)|(NULL)|(NULL)|612|131|524|8/30/21 11:11|8/30/21 11:13|Amanda.Lemos@dsm.com, Bruna.Moraes@dsm.com, Beatriz.Souza@dsm.com, Brenda.Antinarelli@dsm.com, Luiz-Guilherme-Xavier-Cacao.Luiz-Cacao@dsm.com, SHE.CONTRACTOR@dsm.com|diego.uchoa@idsolareengenharia.com
503|IEC-INSTALACOES ELETRICAS LTDA|13014-052|PC DO ARPOADOR|291|CAMINHOS DE SAO CONRADO|CAMPINAS|SP|BRASIL|61.354.569/0001-40|0|1|1|1|0|0|7/14/21 9:11|7/14/21 9:11|(NULL)|(NULL)|(NULL)|(NULL)|(NULL)|585|3|503|7/14/21 9:12|7/14/21 9:12|Amanda.Lemos@dsm.com, Bruna.Moraes@dsm.com, Beatriz.Souza@dsm.com, Brenda.Antinarelli@dsm.com, Luiz-Guilherme-Xavier-Cacao.Luiz-Cacao@dsm.com, SHE.CONTRACTOR@dsm.com|daniel.planejamento@genpro.com.br
388|INDEBA I9 PESQUISA E TECNOLOGIA LTDA|41820-021|AV TANCREDO NEVES|1283|CAMINHO DAS ARVORES|SALVADOR|BA|BRASIL|27.149.487/0001-25|0|1|1|1|0|0|10/14/20 12:47|10/14/20 12:47|EDIF EMPRESARIAL OMEGA SALA 902|(NULL)|(NULL)|(NULL)|(NULL)|432|131|388|10/14/20 12:48|10/14/20 12:48|daniela.batista@dsm.com, she.contractor@dsm.com, maria.barbosa@dsm.com|assis@indeba.com.br
55|INDÚSTRIA MECÂNICA ZANUTO LTDA|19913-520|AVENIDA FEODOR GURTOVENCO|971|DISTRITO INDUSTRIAL II|OURINHOS|SP|BRASIL|56.854.326/0001-30|0|1|1|1|0|0|9/13/19 16:19|3/6/20 16:05|(NULL)|bruna.moraes@dsm.com, beatriz.souza@dsm.com, amanda.camargo@dsm.com, she.contractor@dsm.com|(NULL)|augusto.projeto@zanuto.com.br, sarita.documentos@zanuto.com.br|g3.dsm@abacotecnologia.com.br|53|3|55|11/5/19 17:34|2/8/21 15:20|Amanda.Lemos@dsm.com, Bruna.Moraes@dsm.com, Beatriz.Souza@dsm.com, Brenda.Antinarelli@dsm.com, Luiz-Guilherme-Xavier-Cacao.Luiz-Cacao@dsm.com, SHE.CONTRACTOR@dsm.com|seguranca@zanuto.com.br
206|INGERSOLL-RAND INDÚSTRIA, COMÉRCIO E SERVIÇOS DE AR CONDICIONADO, AR COMPRIMIDO E REFRIGERAÇÃO LTDA|06460-110|ALA CAIAPOS|311|TAMBORE|BARUERI|SP|BRASIL|01.610.517/0005-99|0|1|1|1|0|0|2/6/20 18:53|5/14/20 11:39|ANDAR 1|Sarah.Victoria-Avelina-Ribeiro@dsm.com, bruna.moraes@dsm.com, beatriz.souza@dsm.com, amanda.camargo@dsm.com, she.contractor@dsm.com|(NULL)|diego.travezanuto@irco.com|g3.dsm@abacotecnologia.com.br|197|3|206|2/6/20 18:54|7/2/21 15:47|Amanda.Lemos@dsm.com, Bruna.Moraes@dsm.com, Beatriz.Souza@dsm.com, Brenda.Antinarelli@dsm.com, Luiz-Guilherme-Xavier-Cacao.Luiz-Cacao@dsm.com, SHE.CONTRACTOR@dsm.com, isadora.Bonato@dsm.com|Flavio.Balioni@irco.com
56|INSTALL AUTOMAÇÃO E MANUTENÇÃO INDUSTRIAL LTDA|06715-862|RUA SAN JOSÉ|544|PARQUE INDUSTRIAL SAN JOSÉ|COTIA|SP|BRASIL|10.721.708/0001-95|0|1|1|1|0|0|9/13/19 16:28|3/6/20 16:07|(NULL)|bruna.moraes@dsm.com, beatriz.souza@dsm.com, amanda.camargo@dsm.com, she.contractor@dsm.com|(NULL)|rh@installautomacao.com.br|g3.dsm@abacotecnologia.com.br|46|3|56|11/5/19 17:04|2/23/21 9:52|Amanda.Lemos@dsm.com, Bruna.Moraes@dsm.com, Beatriz.Souza@dsm.com, Brenda.Antinarelli@dsm.com, Luiz-Guilherme-Xavier-Cacao.Luiz-Cacao@dsm.com, SHE.CONTRACTOR@dsm.com|rh@installautomacao.com.br, gabriela.apolinario@installautomacao.com.br
220|INTER HOUSE COMERCIAL LTDA|08539-110|R JOSE BRUNO DA COSTA|201|VILA LOANDA|FERRAZ DE VASCONCELOS|SP|BRASIL|01.800.354/0001-83|0|1|1|1|0|0|2/11/20 8:41|3/6/20 16:10|(NULL)|bruna.moraes@dsm.com, beatriz.souza@dsm.com, amanda.camargo@dsm.com, she.contractor@dsm.com|(NULL)|comercial@interhouse.ind.br|g3.dsm@abacotecnologia.com.br|533|3|220|3/2/21 10:51|3/2/21 10:51|(NULL)|(NULL)
251|INTER SERVIÇOS DE GERENCIAMENTO INFORMATIZADO E LUBRIFICAÇÃO DE PONTOS - EIRELI|04087-032|R DOS CHANES|504|INDIANOPOLIS|SAO PAULO|SP|BRASIL|07.063.863/0001-57|0|1|1|1|0|0|3/3/20 16:46|3/3/20 16:46|(NULL)|(NULL)|(NULL)|(NULL)|(NULL)|244|3|251|3/3/20 16:49|4/1/21 10:57|Isadora.Bonato@dsm.com, she.contractor@dsm.com|caique.silva@lubrin.com.br
187|IRRTHUN - MONTAGEM E MANUTENÇÃO INDUSTRIAL|18120-000|RUA BERNADETE NUNES CAMPOS|95|JARDIM D OESTE|MAIRINQUE|SP|BRASIL|31.097.265/0001-83|0|1|1|1|0|0|2/3/20 12:01|3/5/20 15:28|(NULL)|luciana.florentino@dsm.com, she.contractor@dsm.com|(NULL)|contato@irrthun.com|g3.dsm@abacotecnologia.com.br|369|3|187|7/2/20 12:15|2/8/21 15:22|Isadora.Bonato@dsm.com, she.contractor@dsm.com|contato@irrthun.com
207|ITECH SOLUÇÕES LTDA|13041-025|R DOUTOR FERNAO POMPEU DE CAMARGO|362|JARDIM LEONOR|CAMPINAS|SP|BRASIL|09.274.188/0001-30|0|1|1|1|0|0|2/6/20 19:13|3/6/20 16:12|SLJ SALA 02|bruna.moraes@dsm.com, beatriz.souza@dsm.com, amanda.camargo@dsm.com, she.contractor@dsm.com|(NULL)|(NULL)|g3.dsm@abacotecnologia.com.br|526|3|207|2/1/21 15:55|2/8/21 15:22|Amanda.Lemos@dsm.com, Bruna.Moraes@dsm.com, Beatriz.Souza@dsm.com, Brenda.Antinarelli@dsm.com, Luiz-Guilherme-Xavier-Cacao.Luiz-Cacao@dsm.com, SHE.CONTRACTOR@dsm.com|vania.garcino@techplus.com.br
212|ITW FLUIDS & HYGIENE SOLUTIONS LTDA|12091-000|AV DOM PEDRO I|6201|JARDIM BARONESA|TAUBATE|SP|BRASIL|07.125.955/0001-14|0|1|1|1|0|0|2/7/20 14:04|3/5/20 15:28|GALPAOA|leticia.ramos@dsm.com, gislaine.oliveira@dsm.com, she.contractor@dsm.com|(NULL)|mmacari@itw.com.br|g3.dsm@abacotecnologia.com.br|363|3|212|7/2/20 10:37|2/17/21 9:31|leticia.ramos@dsm.com, she.contractor@dsm.com, gislaine.oliveira@dsm.com, she.contractor@dsm.com, g3.dsm@abacotecnologia.com.br|maoliveira@itw.com.br
489|J & BETO PISO INDUSTRIAL EIRELI|06264-250|R HERBET DE SOUZA - BETINHO|681|PORTAL D'OESTE|OSASCO|SP|BRASIL|33.142.488/0001-40|0|1|1|1|0|0|6/7/21 11:13|6/7/21 11:13|(NULL)|(NULL)|(NULL)|(NULL)|(NULL)|569|3|489|6/7/21 11:13|6/7/21 11:14|Amanda.Lemos@dsm.com, Bruna.Moraes@dsm.com, Beatriz.Souza@dsm.com, Brenda.Antinarelli@dsm.com, Luiz-Guilherme-Xavier-Cacao.Luiz-Cacao@dsm.com, SHE.CONTRACTOR@dsm.com|renata.porcelani@gmail.com
298|J.S PAINT|24460-180|R JULIO HORTA BARBOSA|880|MUTUA|SAO GONCALO|RJ|BRASIL|34.129.476/0001-49|0|1|1|1|0|0|4/6/20 13:36|4/6/20 13:36|CASA 1|(NULL)|(NULL)|(NULL)|g3.dsm@abacotecnologia.com.br|305|3|298|4/6/20 13:36|4/6/20 13:36|(NULL)|(NULL)
273|JEFFERSON GILLIARD SANTOS DE MACEDO|25050-370|AV CRUZEIRO DO SUL|127|VILA SARAPUI|DUQUE DE CAXIAS|RJ|BRASIL|36.705.157/0001-60|0|1|1|1|0|0|3/19/20 10:33|3/19/20 10:33|LOJA FRENTE|Bruna.Moraes@dsm.com, Amanda.Camargo@dsm.com, Beatriz.Souza@dsm.com, SHE.CONTRACTOR@DSM.COM|(NULL)|felipelima@rczengenharia.com.br|g3.dsm@abacotecnologia.com.br|265|3|273|3/19/20 10:34|2/8/21 15:22|Amanda.Lemos@dsm.com, Bruna.Moraes@dsm.com, Beatriz.Souza@dsm.com, Brenda.Antinarelli@dsm.com, Luiz-Guilherme-Xavier-Cacao.Luiz-Cacao@dsm.com, SHE.CONTRACTOR@dsm.com|felipelima@rczengenharia.com.br
57|JGS MONTAGENS INDUSTRIAIS LTDA|05574-260|TRAVESSA ANGÉLICA DOS CAMPOS|10|CONJUNTO PROMORAR RAPOSO TAVARES|SÃO PAULO|SP|BRASIL|24.603.705/0001-61|0|1|1|1|0|0|9/13/19 16:35|3/6/20 16:12|(NULL)|bruna.moraes@dsm.com, beatriz.souza@dsm.com, amanda.camargo@dsm.com, she.contractor@dsm.com|(NULL)|lauri.zanon@bertolini.com.br, jgsmontagens@hotmail.com, wilson.garcia@bertolini.com.br|g3.dsm@abacotecnologia.com.br|47|3|57|11/5/19 17:04|2/8/21 15:23|Amanda.Lemos@dsm.com, Bruna.Moraes@dsm.com, Beatriz.Souza@dsm.com, Brenda.Antinarelli@dsm.com, Luiz-Guilherme-Xavier-Cacao.Luiz-Cacao@dsm.com, SHE.CONTRACTOR@dsm.com|lauri.zanon@bertolini.com.br, jgsmontagens@hotmail.com, wilson.garcia@bertolini.com.br
181|JLB COMERCIAL E INSTALAÇÕES ELETROMECÂNICAS LTDA|06124-330|AV JOSE TERUEL LOPES|436|VILA YOLANDA|OSASCO|SP|BRASIL|04.942.152/0001-64|0|1|1|1|0|0|1/29/20 13:36|3/6/20 16:17|SALAO 2|bruna.moraes@dsm.com, beatriz.souza@dsm.com, amanda.camargo@dsm.com, she.contractor@dsm.com|(NULL)|araujovagner1@hotmail.com, jl-bortoli@uol.com.br|g3.dsm@abacotecnologia.com.br|382|3|181|7/22/20 11:59|2/8/21 15:23|Amanda.Lemos@dsm.com, Bruna.Moraes@dsm.com, Beatriz.Souza@dsm.com, Brenda.Antinarelli@dsm.com, Luiz-Guilherme-Xavier-Cacao.Luiz-Cacao@dsm.com, SHE.CONTRACTOR@dsm.com|jl-bortoli@uol.com.br
301|JOSE DA SILVA MAGALHAES 33757224353|12224-800|R RIO PARU|62|JARDIM PARARANGABA|SAO JOSE DOS CAMPOS|SP|BRASIL|33.391.080/0001-02|0|1|1|1|0|0|4/9/20 11:26|4/9/20 11:26|(NULL)|(NULL)|(NULL)|(NULL)|g3.dsm@abacotecnologia.com.br|308|3|301|4/9/20 11:27|4/9/20 11:27|(NULL)|(NULL)
306|JOSEILTON DA ASSUNCAO BOMFIM 89906225572|13905-766|R PROFESSORA DONA NINI|231|RESIDENCIAL SANTA MARIA AMPARO|AMPARO|SP|BRASIL|30.145.757/0001-34|0|1|1|1|0|0|4/14/20 9:03|5/14/20 8:43|(NULL)|Flavia.Pereira@dsm.com, SHE.CONTRACTOR@dsm.com|(NULL)|irbeneto@pifferefilhos.com.br|g3.dsm@abacotecnologia.com.br|389|3|306|8/4/20 11:59|8/4/20 12:00|Luiz.Bittencourt@dsm.com, she.contractor@dsm.com|irbeneto@pifferefilhos.com.br
208|JOSÉ CARLOS GOMES 18813950497|12232-230|RUA CAPITAO ALIPIO NEVES BARBOSA|370|JARDIM PORTUGAL|SAO JOSE DOS CAMPOS|SP|BRASIL|24.714.027/0001-04|0|1|1|1|0|0|2/7/20 9:57|3/6/20 16:18|(NULL)|luciana.florentino@dsm.com, bruna.moraes@dsm.com, beatriz.souza@dsm.com, amanda.camargo@dsm.com, she.contractor@dsm.com|(NULL)|fabricamedeiros@fabricamedeiros.com, rh@fabricamedeiros.com|g3.dsm@abacotecnologia.com.br|199|3|208|2/7/20 9:58|2/8/21 15:24|Amanda.Lemos@dsm.com, Bruna.Moraes@dsm.com, Beatriz.Souza@dsm.com, Brenda.Antinarelli@dsm.com, Luiz-Guilherme-Xavier-Cacao.Luiz-Cacao@dsm.com, SHE.CONTRACTOR@dsm.com, isadora.Bonato@dsm.com|fabricamedeiros@fabricamedeiros.com, rh@fabricamedeiros.com
116|JOSÉ JORGE DE OLIVEIRA|13178-381|RUA MANOEL RODRIGUES QUADROS|654|JARDIM MARIA ANTONIA (NOVA VENEZA)|SUMARE|SP|BR|30.380.572/0001-04|0|1|1|1|0|0|10/23/19 12:07|2/17/20 16:59|(NULL)|(NULL)|(NULL)|(NULL)|(NULL)|284|3|116|4/2/20 14:27|4/2/20 14:27|(NULL)|(NULL)
504|JPESSO ENGENHARIA E PROJETOS EIRELI|05835-004|EST DE ITAPECERICA|1528|VILA PREL|SAO PAULO|SP|BRASIL|37.132.737/0001-78|0|1|1|1|0|0|7/14/21 9:35|7/14/21 9:35|APT 45 BLOCO 1|(NULL)|(NULL)|(NULL)|(NULL)|586|3|504|7/14/21 9:35|7/14/21 9:36|Amanda.Lemos@dsm.com, Bruna.Moraes@dsm.com, Beatriz.Souza@dsm.com, Brenda.Antinarelli@dsm.com, Luiz-Guilherme-Xavier-Cacao.Luiz-Cacao@dsm.com, SHE.CONTRACTOR@dsm.com|daniel.planejamento@genpro.com.br
541|JTEL SERVICOS EM TELECOMUNICACOES LTDA|61760-000|AV EUSEBIO DE QUEIROZ|4379|CENTRO|EUSEBIO|CE|BRASIL|16.708.647/0001-02|0|1|1|1|0|0|10/20/21 11:39|10/20/21 11:39|SALA 09|(NULL)|(NULL)|(NULL)|(NULL)|631|131|541|10/20/21 11:40|10/20/21 11:41|Amanda.Lemos@dsm.com, Bruna.Moraes@dsm.com, Beatriz.Souza@dsm.com, Brenda.Antinarelli@dsm.com, Luiz-Guilherme-Xavier-Cacao.Luiz-Cacao@dsm.com, SHE.CONTRACTOR@dsm.com|Vanessa.Eloy@claro.com.br, maxwel.vieira@orange.com
435|JULIANO VIEIRA DE BARROS 37456467897|18020-470|R BEATRIZ VIEIRA CARLOS|222|VILA COLORAU|SOROCABA|SP|BRASIL|39.787.402/0001-13|0|1|1|1|0|0|12/18/20 12:05|12/18/20 12:05|(NULL)|(NULL)|(NULL)|(NULL)|(NULL)|501|3|435|12/18/20 12:05|2/8/21 15:54|Isadora.Bonato@dsm.com, she.contractor@dsm.com|thiago.marcondes@wiinspecao.com.br
341|JULIO CESAR ALMEIDA DE FREITAS|13183-280|R VHAMBERTO DE SOUZA|7|JARDIM NOVA HORTOLANDIA I|HORTOLANDIA|SP|BRASIL|24.871.817/0001-01|0|1|1|1|0|0|6/19/20 10:39|6/19/20 10:39|(NULL)|(NULL)|(NULL)|(NULL)|(NULL)|357|3|341|6/19/20 10:39|2/8/21 15:25|Isadora.Bonato@dsm.com, she.contractor@dsm.com|gonzalo@salengenharia.com.br, logistica@salengenharia.com.br, logistica2@salengenharia.com.br
331|JUND-TRAFO TRANSFORMADORES ELETRICOS LTDA|13212-790|AV DOUTOR WADY BADRA|141|JARDIM DAS TULIPAS|JUNDIAI|SP|BRASIL|07.004.797/0001-44|0|1|1|1|0|0|5/12/20 9:53|5/12/20 9:53|PAVMTOINFERIOR|beatriz.souza@dsm.com, bruna.moraes@dsm.com, SHE.CONTRACTOR@dsm.com|(NULL)|kelly@jundtrafo.com.br, adm@trafomil.com.br|g3.dsm@abacotecnologia.com.br|340|3|331|5/12/20 9:55|2/8/21 15:25|Amanda.Lemos@dsm.com, Bruna.Moraes@dsm.com, Beatriz.Souza@dsm.com, Brenda.Antinarelli@dsm.com, Luiz-Guilherme-Xavier-Cacao.Luiz-Cacao@dsm.com, SHE.CONTRACTOR@dsm.com|kelly@jundtrafo.com.br, adm@trafomil.com.br
483|JUSCILEI OLIVEIRA DE SOUZA|06286-130|R BRILHANTE|567|MUTINGA|OSASCO|SP|BRASIL|38.335.075/0001-04|0|1|1|1|0|0|5/19/21 8:51|5/19/21 8:51|(NULL)|(NULL)|(NULL)|(NULL)|(NULL)|564|3|483|5/19/21 8:52|5/19/21 8:52|Amanda.Lemos@dsm.com, Bruna.Moraes@dsm.com, Beatriz.Souza@dsm.com, Brenda.Antinarelli@dsm.com, Luiz-Guilherme-Xavier-Cacao.Luiz-Cacao@dsm.com, SHE.CONTRACTOR@dsm.com|amanda@redeplusinformatica.com.br
537|JVA COMERCIO E ASSISTENCIA TECNICA DE MAQUINAS E EQUIPAMENTOS LTDA|13295-000|R MARIA SOLDEIRA LOURENCON|680|SANTA JULIA|ITUPEVA|SP|BRASIL|06.100.384/0001-09|0|1|1|1|0|0|9/22/21 9:15|9/22/21 9:15|(NULL)|(NULL)|(NULL)|(NULL)|(NULL)|626|3|537|9/22/21 9:15|9/22/21 9:15|Luiz.Bittencourt@dsm.com, SHE.CONTRACTOR@dsm.com|rh@jvacompressores.com.br
210|K DOCUMENTOS E PROJETOS|18105-160|R BENEDICTO NUNES|15|CAJURU DO SUL|SOROCABA|SP|BRASIL|37.562.118/0001-13|0|1|1|1|0|0|2/7/20 12:03|10/4/21 10:07|CASA 13|(NULL)|(NULL)|(NULL)|(NULL)|444|131|210|10/29/20 8:49|2/2/21 15:26|Amanda.Lemos@dsm.com, Bruna.Moraes@dsm.com, Beatriz.Souza@dsm.com, Brenda.Antinarelli@dsm.com, Luiz-Guilherme-Xavier-Cacao.Luiz-Cacao@dsm.com, SHE.CONTRACTOR@dsm.com|departamentopessoal@montalug.com.br
465|K P I TELECON|13142-174|AV LUIZ BATISTA DE SOUZA (CONJUNTO HABITACIONAL TEREZ|639|PARQUE BOM RETIRO|PAULINIA|SP|BRASIL|24.669.429/0001-34|0|1|1|1|0|0|3/12/21 12:23|3/12/21 12:23|(NULL)|(NULL)|(NULL)|(NULL)|(NULL)|540|131|465|3/12/21 12:23|3/15/21 12:53|Lorenna.Sousa@dsm.com, SHE.CONTRACTOR@dsm.com|instaldoc88@kpitelecom.com.br
339|KEIJI INDÚSTRIA E COMÉRCIO DE MÓVEIS LTDA|06767-200|R ANA RODRIGUES OLIVEIRA|61|PQ PINHEIROS|TABOAO DA SERRA|SP|BRASIL|72.734.932/0001-79|0|1|1|1|0|0|6/18/20 10:08|6/18/20 10:08|(NULL)|(NULL)|(NULL)|(NULL)|(NULL)|352|3|339|6/18/20 10:08|5/27/21 10:15|Isadora.Bonato@dsm.com, she.contractor@dsm.com|gabriel@comteclab.com.br
325|KIDDE BRASIL LTDA|13280-001|R IRACEMA LUCAS|755|DISTRITO INDUSTRIAL|VINHEDO|SP|BRASIL|66.220.047/0003-30|0|1|1|1|0|0|4/24/20 11:39|4/24/20 11:39|(NULL)|Luciana.Florentino@dsm.com, she.contractor@dsm.com|(NULL)|mauricio.lima@carrier.com|g3.dsm@abacotecnologia.com.br|539|3|325|3/11/21 12:19|3/11/21 12:19|Isadora.Bonato@dsm.com, she.contractor@dsm.com|(NULL)
211|KONUS ICESA ENGENHARIA LTDA|26020-500|RODIAVA PRESIDENTE DUTRA|16000|KENNEDY|NOVA IGUAÇU|RJ|BRASIL|00.447.473/0001-31|0|1|1|1|0|0|2/7/20 12:40|2/7/20 12:40|PARTE|(NULL)|(NULL)|(NULL)|(NULL)|468|3|211|12/2/20 12:32|2/8/21 15:26|Isadora.Bonato@dsm.com, she.contractor@dsm.com|vendas@konus.com.br
61|KOREN FERRY (BR) CONSULTORES LTDA|0542-070|AVENIDA DAS NAÇÕES UNIDAS|8501|PINHEIROS|SÃO PAUL|SP|BRASIL|46.381.448/0001-01|0|1|1|1|0|0|9/17/19 15:00|9/17/19 15:00|15º ANDAR|(NULL)|(NULL)|(NULL)|(NULL)|57|3|61|11/5/19 17:34|11/5/19 17:34|(NULL)|(NULL)
507|KV ENGENHARIA DE PREVENCAO E COMBATE A INCENDIO EIRELI|04455-000|R ORLANDO PINTO RIBEIRO|184|VILA CAMPO GRANDE|SAO PAULO|SP|BRASIL|38.035.809/0001-21|0|1|1|1|0|0|7/14/21 13:08|7/14/21 13:08|(NULL)|(NULL)|(NULL)|(NULL)|(NULL)|589|3|507|7/14/21 13:09|10/22/21 10:56|Luiz.Bittencourt@dsm.com, SHE.CONTRACTOR@dsm.com|kvengenharia2020@gmail.com
262|L.A. FALCAO BAUER CENTRO TECNOLÓGICO DE CONTROLE DA QUALIDADE LTDA|05036-070|R AQUINOS|111|AGUA BRANCA|SAO PAULO|SP|BRASIL|53.020.152/0001-12|0|1|1|1|0|0|3/13/20 11:48|5/18/20 10:50|(NULL)|miderson.palmeira@falcaobauer.com.br|(NULL)|Luciana.Florentino@dsm.com, SHE.CONTRACTOR@dsm.com|g3.dsm@abacotecnologia.com.br|255|3|262|3/13/20 11:49|9/8/21 9:03|isadora.bonato@dsm.com, SHE.CONTRACTOR@dsm.com|miderson.palmeira@falcaobauer.com.br
533|LEANDRO PAVANELI FRAUCHES - MAXCOOL|13145-297|R ERMELINDA LOPES VIEIRA|254|JARDIM LEONOR|PAULINIA|SP|BRASIL|10.961.038/0001-84|0|1|1|1|0|0|9/14/21 9:16|9/14/21 9:16|(NULL)|(NULL)|(NULL)|(NULL)|(NULL)|621|3|533|9/14/21 9:17|9/14/21 9:18|Fernanda.Bueno-da-Silva@dsm.com, she.contractor@dsm.com|maxcool.arcondicionado@gmail.com
235|LEANDRO TEIXEIRA RIBEIRO - POLIMATEC|61915-230|R SANTA LUCIA|1173|JACANAU|MARACANAU|CE|BRASIL|10.249.636/0001-25|0|1|1|1|0|0|2/19/20 14:23|1/18/21 14:24|LOTE 08 E 09 QUADRA49 SITIO JARI GALPAO|bruna.moraes@dsm.com, beatriz.souza@dsm.com, amanda.camargo@dsm.com, she.contractor@dsm.com, luciana.baldan@dsm.com, marcio.garcia@dsm.com|(NULL)|dp@grupopolimatec.com.br, credenciamento@polimatec.com.br, kaio@polimatec.com.br|g3.dsm@abacotecnologia.com.br|410|131|235|9/10/20 13:12|5/7/21 13:31|Lorenna.Sousa@dsm.com, Amanda.Lemos@dsm.com, Bruna.Moraes@dsm.com, Beatriz.Souza@dsm.com, Brenda.Antinarelli@dsm.com, Luiz-Guilherme-Xavier-Cacao.Luiz-Cacao@dsm.com, SHE.CONTRACTOR@dsm.com|elisa.rabelo@polimatec.com.br
363|LECO INSTRUMENTOS LTDA|04578-000|AV DAS NACOES UNIDAS|12399|BROOKLIN PAULISTA|SAO PAULO|SP|BRASIL|42.523.365/0002-21|0|1|1|1|0|0|8/12/20 11:22|8/12/20 11:22|CONJ 121B PAVMTOTORRE C|(NULL)|(NULL)|(NULL)|(NULL)|460|3|363|11/16/20 16:10|11/16/20 16:11|Amanda.Lemos@dsm.com, Bruna.Moraes@dsm.com, Beatriz.Souza@dsm.com, Brenda.Antinarelli@dsm.com, Luiz-Guilherme-Xavier-Cacao.Luiz-Cacao@dsm.com, SHE.CONTRACTOR@dsm.com|Joel_Araujo@leco.com, paulo_santos@leco.com
236|LEONARDO TEIXEIRA RIBEIRO - POLIMATEC|61915-230|R SANTA LUCIA|1163|JACANAU|MARACANAU|CE|BRASIL|18.021.435/0001-88|0|1|1|1|0|0|2/19/20 15:13|3/30/20 16:11|(NULL)|bruna.moraes@dsm.com, beatriz.souza@dsm.com, amanda.camargo@dsm.com, she.contractor@dsm.com, luciana.baldan@dsm.com, marcio.garcia@dsm.com|(NULL)|dp@grupopolimatec.com.br, credenciamento@polimatec.com.br, kaio@polimatec.com.br|g3.dsm@abacotecnologia.com.br|230|131|236|2/19/20 15:14|5/7/21 13:31|Lorenna.Sousa@dsm.com, Amanda.Lemos@dsm.com, Bruna.Moraes@dsm.com, Beatriz.Souza@dsm.com, Brenda.Antinarelli@dsm.com, Luiz-Guilherme-Xavier-Cacao.Luiz-Cacao@dsm.com, SHE.CONTRACTOR@dsm.com|elisa.rabelo@polimatec.com.br
526|LIDER TELECOM COMERCIO E SERVICOS EM TELECOMUNICACOES L|60540-238|R MANACAPURU|115|CAJAZEIRAS|FORTALEZA|CE|BRASIL|07.265.939/0014-41|0|1|1|1|0|0|9/1/21 12:10|9/1/21 12:10|(NULL)|(NULL)|(NULL)|(NULL)|(NULL)|615|131|526|9/1/21 12:10|10/18/21 14:12|Amanda.Lemos@dsm.com, Bruna.Moraes@dsm.com, Beatriz.Souza@dsm.com, Brenda.Antinarelli@dsm.com, Luiz-Guilherme-Xavier-Cacao.Luiz-Cacao@dsm.com, SHE.CONTRACTOR@dsm.com|maxwel.vieira@orange.com
466|LOG MUNCK SERVIÇOS|60863-242|R JONAS BEZERRA|196|BARROSO|FORTALEZA|CE|BRASIL|12.407.910/0001-72|0|1|1|1|0|0|3/15/21 13:27|3/15/21 13:27|(NULL)|(NULL)|(NULL)|(NULL)|(NULL)|541|131|466|3/15/21 13:27|3/15/21 13:28|Lorenna.Sousa@dsm.com, SHE.CONTRACTOR@dsm.com|log_munck@hotmail.com
229|LUBRIN - LUBRIFICAÇÃO INDUSTRIAL EIRELI|06453-053|CALC DOS CRAVOS|124|CONDOMINIO CENTRO COMERCIAL ALPHAVILLE|SAO PAULO|SP|BRASIL|01.078.322/0001-16|0|1|1|1|0|0|2/17/20 12:05|4/6/21 8:49|ANDAR 1|luciana.florentino@dsm.com, she.contractor@dsm.com|(NULL)|bruna.souza@lubrin.com.br, luciana.ferreira@lubrin.com|g3.dsm@abacotecnologia.com.br|220|3|229|2/17/20 12:08|3/1/21 9:30|Isadora.Bonato@dsm.com, she.contractor@dsm.com|caique.silva@lubrin.com.br
402|LUIZ EDUARDO SOARES DE LIMA - YSOCALL|18120-000|AV OSCAR CONCEICAO JUNIOR|0|JARDIM DOS IPES|MAIRINQUE|SP|Brasil|27.764.014/0001-38|0|1|1|1|0|0|11/16/20 9:41|6/1/21 9:58|LOTE 00|(NULL)|(NULL)|(NULL)|(NULL)|458|3|402|11/16/20 9:42|2/8/21 15:28|Amanda.Lemos@dsm.com, Bruna.Moraes@dsm.com, Beatriz.Souza@dsm.com, Brenda.Antinarelli@dsm.com, Luiz-Guilherme-Xavier-Cacao.Luiz-Cacao@dsm.com, SHE.CONTRACTOR@dsm.com|renata.porcelani@gmail.com,ysocaall@hotmail.com
255|LUIZ PEREIRA DA SILVA NETO|38401-404|R CAPRICORNIO|448|JARDIM BRASILIA|UBERLANDIA|MG|BRASIL|36.440.222/0001-72|0|1|1|1|0|0|3/6/20 15:53|3/6/20 15:53|FUNDOS|(NULL)|(NULL)|(NULL)|(NULL)|248|3|255|3/6/20 15:54|3/6/20 15:54|(NULL)|(NULL)
543|M & M INSTRUMENTACAO INDUSTRIAL|61900-005|AV AIRTON SENA|13|PAJUCARA|MARACANAU|CE|BRASIL|73.419.749/0001-41|0|1|1|1|0|0|10/22/21 12:19|10/22/21 12:19|-A LOT PAJUCARA PARK|(NULL)|(NULL)|(NULL)|(NULL)|634|131|543|10/22/21 12:19|10/22/21 12:20|Lorenna.Sousa@dsm.com, SHE.CONTRACTOR@dsm.com|adm@mminstrumentacao.com
534|M. E. ARAUJO - MAXCOOL|13145-297|R ERMELINDA LOPES VIEIRA (JARDIM LEONOR)|285|ALTO DE PINHEIROS|PAULINIA|SP|BRASIL|27.213.489/0001-36|0|1|1|1|0|0|9/14/21 9:40|9/14/21 9:40|(NULL)|(NULL)|(NULL)|(NULL)|(NULL)|622|3|534|9/14/21 9:41|9/14/21 9:41|Fernanda.Bueno-da-Silva@dsm.com, she.contractor@dsm.com|maxcool.arcondicionado@gmail.com
358|M. R. VAZ COLETAS|13041-770|R IBOTI|599|VILA MARIA|CAMPINAS|SP|BRASIL|15.193.706/0001-94|0|1|1|1|0|0|8/3/20 9:45|8/3/20 9:45|(NULL)|(NULL)|(NULL)|(NULL)|(NULL)|387|3|358|8/3/20 9:46|8/3/20 9:47|ivelize.machado@dsm.com, Leticia.Ramos@dsm.com, SHE.CONTRACTOR@dsm.com, g3.dsm@abacotecnologia.com.br|fatima@qualityambiental.com
336|MAGTEK INDUSTRIA DE PRODUTOS MAGNETICOS LTDA|09540-280|R OSVALDO CRUZ|919|SANTA PAULA|SAO CAETANO DO SUL|SP|BRASIL|07.938.924/0001-82|0|1|1|1|0|0|6/12/20 15:22|6/12/20 15:22|927|Sarah.Victoria-Avelina-Ribeiro@dsm.com, SHE.CONTRACTOR@dsm.com|(NULL)|comercial3@magtek.com.br, comercial2@magtek.com.br|g3.dsm@abacotecnologia.com.br|517|131|336|1/18/21 12:38|1/18/21 12:41|she.contractor@dsm.com, lorenna.sousa@dsm.com|comercial3@magtek.com.br
336|MAGTEK INDUSTRIA DE PRODUTOS MAGNETICOS LTDA|09540-280|R OSVALDO CRUZ|919|SANTA PAULA|SAO CAETANO DO SUL|SP|BRASIL|07.938.924/0001-82|0|1|1|1|0|0|6/12/20 15:22|6/12/20 15:22|927|Sarah.Victoria-Avelina-Ribeiro@dsm.com, SHE.CONTRACTOR@dsm.com|(NULL)|comercial3@magtek.com.br, comercial2@magtek.com.br|g3.dsm@abacotecnologia.com.br|349|3|336|6/12/20 15:22|2/8/21 15:29|Isadora.Bonato@dsm.com, she.contractor@dsm.com|comercial3@magtek.com.br, comercial2@magtek.com.br
219|MANPOWER STAFFING LTDA - MAIRINQUE|18120-000|RUA DOUTOR ANTÔNIO BENTO|788|SANTO AMARO|SÃO PAULO|SP|BRASIL|01.894.253/0017-86|0|1|1|1|0|0|2/10/20 16:12|9/4/20 12:15|(NULL)|Diego.Marinho@dsm.com, Marcio.Alves-Da-Silva@dsm.com, carolina.branco@dsm.com, she.contractor@dsm.com|(NULL)|atendimento.dsm@manpower.com|g3.dsm@abacotecnologia.com.br|210|3|219|2/10/20 16:13|5/21/21 11:51|g3.dsm@abacotecnologia.com.br, Diego.Marinho@dsm.com, Marcio.Alves-Da-Silva@dsm.com, Leticia.Coelho@dsm.com, she.contractor@dsm.com, lucleide.santos@dsm.com, Leticia.Ramos@dsm.com|andreia.lima@manpower.com.br
334|MANPOWER STAFFING LTDA - PECÉM|04795-100|AV DAS NACOES UNIDAS|17891|VILA ALMEIDA|SAO PAULO|SP|BRASIL|01.894.253/0001-19|0|1|1|1|0|0|6/2/20 10:18|6/2/20 10:26|CONJ: 701;|SHE.CONTRACTOR@dsm.com, keterine.coutinho@dsm.com, Lorenna.Sousa@dsm.com, maria.barbosa@dsm.com|(NULL)|(NULL)|g3.dsm@abacotecnologia.com.br|345|131|334|6/2/20 10:19|4/5/21 10:18|SHE.CONTRACTOR@dsm.com, Lorenna.Sousa@dsm.com, maria.barbosa@dsm.com|felipe.braga@manpower.com.br, fernanda.schnoor@manpowergroup.com.br, gisele.carvalho@manpower.com.br, ana.guimaraes@manpowergroup.com.br, maria.costa@manpower.com.br
307|MANUTENGÁS INSTALAÇÃO DE GASES INDUSTRIAIS E MEDICINAIS LTDA|86065-810|R SERRA DA BORBOREMA|182|BANDEIRANTES|LONDRINA|PR|BRASIL|09.020.760/0001-35|0|1|1|1|0|0|4/14/20 10:33|4/14/20 10:33|(NULL)|Flavia.Pereira@dsm.com, SHE.CONTRACTOR@dsm.com|(NULL)|gerencia@manutengas.com.br|g3.dsm@abacotecnologia.com.br|608|3|307|8/24/21 11:00|8/24/21 11:07|Luiz.Bittencourt@dsm.com, she.contractor@dsm.com|gerencia@manutengas.com.br
240|MAQPORT SERVIÇOS E LOCAÇÕES DE EQUIPAMENTOS EIRELI|62670-000|ROD CE 121|2003|PECEM|SAO GONCALO DO AMARANTE|CE|BRASIL|09.556.707/0001-53|0|1|1|1|0|0|2/20/20 15:43|5/8/20 11:30|LETRA A|bruna.moraes@dsm.com, beatriz.souza@dsm.com, amanda.camargo@dsm.com, she.contractor@dsm.com, maria.barbosa@dsm.com|(NULL)|pessoal02@maqport.com.br, pessoal03@maqport.com, financeiro02@maqport.com.br|g3.dsm@abacotecnologia.com.br|234|131|240|2/20/20 15:45|12/14/20 11:45|Lorenna.Sousa@dsm.com, Amanda.Lemos@dsm.com, Bruna.Moraes@dsm.com, Beatriz.Souza@dsm.com, Brenda.Antinarelli@dsm.com, Luiz-Guilherme-Xavier-Cacao.Luiz-Cacao@dsm.com, SHE.CONTRACTOR@dsm.com,  marcio.garcia@dsm.com|pessoal03@maqport.com.br, financeiro02@maqport.com.br
135|MARAJO SERVICE LTDA|60455-305|RUA DOM MANUEL DE MEDEIROS|1931|PARQUELANDIA|FORTALEZA|CE|BRASIL|04.226.497/0001-11|0|1|1|1|0|0|11/12/19 14:35|3/30/20 16:40|SALA 01A 06|daniela.batista@dsm.com|(NULL)|contato@marajoservico.com.br|g3.dsm@abacotecnologia.com.br|548|131|135|4/1/21 10:20|4/1/21 14:23|daniela.batista@dsm.com, SHE.CONTRACTOR@dsm.com|sesmt@marajoservice.com.br
254|MARCAMP EQUIPAMENTOS LTDA|13190-000|ROD SP 101|0|SITIO GARCIA|MONTE MOR|SP|BRASIL|57.307.613/0001-93|0|1|1|1|0|0|3/5/20 15:39|3/5/20 15:39|KM 20|(NULL)|(NULL)|(NULL)|(NULL)|403|3|254|8/27/20 8:24|2/8/21 15:30|Amanda.Lemos@dsm.com, Bruna.Moraes@dsm.com, Beatriz.Souza@dsm.com, Brenda.Antinarelli@dsm.com, Luiz-Guilherme-Xavier-Cacao.Luiz-Cacao@dsm.com, SHE.CONTRACTOR@dsm.com|larissa.ferreira@marcamp.com.br, dp01@marcamp.com.br
458|MARCELO RODRIGUES LEITE|13960-720|RUA DOUTOR CARLOS NORBERTO|301|CENTRO|SOCORRO|SP|BRASIL|19.240.040/0001-39|0|1|1|1|0|0|2/1/21 12:49|2/1/21 12:49|AP 01|(NULL)|(NULL)|(NULL)|(NULL)|525|3|458|2/1/21 12:53|2/1/21 16:02|Isadora.Bonato@dsm.com, she.contractor@dsm.com|logistica@salengenharia.com.br
177|MARIA I. DE PAULA MARTARELLO - CONSTRUÇÕES|13280-001|AV OTAVIO TASCA|334|VILA JUNQUEIRA|VINHEDO|SP|BRASIL|10.437.693/0001-38|0|1|1|1|0|0|1/28/20 13:41|2/17/20 17:01|CASA 3|(NULL)|(NULL)|(NULL)|(NULL)|285|3|177|4/2/20 14:34|4/2/20 14:34|(NULL)|(NULL)
368|MARIO FORTUNATO DE ALMEIDA SOROCABA - TASK|18116-709|AV ROGERIO CASSOLA|884|ITAPEVA|VOTORANTIM|SP|BRASIL|07.658.159/0001-47|0|1|1|1|0|0|8/21/20 9:27|8/21/20 9:27|(NULL)|(NULL)|(NULL)|(NULL)|(NULL)|401|3|368|8/21/20 9:28|2/8/21 15:54|Isadora.Bonato@dsm.com, she.contractor@dsm.com|tais.lima@taskacademy.com.br
472|MARISA DE ANDRADE DE LUCCA|18132-305|AV BRASIL|1400|JARDIM CARAMBEI|SAO ROQUE|SP|BRASIL|62.843.917/0001-05|0|1|1|1|0|0|4/6/21 13:28|4/6/21 13:28|FUNDOS|(NULL)|(NULL)|(NULL)|(NULL)|549|3|472|4/6/21 13:29|4/6/21 13:30|Amanda.Lemos@dsm.com, Bruna.Moraes@dsm.com, Beatriz.Souza@dsm.com, Brenda.Antinarelli@dsm.com, Luiz-Guilherme-Xavier-Cacao.Luiz-Cacao@dsm.com, SHE.CONTRACTOR@dsm.com|lindomar@guiterconstrucoes.com.br, patricia@nacobase.com.br
499|MASTMED MEDICINA OCUPACIONAL LTDA|02016-020|R BANCO DAS PALMAS|450|SANTANA|SAO PAULO|SP|BRASIL|07.362.794/0001-82|0|1|1|1|0|0|7/12/21 9:43|7/12/21 9:43|(NULL)|(NULL)|(NULL)|(NULL)|(NULL)|581|3|499|7/12/21 9:44|7/12/21 9:44|Hellen.Galvao@dsm.com, SHE.CONTRACTOR@dsm.com|janaina.lazarini@grupomast.com.br
530|MASTMED MEDICINA OCUPACIONAL LTDA - PECÉM|02016-020|R BANCO DAS PALMAS|450|SANTANA|SAO PAULO|SP|BRASIL|07.362.794/0001-82|0|1|1|1|0|0|9/9/21 8:50|9/9/21 8:50|(NULL)|(NULL)|(NULL)|(NULL)|(NULL)|618|131|530|9/9/21 8:51|9/9/21 8:52|REGIANE-MARY.CHAVES@dsm.com, Maria.Barbosa@dsm.com, she.contractor@dsm.com|(NULL)
468|MATEUS BRASILIANO DOURADO NOVAES 23195419858|12951-000|AV PRESIDENTE VARGAS|173|JARDIM DAS CEREJEIRAS|ATIBAIA|SP|BRASIL|31.866.207/0001-77|0|1|1|1|0|0|3/17/21 10:20|3/17/21 10:20|APT 108|(NULL)|(NULL)|(NULL)|(NULL)|544|3|468|3/17/21 10:20|3/17/21 10:22|Isadora.Bonato@dsm.com, she.contractor@dsm.com|logistica@salengenharia.com.br, logistica2@salengenharia.com.br
345|MATISA MAQUINAS DE COSTURA E EMPACOTAMENTO LTDA|13484-318|AV MARIA BUZOLIN|520|JARDIM PIRATININGA|LIMEIRA|SP|BRASIL|51.463.420/0001-45|0|1|1|1|0|0|6/26/20 8:24|6/26/20 8:24|(NULL)|(NULL)|(NULL)|(NULL)|(NULL)|361|3|345|6/26/20 8:24|6/26/20 8:24|Natalia.De-Angelo@dsm.com, SHE.CONTRACTOR@dsm.com, g3.dsm@abacotecnologia.com.br|vendas4@matisa.com.br
63|MC GUINDASTES|18112-060|RUA JOSÉ MARTINS RODRIGUES|51|JARDIM TOLEDO|VOTORANTIM|SP|BRASIL|05.154.817/0001-38|0|1|1|1|0|0|9/17/19 15:16|5/13/21 9:01|(NULL)|SHE.CONTRACTOR@dsm.com, Luciana.Florentino@dsm.com|(NULL)|rh@mcguindastes.com.br|g3.dsm@abacotecnologia.com.br|316|3|63|4/16/20 12:46|10/13/21 11:37|isadora.bonato@dsm.com, SHE.CONTRACTOR@dsm.com|rh@mcguindastes.com.br
493|MEGASTEAM INSTRUMENTACAO & MECANICA LTDA|12238-573|R SALVIANO JOSE DA SILVA|400|ELDORADO|SAO JOSE DOS CAMPOS|SP|BRASIL|94.544.483/0002-10|0|1|1|1|0|0|6/28/21 14:32|6/28/21 14:32|QUADRAH LOTE 15|(NULL)|(NULL)|(NULL)|(NULL)|573|3|493|6/28/21 14:32|6/28/21 14:33|rafael.souza@dsm.com,SHE.CONTRACTOR@dsm.com|gisele.batista@megasteam.com.br, daniel.fernandes@megasteam.com.br
337|MEPI INDUSTRIA E COMERCIO DE EQUIPAMENTOS DE PROTECAO INDIVIDUAL EIRELI|38041-096|R BELMIRA MONTES BARROSO|375|JARDIM MARACANA|UBERABA|MG|BRASIL|04.918.841/0001-33|0|1|1|1|0|0|6/16/20 13:58|6/16/20 13:58|(NULL)|(NULL)|(NULL)|(NULL)|g3.dsm@abatecnologia.com.br|350|3|337|6/16/20 13:59|6/22/20 13:52|Luiz.Bittencourt@dsm.com, SHE.CONTRACTOR@dsm.com|seguranca@mepi.ind.br
508|MERCK S/A|06455-911|AL XINGU 350|350|ALPHAVILLE INDUSTRIAL|BARUERI|SP|BRASIL|33.069.212/0013-18|0|1|1|1|0|0|7/15/21 9:07|7/15/21 9:07|ESCRITORIOS 503 504 601 602 603 E 604 ANDAR 5 ANDAR 6 EDIF I-TOWER|(NULL)|(NULL)|(NULL)|(NULL)|590|3|508|7/15/21 9:08|7/15/21 9:09|Luiz.Bittencourt@dsm.com, SHE.CONTRACTOR@dsm.com|david.giomo@merckgroup.com,
389|METRO CUBICO PROJETOS E CONSULTORIA LTDA|01409-900|R PEIXOTO GOMIDE|996|JARDIM PAULISTA|SAO PAULO|SP|BRASIL|16.923.485/0001-25|0|1|1|1|0|0|10/16/20 10:51|10/16/20 10:51|SALA 250|(NULL)|(NULL)|(NULL)|(NULL)|433|3|389|10/16/20 10:51|2/8/21 15:32|Amanda.Lemos@dsm.com, Bruna.Moraes@dsm.com, Beatriz.Souza@dsm.com, Brenda.Antinarelli@dsm.com, Luiz-Guilherme-Xavier-Cacao.Luiz-Cacao@dsm.com, SHE.CONTRACTOR@dsm.com|daniel.planejamento@genpro.com.br, ediclecio.planejamento@genpro.com.br, rosangela@genpro.com.br, edwin@genpro.com.br, lidia.planejamento@genpro.com.br
361|METTLER - TOLEDO INDUSTRIA E COMERCIO LTDA|06460-000|AV TAMBORE|418|TAMBORE|BARUERI|SP|BRASIL|49.372.576/0001-79|0|1|1|1|0|0|8/11/20 10:31|8/11/20 10:31|(NULL)|(NULL)|(NULL)|(NULL)|(NULL)|393|3|361|8/11/20 10:32|8/23/21 11:07|isadora.bonato@dsm.com, SHE.CONTRACTOR@dsm.com|vagner.bernardo@mt.com, contratos@mt.com
439|MILLS ESTRUTURAS E SERVICOS DE ENGENHARIA S/A|06714-050|AV SYR HENRY WELLCOME|70|PARQUE ALEXANDRE|COTIA|SP|BRASIL|27.093.558/0013-59|0|1|1|1|0|0|12/21/20 10:34|12/21/20 10:34|E 280|(NULL)|(NULL)|(NULL)|(NULL)|505|3|439|12/21/20 10:56|2/8/21 15:33|Amanda.Lemos@dsm.com, Bruna.Moraes@dsm.com, Beatriz.Souza@dsm.com, Brenda.Antinarelli@dsm.com, Luiz-Guilherme-Xavier-Cacao.Luiz-Cacao@dsm.com, SHE.CONTRACTOR@dsm.com|renata.porcelani@gmail.com
66|MIRABILIS VIDEO COMUNICAÇÃO LTDA|04001-010|RUA RODOLFO TROPPMAIS|62|PARAISO|SÃO PAULO|SP|BRASIL|08.816.908/0001-80|0|1|1|1|0|0|9/17/19 17:57|3/27/20 9:39|(NULL)|bruna.moraes@dsm.com, beatriz.souza@dsm.com, amanda.camargo@dsm.com, she.contractor@dsm.com|(NULL)|luiz.prado25@gmail.com|g3.dsm@abacotecnologia.com.br|62|3|66|11/5/19 17:34|2/8/21 15:33|Amanda.Lemos@dsm.com, Bruna.Moraes@dsm.com, Beatriz.Souza@dsm.com, Brenda.Antinarelli@dsm.com, Luiz-Guilherme-Xavier-Cacao.Luiz-Cacao@dsm.com, SHE.CONTRACTOR@dsm.com|luiz.prado25@gmail.com
167|MISTRAS SOUTH AMERICA LTDA|05415-001|RUA JOAQUIM ANTUNES|574|PINHEIRO|SÃO PAULO|SP|BRASIL|01.096.463/0001-61|0|1|1|1|0|0|1/24/20 16:21|3/6/20 9:45|(NULL)|luciana.florentino@dsm.com, she.contractor@dsm.com|(NULL)|sms@mistras.com.br|g3.dsm@abacotecnologia.com.br|576|3|167|7/1/21 11:06|7/1/21 11:35|isadora.bonato@dsm.com, SHE.CONTRACTOR@dsm.com|thiago.marcondes@wiinspecao.com.br
373|MLB SERVIÇOS TÉCNICOS LTDA|03365-110|R MEDEIROS FURTADO|642|CHACARA BELENZINHO|SAO PAULO|SP|BRASIL|05.321.835/0001-67|0|1|1|1|0|0|9/11/20 11:16|9/11/20 11:16|(NULL)|(NULL)|(NULL)|(NULL)|(NULL)|412|3|373|9/11/20 11:17|2/8/21 15:54|isadora.bonato@dsm.com, SHE.CONTRACTOR@dsm.com|mlbengenharia@terra.com.br
496|MODULARIS INDUSTRIA, COMERCIO E MONTAGEM DE ESTRUTURAS MODULARES S.A.|13295-970|R FRANCISCO CODARIN|305|SAO ROQUE DA CHAVE|ITUPEVA|SP|BRASIL|12.431.713/0001-99|0|1|1|1|0|0|7/6/21 9:14|7/6/21 9:14|(NULL)|(NULL)|(NULL)|(NULL)|(NULL)|578|3|496|7/6/21 9:15|7/6/21 9:15|Luiz.Bittencourt@dsm.com, she.contractor@dsm.com|jonathan@modularis.com.br
478|MONTADORA EJB LTDA|95708-506|R ANGELO MARCON|253|SAO ROQUE|BENTO GONÇALVES|RS|BRASIL|29.121.856/0001-05|0|1|1|1|0|0|5/7/21 11:48|5/7/21 11:48|(NULL)|(NULL)|(NULL)|(NULL)|(NULL)|558|131|478|5/7/21 11:49|5/7/21 11:50|Amanda.Lemos@dsm.com, Bruna.Moraes@dsm.com, Beatriz.Souza@dsm.com, Brenda.Antinarelli@dsm.com, Luiz-Guilherme-Xavier-Cacao.Luiz-Cacao@dsm.com, SHE.CONTRACTOR@dsm.com|lauri.zanon@bertolini.com.br
139|MONTAIME ANDAIMES INDUSTRIAIS LTDA|18108-000|AVENEIDA BANDEIRANTES|2670|BRIGADEIRO TOBIAS|SOROCABA|SP|BRASIL|11.881.727/0001-41|0|1|1|1|0|0|11/22/19 17:04|3/6/20 16:31|FUNDOS01|bruna.moraes@dsm.com, beatriz.souza@dsm.com, amanda.camargo@dsm.com, she.contractor@dsm.com|(NULL)|gerente.adm@montalug.com.br, departamentopessoal@montalug.com.br|g3.dsm@abacotecnologia.com.br|132|3|139|11/22/19 17:15|2/8/21 15:33|Amanda.Lemos@dsm.com, Bruna.Moraes@dsm.com, Beatriz.Souza@dsm.com, Brenda.Antinarelli@dsm.com, Luiz-Guilherme-Xavier-Cacao.Luiz-Cacao@dsm.com, SHE.CONTRACTOR@dsm.com|departamentopessoal@montalug.com.br
68|MONTALUG MONTAGEM E ALUGUEL EM GERAL EIRELI|18108-000|AVENIDA BANDEIRANTES|2670|BRIGADEIRO TOBIAS|SOROCABA|SP|BRASIL|23.392.809/0001-01|0|1|1|1|0|0|9/17/19 18:07|3/6/20 16:31|FUNDOS BARRACÃO 220|bruna.moraes@dsm.com, beatriz.souza@dsm.com, amanda.camargo@dsm.com, she.contractor@dsm.com|(NULL)|gerente.adm@montalug.com.br, departamentopessoal@montalug.com.br|g3.dsm@abacotecnologia.com.br|450|131|68|11/4/20 11:14|12/9/20 10:23|Amanda.Lemos@dsm.com, Bruna.Moraes@dsm.com, Beatriz.Souza@dsm.com, Brenda.Antinarelli@dsm.com, Luiz-Guilherme-Xavier-Cacao.Luiz-Cacao@dsm.com, SHE.CONTRACTOR@dsm.com|departamentopessoal@montalug.com.br, dilson.roberto@montalug.com.br
68|MONTALUG MONTAGEM E ALUGUEL EM GERAL EIRELI|18108-000|AVENIDA BANDEIRANTES|2670|BRIGADEIRO TOBIAS|SOROCABA|SP|BRASIL|23.392.809/0001-01|0|1|1|1|0|0|9/17/19 18:07|3/6/20 16:31|FUNDOS BARRACÃO 220|bruna.moraes@dsm.com, beatriz.souza@dsm.com, amanda.camargo@dsm.com, she.contractor@dsm.com|(NULL)|gerente.adm@montalug.com.br, departamentopessoal@montalug.com.br|g3.dsm@abacotecnologia.com.br|64|3|68|11/5/19 17:34|2/8/21 15:33|Amanda.Lemos@dsm.com, Bruna.Moraes@dsm.com, Beatriz.Souza@dsm.com, Brenda.Antinarelli@dsm.com, Luiz-Guilherme-Xavier-Cacao.Luiz-Cacao@dsm.com, SHE.CONTRACTOR@dsm.com|gerente.adm@montalug.com.br, departamentopessoal@montalug.com.br
418|MONTALUG MONTAGEM E ALUGUEL EM GERAL EIRELI - PECÉM|18108-000|AV BANDEIRANTES|2670|BRIGADEIRO TOBIAS|SOROCABA|SP|BRASIL|23.392.809/0001-01|0|1|1|1|0|0|12/9/20 10:18|12/9/20 10:18|FUNDOSBARRACAO 220|(NULL)|(NULL)|(NULL)|(NULL)|482|131|418|12/9/20 10:23|12/9/20 10:23|Amanda.Lemos@dsm.com, Bruna.Moraes@dsm.com, Beatriz.Souza@dsm.com, Brenda.Antinarelli@dsm.com, Luiz-Guilherme-Xavier-Cacao.Luiz-Cacao@dsm.com, SHE.CONTRACTOR@dsm.com|gerente.adm@montalug.com.br
69|MONTALUG SOLUÇÕES INDUSTRIAIS LTDA|18108-000|AVENIDA BANDEIRANTES|2670|BRIGADEIRO TOBIAS|SOROCABA|SP|BRASIL|20.035.183/0001-98|0|1|1|1|0|0|9/17/19 18:12|3/6/20 16:32|(NULL)|bruna.moraes@dsm.com, beatriz.souza@dsm.com, amanda.camargo@dsm.com, she.contractor@dsm.com|(NULL)|gerente.adm@montalug.com.br, departamentopessoal@montalug.com.br|g3.dsm@abacotecnologia.com.br|457|131|69|11/16/20 9:21|12/9/20 10:23|Amanda.Lemos@dsm.com, Bruna.Moraes@dsm.com, Beatriz.Souza@dsm.com, Brenda.Antinarelli@dsm.com, Luiz-Guilherme-Xavier-Cacao.Luiz-Cacao@dsm.com, SHE.CONTRACTOR@dsm.com|gerente.adm@montalug.com.br
69|MONTALUG SOLUÇÕES INDUSTRIAIS LTDA|18108-000|AVENIDA BANDEIRANTES|2670|BRIGADEIRO TOBIAS|SOROCABA|SP|BRASIL|20.035.183/0001-98|0|1|1|1|0|0|9/17/19 18:12|3/6/20 16:32|(NULL)|bruna.moraes@dsm.com, beatriz.souza@dsm.com, amanda.camargo@dsm.com, she.contractor@dsm.com|(NULL)|gerente.adm@montalug.com.br, departamentopessoal@montalug.com.br|g3.dsm@abacotecnologia.com.br|65|3|69|11/5/19 17:34|2/8/21 15:33|Amanda.Lemos@dsm.com, Bruna.Moraes@dsm.com, Beatriz.Souza@dsm.com, Brenda.Antinarelli@dsm.com, Luiz-Guilherme-Xavier-Cacao.Luiz-Cacao@dsm.com, SHE.CONTRACTOR@dsm.com|gerente.adm@montalug.com.br, departamentopessoal@montalug.com.br
423|MUNTERS BRASIL INDUSTRIA E COMERCIO LTDA|83707-090|R LADISLAU GEMBAROSKI|567|THOMAZ COELHO|ARAUCARIA|PR|BRASIL|00.385.090/0001-86|0|1|1|1|0|0|12/11/20 10:04|12/11/20 10:04|BLOCO B|(NULL)|(NULL)|(NULL)|(NULL)|491|3|423|12/11/20 10:05|2/8/21 15:34|isadora.bonato@dsm.com, SHE.CONTRACTOR@dsm.com|Joao.Nascimento@munters.com
70|NADER ENGENHARIA|18125-000|RUA GOIÁS|67|VILA PEDÁGIO|ALUMÍNIO|SP|BRASIL|10.633.547/0001-88|0|1|1|1|0|0|9/17/19 18:15|3/6/20 16:34|(NULL)|bruna.moraes@dsm.com, beatriz.souza@dsm.com, amanda.camargo@dsm.com, she.contractor@dsm.com|(NULL)|adm.01@naderengenharia.com.br|g3.dsm@abacotecnologia.com.br|66|3|70|11/5/19 17:34|2/8/21 15:34|Amanda.Lemos@dsm.com, Bruna.Moraes@dsm.com, Beatriz.Souza@dsm.com, Brenda.Antinarelli@dsm.com, Luiz-Guilherme-Xavier-Cacao.Luiz-Cacao@dsm.com, SHE.CONTRACTOR@dsm.com|adm.01@naderengenharia.com.br
506|NATIVIDADE DESENHOS TECNICOS LTDA|04941-175|EST DA BARONESA|417|JARDIM KAGOHARA|SAO PAULO|SP|BRASIL|14.076.923/0001-31|0|1|1|1|0|0|7/14/21 10:16|7/14/21 10:16|(NULL)|(NULL)|(NULL)|(NULL)|(NULL)|588|3|506|7/14/21 10:17|7/14/21 10:22|Amanda.Lemos@dsm.com, Bruna.Moraes@dsm.com, Beatriz.Souza@dsm.com, Brenda.Antinarelli@dsm.com, Luiz-Guilherme-Xavier-Cacao.Luiz-Cacao@dsm.com, SHE.CONTRACTOR@dsm.com|daniel.planejamento@genpro.com.br
71|NCOM TELECOMUNICAÇÕES E INFORMÁTICA LTDA|04002-001|RUA MARIA FIGUEIREDO|294|CERQUEIRA CÉSAR|SÃO PAULO|SP|BARASIL|01.574.681/0001-64|0|1|1|1|0|0|9/17/19 18:20|3/6/20 9:46|1º ANDAR|paulo.pereira@dsm.com, she.contractor@dsm.com|(NULL)|suporte@n.com.br , andrecarvalho@n.com.br, atendimento@n.com.br|g3.dsm@abacotecnologia.com.br|67|3|71|11/5/19 17:34|8/20/20 14:33|g3.dsm@abacotecnologia.com.br, paulo.pereira@dsm.com, she.contractor@dsm.com, Macleane.Sales-Araujo@dsm.com|suporte@n.com.br , andrecarvalho@n.com.br, atendimento@n.com.br
224|NEDERMAN DO BRASIL COMÉRCIO DE PRODUTOS DE EXAUSTÃO LTDA|13213-105|AV JOSE ALVES DE OLIVEIRA|710|PARQUE INDUSTRIAL|JUNDIAI|SP|BRASIL|05.880.850/0001-45|0|1|1|1|0|0|2/11/20 14:42|3/6/20 16:36|GALPAOB1|bruna.moraes@dsm.com, beatriz.souza@dsm.com, amanda.camargo@dsm.com, she.contractor@dsm.com|(NULL)|antonio.pereira@nederman.com.br|g3.dsm@abacotecnologia.com.br|344|3|224|6/2/20 9:17|3/26/21 10:14|Amanda.Lemos@dsm.com, Bruna.Moraes@dsm.com, Beatriz.Souza@dsm.com, Brenda.Antinarelli@dsm.com, Luiz-Guilherme-Xavier-Cacao.Luiz-Cacao@dsm.com, SHE.CONTRACTOR@dsm.com|Luciano.Silva@nederman.com.br
436|NELSON LUIS DO AMARAL|12245-030|AV DOUTOR NELSON D'AVILA|1125|JARDIM SAO DIMAS|SAO JOSE DOS CAMPOS|SP|BRASIL|26.148.206/0001-57|0|1|1|1|0|0|12/18/20 12:51|12/18/20 12:51|APT 112 c|(NULL)|(NULL)|(NULL)|(NULL)|502|3|436|12/18/20 12:51|12/18/20 12:51|(NULL)|(NULL)
522|NIELTON MOREIRA ARAUJO 34147028861|08571-050|R PRIMEIRO DE MAIO|184|ESTACAO|ITAQUAQUECETUBA|SP|BRASIL|40.142.348/0001-38|0|1|1|1|0|0|8/26/21 12:39|8/26/21 12:39|(NULL)|(NULL)|(NULL)|(NULL)|(NULL)|610|3|522|8/26/21 12:39|8/26/21 12:40|Amanda.Lemos@dsm.com, Bruna.Moraes@dsm.com, Beatriz.Souza@dsm.com, Brenda.Antinarelli@dsm.com, Luiz-Guilherme-Xavier-Cacao.Luiz-Cacao@dsm.com, SHE.CONTRACTOR@dsm.com|daniel.planejamento@genpro.com.br
536|NOVA ENGENHARIA|62670-000|R FRANCISCO BRABOSA|70|MORRO DO CHAPEU|SAO GONÇALO DO AMARANTE|CE|BRASIL|41.543.373/0001-96|0|1|1|1|0|0|9/21/21 9:01|9/21/21 9:01|APT 304 BLOCO F|(NULL)|(NULL)|(NULL)|(NULL)|624|131|536|9/21/21 9:05|9/21/21 9:06|Amanda.Lemos@dsm.com, Bruna.Moraes@dsm.com, Beatriz.Souza@dsm.com, Brenda.Antinarelli@dsm.com, Luiz-Guilherme-Xavier-Cacao.Luiz-Cacao@dsm.com, SHE.CONTRACTOR@dsm.com|paula.santos@engenharianv.com.br
117|NPG ELETRIC|08223-355|RUA TERRA BRASILEIRA|20|CIDADE ANTONIO ESTEVÃO DE CARVALHO|SÃO PAULO|SP|BRASIL|16.935.947/0001-24|0|1|1|1|0|0|10/28/19 10:19|10/28/19 10:19|ANDAR 1 SALA 2|(NULL)|(NULL)|(NULL)|(NULL)|286|3|117|4/2/20 14:36|4/2/20 14:36|(NULL)|(NULL)
532|OLIVAS ENGENHARIA LTDA|02344-000|R FRANCISCO DE BRITO|270|BARRO BRANCO|SAO PAULO|SP|BRASIL|10.305.601/0001-66|0|1|1|1|0|0|9/13/21 10:04|9/13/21 10:04|CONJ 102|(NULL)|(NULL)|(NULL)|(NULL)|620|3|532|9/13/21 10:04|9/13/21 10:05|Amanda.Lemos@dsm.com, Bruna.Moraes@dsm.com, Beatriz.Souza@dsm.com, Brenda.Antinarelli@dsm.com, Luiz-Guilherme-Xavier-Cacao.Luiz-Cacao@dsm.com, SHE.CONTRACTOR@dsm.com|daniel.planejamento@genpro.com.br,
500|OTTO LOCADORA DE MAQUINAS E EQUIPAMENTOS EIRELI|06298-020|R FREI EGIDIO LAURENT|76|REMEDIOS|OSASCO|SP|BRASIL|14.456.753/0001-10|0|1|1|1|0|0|7/12/21 11:38|7/12/21 11:38|(NULL)|(NULL)|(NULL)|(NULL)|(NULL)|582|3|500|7/12/21 11:39|7/12/21 11:40|Amanda.Lemos@dsm.com, Bruna.Moraes@dsm.com, Beatriz.Souza@dsm.com, Brenda.Antinarelli@dsm.com, Luiz-Guilherme-Xavier-Cacao.Luiz-Cacao@dsm.com, SHE.CONTRACTOR@dsm.com|rh@installautomacao.com.br
397|PAUSO DESENHOS E INFORMATICA LTDA|02992-210|EST DO CORREDOR|607|PAN AMERICANO|SAO PAULO|SP|BRASIL|01.514.551/0001-36|0|1|1|1|0|0|11/3/20 11:42|11/3/20 11:42|(NULL)|(NULL)|(NULL)|(NULL)|(NULL)|449|3|397|11/3/20 11:43|2/8/21 15:35|Amanda.Lemos@dsm.com, Bruna.Moraes@dsm.com, Beatriz.Souza@dsm.com, Brenda.Antinarelli@dsm.com, Luiz-Guilherme-Xavier-Cacao.Luiz-Cacao@dsm.com, SHE.CONTRACTOR@dsm.com|paulo.guimaraes@technik.eng.br
495|PAVAN & REIS HIDRAULICA E ELETRICA LTDA|13201-804|R ANCHIETA|164|VILA BOAVENTURA|JUNDIAI|SP|BRASIL|12.331.653/0001-32|0|1|1|1|0|0|6/30/21 12:47|6/30/21 12:47|SALA 102|(NULL)|(NULL)|(NULL)|(NULL)|575|3|495|6/30/21 12:47|9/13/21 10:51|Luiz.Bittencourt@dsm.com, SHE.CONTRACTOR@dsm.com|ines@combatfire.eng.br
72|PAYPER DO BRASIL TECNOLOGIA DE ENSAQUE E COMÉRCIO DE MÁQUINAS E EQUIPAMENTOS|06709-046|RUA THOMEKIYI KIRA|287|GRANJA VIANA|COTIA|SP|BRASIL|15.558.909/0001-37|0|1|1|1|0|0|9/18/19 9:29|3/6/20 16:36|(NULL)|bruna.moraes@dsm.com, beatriz.souza@dsm.com, amanda.camargo@dsm.com, she.contractor@dsm.com|(NULL)|juliana.kaufmann@payper.com.br|g3.dsm@abacotecnologia.com.br|407|131|72|9/2/20 12:05|9/2/20 12:05|Lorenna.Sousa@dsm.com, Maria.Barbosa@dsm.com, SHE.CONTRACTOR@dsm.com|Juliana.Kaufmann@payper.com.br
72|PAYPER DO BRASIL TECNOLOGIA DE ENSAQUE E COMÉRCIO DE MÁQUINAS E EQUIPAMENTOS|06709-046|RUA THOMEKIYI KIRA|287|GRANJA VIANA|COTIA|SP|BRASIL|15.558.909/0001-37|0|1|1|1|0|0|9/18/19 9:29|3/6/20 16:36|(NULL)|bruna.moraes@dsm.com, beatriz.souza@dsm.com, amanda.camargo@dsm.com, she.contractor@dsm.com|(NULL)|juliana.kaufmann@payper.com.br|g3.dsm@abacotecnologia.com.br|68|3|72|11/5/19 17:34|2/8/21 15:35|Amanda.Lemos@dsm.com, Bruna.Moraes@dsm.com, Beatriz.Souza@dsm.com, Brenda.Antinarelli@dsm.com, Luiz-Guilherme-Xavier-Cacao.Luiz-Cacao@dsm.com, SHE.CONTRACTOR@dsm.com|juliana.kaufmann@payper.com.br
502|PEDRO HENRIQUE SILVA GOMES 39201790805|07865-034|R LUIZ GONZAGA (RES.STO ANTONIO)|89|CHACARA SAO LUIZ|FRANCO DA ROCHA|SP|BRASIL|41.057.031/0001-66|0|1|1|1|0|0|7/13/21 14:03|7/13/21 14:03|(NULL)|(NULL)|(NULL)|(NULL)|(NULL)|584|3|502|7/13/21 14:04|7/13/21 14:40|Amanda.Lemos@dsm.com, Bruna.Moraes@dsm.com, Beatriz.Souza@dsm.com, Brenda.Antinarelli@dsm.com, Luiz-Guilherme-Xavier-Cacao.Luiz-Cacao@dsm.com, SHE.CONTRACTOR@dsm.com|daniel.planejamento@genpro.com.br
73|PEIXOTO & FERNANDES ENGENHARIA|02721-030|RUA ROQUE DE MORAIS|540|BAIRRO DO LIMÃO|SÃO PAULO|SP|BRASIL|03.012.728/0001-21|0|1|1|1|0|0|9/18/19 9:36|3/6/20 16:37|(NULL)|bruna.moraes@dsm.com, beatriz.souza@dsm.com, amanda.camargo@dsm.com, she.contractor@dsm.com|(NULL)|bruna.moraes@dsm.com, beatriz.souza@dsm.com, amanda.camargo@dsm.com, she.contractor@dsm.com|g3.dsm@abacotecnologia.com.br|429|131|73|10/7/20 15:29|10/7/20 15:30|Amanda.Lemos@dsm.com, Bruna.Moraes@dsm.com, Beatriz.Souza@dsm.com, Brenda.Antinarelli@dsm.com, Luiz-Guilherme-Xavier-Cacao.Luiz-Cacao@dsm.com, SHE.CONTRACTOR@dsm.com|bruna.moraes@dsm.com, beatriz.souza@dsm.com, amanda.camargo@dsm.com
73|PEIXOTO & FERNANDES ENGENHARIA|02721-030|RUA ROQUE DE MORAIS|540|BAIRRO DO LIMÃO|SÃO PAULO|SP|BRASIL|03.012.728/0001-21|0|1|1|1|0|0|9/18/19 9:36|3/6/20 16:37|(NULL)|bruna.moraes@dsm.com, beatriz.souza@dsm.com, amanda.camargo@dsm.com, she.contractor@dsm.com|(NULL)|bruna.moraes@dsm.com, beatriz.souza@dsm.com, amanda.camargo@dsm.com, she.contractor@dsm.com|g3.dsm@abacotecnologia.com.br|69|3|73|11/5/19 17:34|2/8/21 15:35|Amanda.Lemos@dsm.com, Bruna.Moraes@dsm.com, Beatriz.Souza@dsm.com, Brenda.Antinarelli@dsm.com, Luiz-Guilherme-Xavier-Cacao.Luiz-Cacao@dsm.com, SHE.CONTRACTOR@dsm.com|bruna.moraes@dsm.com, beatriz.souza@dsm.com, amanda.camargo@dsm.com
155|PETROSKI & MONTEIRO LTDA|18040-250|RUA ANTONIO TECILA|27|SANTA TEREZINHA|SOROCABA|SP|BRASIL|01.944.284/0001-37|0|1|1|1|0|0|1/6/20 15:54|1/6/20 15:54|(NULL)|(NULL)|(NULL)|(NULL)|(NULL)|466|3|155|12/2/20 11:03|2/8/21 15:54|isadora.bonato@dsm.com, SHE.CONTRACTOR@dsm.com|contato@ddservicos.com.br
497|PHYTORESTORE BRASIL COMERCIO E SERVICOS DE FITORREMEDIACAO LTDA|06541-038|AV YOJIRO TAKAOKA|4384|ALPHAVILLE|SANTANA DE PARNAIBA|SP|BRASIL|11.396.438/0001-57|0|1|1|1|0|0|7/7/21 11:00|7/7/21 11:00|SALA 201|(NULL)|(NULL)|(NULL)|(NULL)|579|3|497|7/7/21 11:03|7/7/21 11:07|Amanda.Lemos@dsm.com, Bruna.Moraes@dsm.com, Beatriz.Souza@dsm.com, Brenda.Antinarelli@dsm.com, Luiz-Guilherme-Xavier-Cacao.Luiz-Cacao@dsm.com, SHE.CONTRACTOR@dsm.com|administrativo@phytorestore.com.br
74|PLANUS INFORMÁTICA E TECNOLOGIA LTDA - MATRIZ|47940-000|AVENIDA NAÇÕES UNIDAS|13797|VILA GERTRUDES|SÃO PAULO|SP|BRASIL|57.988.867/0001-14|0|1|1|1|0|0|9/18/19 9:48|3/16/20 14:28|10 ANDAR BOLOCO III|renata.mattos@dsm.com, she.contractor@dsm.com|(NULL)|Lucas.silva@planus.com.br|g3.dsm@abacotecnologia.com.br|542|131|74|3/16/21 9:27|5/31/21 12:52|renata.mattos@dsm.com, she.contractor@dsm.com, Bruno.Mantini@dsm.com|Lucas.silva@planus.com.br
74|PLANUS INFORMÁTICA E TECNOLOGIA LTDA - MATRIZ|47940-000|AVENIDA NAÇÕES UNIDAS|13797|VILA GERTRUDES|SÃO PAULO|SP|BRASIL|57.988.867/0001-14|0|1|1|1|0|0|9/18/19 9:48|3/16/20 14:28|10 ANDAR BOLOCO III|renata.mattos@dsm.com, she.contractor@dsm.com|(NULL)|Lucas.silva@planus.com.br|g3.dsm@abacotecnologia.com.br|70|3|74|11/5/19 17:34|6/22/20 13:48|g3.dsm@abacotecnologia.com.br, renata.mattos@dsm.com, she.contractor@dsm.com|Lucas.silva@planus.com.br
542|POLIMATEC MANUTENCAO E USINAGEM LTDA|61916-500|R SANTO INACIO - DE 971/972|1170|JARI|MARACANAU|CE|BRASIL|33.942.148/0001-02|0|1|1|1|0|0|10/20/21 11:58|10/20/21 11:58|(NULL)|(NULL)|(NULL)|(NULL)|(NULL)|632|131|542|10/20/21 11:59|10/20/21 11:59|Lorenna.Sousa@dsm.com, Amanda.Lemos@dsm.com, Bruna.Moraes@dsm.com, Beatriz.Souza@dsm.com, Brenda.Antinarelli@dsm.com, Luiz-Guilherme-Xavier-Cacao.Luiz-Cacao@dsm.com, SHE.CONTRACTOR@dsm.com|elisa.rabelo@polimatec.com.br
479|POLIMATEC MECANICA INDUSTRIAL LTDA|61916-500|R SANTO INACIO - DE 971/972 AO FIM (TRECHO ANTERIOR PERTENCE|1160|JARI|MARACANAU|CE|BRASIL|30.108.394/0001-67|0|1|1|1|0|0|5/7/21 13:30|5/7/21 13:30|(NULL)|(NULL)|(NULL)|(NULL)|(NULL)|559|131|479|5/7/21 13:30|5/7/21 13:31|Lorenna.Sousa@dsm.com, Amanda.Lemos@dsm.com, Bruna.Moraes@dsm.com, Beatriz.Souza@dsm.com, Brenda.Antinarelli@dsm.com, Luiz-Guilherme-Xavier-Cacao.Luiz-Cacao@dsm.com, SHE.CONTRACTOR@dsm.com|elisa.rabelo@polimatec.com.br
395|POLIMIX CONCRETO LTDA|62670-000|ROD CE 422|0|CENTRO|SAO GONCALO DO AMARANTE|CE|BRASIL|29.067.113/0288-72|0|1|1|1|0|0|10/29/20 13:46|10/29/20 13:46|KM 13 PARTE B|(NULL)|(NULL)|(NULL)|(NULL)|633|131|395|10/20/21 15:08|10/20/21 15:13|Amanda.Lemos@dsm.com, Bruna.Moraes@dsm.com, Beatriz.Souza@dsm.com, Brenda.Antinarelli@dsm.com, Luiz-Guilherme-Xavier-Cacao.Luiz-Cacao@dsm.com, SHE.CONTRACTOR@dsm.com|documentacao@rcservico.com.br
395|POLIMIX CONCRETO LTDA|62670-000|ROD CE 422|0|CENTRO|SAO GONCALO DO AMARANTE|CE|BRASIL|29.067.113/0288-72|0|1|1|1|0|0|10/29/20 13:46|10/29/20 13:46|KM 13 PARTE B|(NULL)|(NULL)|(NULL)|(NULL)|528|3|395|2/4/21 11:47|2/4/21 11:48|Amanda.Lemos@dsm.com, Bruna.Moraes@dsm.com, Beatriz.Souza@dsm.com, Brenda.Antinarelli@dsm.com, Luiz-Guilherme-Xavier-Cacao.Luiz-Cacao@dsm.com, SHE.CONTRACTOR@dsm.com|lindomar@guiterconstrucoes.com.br
349|PONTEC ASSISTENCIA TECNICA LTDA|18143-160|R PLANETA JUPITER|210|VILA VILMA|SAO ROQUE|SP|BRASIL|12.078.008/0001-50|0|1|1|1|0|0|7/7/20 10:06|7/7/20 10:06|A|(NULL)|(NULL)|(NULL)|(NULL)|373|3|349|7/7/20 10:07|9/13/21 9:06|isadora.bonato@dsm.com, she.contractor@dsm.com|edvaldoponterolante@hotmail.com
349|PONTEC ASSISTENCIA TECNICA LTDA|18143-160|R PLANETA JUPITER|210|VILA VILMA|SAO ROQUE|SP|BRASIL|12.078.008/0001-50|0|1|1|1|0|0|7/7/20 10:06|7/7/20 10:06|A|(NULL)|(NULL)|(NULL)|(NULL)|428|131|349|10/5/20 12:18|10/5/20 12:19|lorenna.sousa@dsm.com, she.contractor@dsm.com, maria.barbosa@dsm.com|dvaldoponterolante@hotmail.com
343|PPI TESTES E ENSAIOS ELÉTRICOS LTDA|13910-009|R CORONEL AMANCIO BUENO|138|CENTRO|JAGUARIUNA|SP|BRASIL|26.125.479/0001-86|0|1|1|1|0|0|6/24/20 10:20|6/24/20 10:20|(NULL)|(NULL)|(NULL)|(NULL)|(NULL)|359|3|343|6/24/20 10:21|2/8/21 15:37|isadora.bonato@dsm.com, she.contractor@dsm.com|isabela.pecchio@ppitestes.com.br
343|PPI TESTES E ENSAIOS ELÉTRICOS LTDA|13910-009|R CORONEL AMANCIO BUENO|138|CENTRO|JAGUARIUNA|SP|BRASIL|26.125.479/0001-86|0|1|1|1|0|0|6/24/20 10:20|6/24/20 10:20|(NULL)|(NULL)|(NULL)|(NULL)|(NULL)|522|131|343|1/29/21 14:49|1/29/21 14:49|(NULL)|(NULL)
230|PREMED LOCAÇÃO E TRANSPORTE LTDA - ME|18030-005|AVENIDA COMENDADOR PEREIRA INACIO|1040|JARDIM VERGUEIRO|SOROCABA|SP|BRASIL|17.755.574/0001-72|0|1|1|1|0|0|2/17/20 16:25|2/18/20 12:16|SALA 3|(NULL)|(NULL)|(NULL)|(NULL)|487|3|230|12/10/20 9:48|2/18/21 12:40|(NULL)|(NULL)
222|PREMED-SERVIÇOS MÉDICOS DE ATENDIMENTO A EMERGÊNCIA E REMOÇÕES LTDA|18030-005|AVENIDA COMENDADOR PEREIRA INACIO|1040|JARDIM VERGUEIRO|SOROCABA|SP|BRASIL|07.388.334/0001-23|0|1|1|1|0|0|2/11/20 12:17|2/17/20 17:05|(NULL)|(NULL)|(NULL)|(NULL)|(NULL)|486|3|222|12/10/20 9:48|2/18/21 12:40|(NULL)|(NULL)
474|PRIMEX CONTAINERS LTDA|20040-924|R DO OUVIDOR|60|CENTRO|RIO DE JANEIRO|RJ|BRASIL|02.578.886/0001-80|0|1|1|1|0|0|4/16/21 11:11|4/16/21 11:11|SAL 1009 E 1010|(NULL)|(NULL)|(NULL)|(NULL)|552|3|474|4/16/21 11:15|4/16/21 11:15|Natalia.De-Angelo@dsm.com, she.contractor@dsm.com|danielle.estrela@primexcontainers.com.br
320|PROINVENT DESENHOS TÉCNICOS LTDA|04117-110|R DIONISIO DA COSTA|122|VILA MARIANA|SAO PAULO|SP|BRASIL|09.423.015/0001-37|0|1|1|1|0|0|4/23/20 9:20|4/23/20 9:20|APT 14|(NULL)|(NULL)|(NULL)|g3.dsm@abacotecnologia.com.br|328|3|320|4/23/20 9:20|4/23/20 9:20|(NULL)|(NULL)
383|PROLOG PROJETOS LTDA|18074-664|R APARECIDO DE SOUZA LIMA|53|JARDIM SAO GUILHERME|SOROCABA|SP|BRASIL|34.058.135/0001-20|0|1|1|1|0|0|9/29/20 12:14|9/29/20 12:14|(NULL)|(NULL)|(NULL)|(NULL)|(NULL)|423|131|383|9/29/20 12:15|9/29/20 12:16|samille-gomes.vieira@dsm.com, she.contractor@dsm.com, maria.barbosa@dsm.com|(NULL)
487|PROTEGE S/A PROTECAO E TRANSPORTE DE VALORES (CENTRO EXPERIMENTAL)|18065-600|R CAPITAO RICARDO DE OLIVEIRA|70|VILA BARAO|SOROCABA|SP|BRASIL|43.035.146/0014-08|0|1|1|1|0|0|6/2/21 9:17|6/2/21 9:18|(NULL)|(NULL)|(NULL)|(NULL)|(NULL)|604|3|487|8/20/21 9:18|8/20/21 9:29|Luiz.Bittencourt@dsm.com, she.contractor@dsm.com|izabelle.souza@protege.com.br
78|PROTEGE S/A SERVIÇOS ESPECIAIS|01303-060|RUA VISCONDE DE OURO PRETO|72|CONSOLAÇÃO|SÃO PAULO|SP|BRASIL|67.837.138/0003-82|0|1|1|1|0|0|9/18/19 10:18|3/16/20 11:08|(NULL)|leticia.ramos@dsm.com, gislaine.oliveira@dsm.com, she.contractor@dsm.com|(NULL)|karla.chieregatto@protege.com.br, murilo.virava@protege.com.br, cesar.aragao@protege.com.br|g3.dsm@abacotecnologia.com.br|74|3|78|11/5/19 17:34|7/23/21 11:17|g3.dsm@abacotecnologia.com.br, leticia.ramos@dsm.com, gislaine.oliveira@dsm.com, she.contractor@dsm.com|izabelle.souza@protege.com.br
327|PULSO ENGENHARIA|60335-390|R CONSUL GOUVEIA|348|ALVARO WEYNE|FORTALEZA|CE|BRASIL|07.285.617/0001-40|0|1|1|1|0|0|4/30/20 10:09|4/30/20 10:09|(NULL)|Lorenna.Sousa@dsm.com, Maria.Barbosa@dsm.com, SHE.CONTRACTOR@dsm.com|(NULL)|financeiro@pulsoengenharia.com.br|g3.dsm@abacotecnologia.com.br|335|131|327|4/30/20 10:09|6/16/20 12:25|Lorenna.Sousa@dsm.com, Maria.Barbosa@dsm.com, SHE.CONTRACTOR@dsm.com|financeiro@pulsoengenharia.com.br
428|QUALISERV MANUTENCAO INDUSTRIAL|18051-843|R MANOEL GABRIEL VIEIRA|294|JARDIM PIAZZA DI ROMA II|SOROCABA|SP|BRASIL|31.558.999/0001-12|0|1|1|1|0|0|12/15/20 11:47|12/15/20 11:47|(NULL)|(NULL)|(NULL)|(NULL)|(NULL)|495|3|428|12/15/20 11:48|9/20/21 8:47|isadora.bonato@dsm.com, she.contractor@dsm.com|cristiana.qualiserv@gmail.com
243|QUALITY MEDICINA E ENGENHARIA DO TRABALHO LTDA|62670-970|CMPV COMPLEXO DO PECEM|0|PECEM BEACH|SAO GONCALO DO AMARANTE|CE|BRASIL|15.358.555/0001-87|0|1|1|1|0|0|2/24/20 9:30|3/30/20 16:45|VL GORETE LT 02 QD06|maria.barbosa@dsm.com, andre.angelim-pessoa@dsm.com|(NULL)|(NULL)|g3.dsm@abacotecnologia.com.br|237|131|243|2/24/20 9:31|6/16/20 12:25|maria.barbosa@dsm.com, andre.angelim-pessoa@dsm.com, she.contractor@dsm.com|rh@qualitymedicina.com.br
246|R & J MANUTENÇÃO E SERVIÇOS LTDA|61905-430|R 1 (CJ NOVO MARACANAU)|601|NOVO MARACANAU|MARACANAU|CE|BRASIL|20.585.856/0001-83|0|1|1|1|0|0|2/24/20 10:19|2/24/20 10:19|(NULL)|(NULL)|(NULL)|(NULL)|(NULL)|240|131|246|2/24/20 10:20|7/16/20 12:21|Lorenna.Sousa@dsm.com, she.contractor@dsm.com, g3.dsm@abacotecnologia.com.br|rj.26manutencaoservicos@gmail.com
129|R2 SOLUÇÕES INDUSTRIAIS E COMERCIAIS|18136-010|RUA WASHINGTON CAMPOS DO AMARAL|180|VILA SANTA IZABEL|SÃO ROQUE|SP|BR|01.911.042/3354-50|0|1|1|1|0|0|11/4/19 22:19|11/4/19 22:19|(NULL)|(NULL)|(NULL)|(NULL)|(NULL)|481|3|129|12/8/20 17:19|12/8/20 17:19|(NULL)|(NULL)
415|RAFAEL ALEXANDRE MOREIRA DA SILVA|18081-110|R JOAO GABRIEL MENDES|907|JARDIM MARIA DO CARMO|SOROCABA|SP|BRASIL|34.594.256/0001-96|0|1|1|1|0|0|12/4/20 17:16|12/4/20 17:16|(NULL)|(NULL)|(NULL)|(NULL)|(NULL)|475|3|415|12/4/20 17:17|2/8/21 15:39|Amanda.Lemos@dsm.com, Bruna.Moraes@dsm.com, Beatriz.Souza@dsm.com, Brenda.Antinarelli@dsm.com, Luiz-Guilherme-Xavier-Cacao.Luiz-Cacao@dsm.com, SHE.CONTRACTOR@dsm.com|adm@glbtechautomacao.com.br
438|RAFAEL NOGUEIRA|18077-590|R AUGUSTO GRILLO|196|JARDIM SANTA CLAUDIA|SOROCABA|SP|BRASIL|34.674.711/0001-63|0|1|1|1|0|0|12/18/20 16:40|12/18/20 16:40|(NULL)|(NULL)|(NULL)|(NULL)|(NULL)|512|3|438|12/30/20 17:12|12/30/20 17:12|(NULL)|(NULL)
241|RC MANUTENÇÃO INDUSTRIAL E SERVIÇOS LTDA - ANTONIA CHEILA|62670-000|RUA MARIA DE LOURDES SAMPAIO|60|PECEM|SÃO GONÇALO DO AMARANTE|CE|BRASIL|18.335.677/0001-46|0|1|1|1|0|0|2/21/20 8:13|3/12/20 13:38|(NULL)|Bruna.Moraes@dsm.com, Amanda.Camargo@dsm.com, Beatriz.Souza@dsm.com, she.contractor@dsm.com, maria.barbosa@dsm.com|(NULL)|cheila.santos@rcservicos.com, helenilson.moreira@rcservicos.com, relleson@rcservicos.com|g3.dsm@abacotecnologia.com.br|462|3|241|11/24/20 12:24|11/24/20 12:24|(NULL)|(NULL)
241|RC MANUTENÇÃO INDUSTRIAL E SERVIÇOS LTDA - ANTONIA CHEILA|62670-000|RUA MARIA DE LOURDES SAMPAIO|60|PECEM|SÃO GONÇALO DO AMARANTE|CE|BRASIL|18.335.677/0001-46|0|1|1|1|0|0|2/21/20 8:13|3/12/20 13:38|(NULL)|Bruna.Moraes@dsm.com, Amanda.Camargo@dsm.com, Beatriz.Souza@dsm.com, she.contractor@dsm.com, maria.barbosa@dsm.com|(NULL)|cheila.santos@rcservicos.com, helenilson.moreira@rcservicos.com, relleson@rcservicos.com|g3.dsm@abacotecnologia.com.br|235|131|241|2/21/20 8:15|8/9/21 11:42|Amanda.Lemos@dsm.com, Bruna.Moraes@dsm.com, Beatriz.Souza@dsm.com, Brenda.Antinarelli@dsm.com, Luiz-Guilherme-Xavier-Cacao.Luiz-Cacao@dsm.com, SHE.CONTRACTOR@dsm.com|documentacao@rcservico.com.br
514|RDT DESENHOS TECNICOS|08745-575|R PAULO EDUARDO DO VALLE PEREIRA|772|JARDIM CAMBUCI|MOGI DAS CRUZES|SP|BRASIL|30.068.775/0001-60|0|1|1|1|0|0|7/23/21 12:00|7/23/21 12:00|(NULL)|(NULL)|(NULL)|(NULL)|(NULL)|625|131|514|9/21/21 13:10|9/21/21 13:11|Amanda.Lemos@dsm.com, Bruna.Moraes@dsm.com, Beatriz.Souza@dsm.com, Brenda.Antinarelli@dsm.com, Luiz-Guilherme-Xavier-Cacao.Luiz-Cacao@dsm.com, SHE.CONTRACTOR@dsm.com|ivo.excede@hotmail.com
514|RDT DESENHOS TECNICOS|08745-575|R PAULO EDUARDO DO VALLE PEREIRA|772|JARDIM CAMBUCI|MOGI DAS CRUZES|SP|BRASIL|30.068.775/0001-60|0|1|1|1|0|0|7/23/21 12:00|7/23/21 12:00|(NULL)|(NULL)|(NULL)|(NULL)|(NULL)|597|3|514|7/23/21 12:00|7/23/21 12:01|Amanda.Lemos@dsm.com, Bruna.Moraes@dsm.com, Beatriz.Souza@dsm.com, Brenda.Antinarelli@dsm.com, Luiz-Guilherme-Xavier-Cacao.Luiz-Cacao@dsm.com, SHE.CONTRACTOR@dsm.com|ivo.excede@hotmail.com
469|REB TRANSPORTES E ALUGUEL DE MUNCK LTDA|60710-700|R LUIS TORRES|300|MARAPONGA|FORTALEZA|CE|BRASIL|23.167.391/0001-39|0|1|1|1|0|0|3/22/21 9:14|3/22/21 9:14|(NULL)|(NULL)|(NULL)|(NULL)|(NULL)|545|131|469|3/22/21 9:16|3/22/21 9:16|Lorenna.Sousa@dsm.com, SHE.CONTRACTOR@dsm.com|elisa.rabelo@polimatec.com.br
475|REDENCAO VIAGENS E TURISMO EIRELI|62598-000|R ALAGOAS|1300|CENTRO|JIJOCA DE JERICOACOARA|CE|BRASIL|08.927.703/0001-71|0|1|1|1|0|0|4/26/21 9:04|4/26/21 9:04|(NULL)|(NULL)|(NULL)|(NULL)|(NULL)|554|131|475|4/26/21 9:04|4/26/21 11:45|Bruno.Mantini@dsm.com, SHE.CONTRACTOR@dsm.com|fretamento@redencaoonline.com.br
80|REDEPLUS INFORMÁTICA EIRELI|02961-130|RUA FILOMENA BOCHI PILLI|140|FREGUESIA DO Ó|SÃO PAULO|SP|BRASIL|28.031.978/0001-30|0|1|1|1|0|0|9/18/19 10:34|3/6/20 16:39|LOTE 8|bruna.moraes@dsm.com, beatriz.souza@dsm.com, amanda.camargo@dsm.com, she.contractor@dsm.com|(NULL)|amanda@redeplusinformatica.com.br|g3.dsm@abacotecnologia.com.br|535|3|80|3/3/21 12:43|3/3/21 12:44|Amanda.Lemos@dsm.com, Bruna.Moraes@dsm.com, Beatriz.Souza@dsm.com, Brenda.Antinarelli@dsm.com, Luiz-Guilherme-Xavier-Cacao.Luiz-Cacao@dsm.com, SHE.CONTRACTOR@dsm.com|amanda@redeplusinformatica.com.br
400|REGINA APARECIDA DUARTE DA COSTA|13612-200|ROD ANHANGUERA|185|JARDIM NOVA LEME|Leme|SP|Brasil|35.288.507/0001-77|0|1|1|1|0|0|11/13/20 13:38|11/13/20 13:38|GALPAO 1|(NULL)|(NULL)|(NULL)|(NULL)|455|3|400|11/13/20 13:38|2/8/21 15:41|Amanda.Lemos@dsm.com, Bruna.Moraes@dsm.com, Beatriz.Souza@dsm.com, Brenda.Antinarelli@dsm.com, Luiz-Guilherme-Xavier-Cacao.Luiz-Cacao@dsm.com, SHE.CONTRACTOR@dsm.com|financeiro@caldeirariasantarosa.com.br
371|REMBE AMERICA LATINA COMERCIO DE EQUIPAMENTOS LTDA|81630-110|R PAULO SETUBAL|406|HAUER|CURITIBA|PR|BRASIL|20.514.856/0001-92|0|1|1|1|0|0|9/3/20 10:01|9/3/20 10:01|(NULL)|(NULL)|(NULL)|(NULL)|(NULL)|408|3|371|9/3/20 10:01|9/29/21 11:46|Isadora.Bonato@dsm.com, SHE.CONTRACTOR@dsm.com|rha@rhasystem.com.br, tharcio.oliveira@rembe-lat.com, rh@siebert.com.br
120|RENAN HENRIQUE PISSOLATTI 35080533854|13088-220|RUA BENEDITO SAMPAIO|248|PARQUE SÃO QUIRINI|CAMPINAS|SP|BRASIL|34.084.526/0001-19|0|1|1|1|0|0|10/29/19 14:54|10/29/19 14:54|(NULL)|(NULL)|(NULL)|(NULL)|(NULL)|287|3|120|4/2/20 14:42|4/2/20 14:42|(NULL)|(NULL)
414|RENATO MANZONI CARELI|08528-330|R FLORIANO PEIXOTO|980|JARDIM SAO LUIZ|FERRAZ DE VASCONCELOS|SP|BRASIL|14.605.654/0001-53|0|1|1|1|0|0|12/4/20 16:38|12/4/20 16:38|(NULL)|(NULL)|(NULL)|(NULL)|(NULL)|474|3|414|12/4/20 16:38|2/8/21 15:41|Amanda.Lemos@dsm.com, Bruna.Moraes@dsm.com, Beatriz.Souza@dsm.com, Brenda.Antinarelli@dsm.com, Luiz-Guilherme-Xavier-Cacao.Luiz-Cacao@dsm.com, SHE.CONTRACTOR@dsm.com|daniel.planejamento@genpro.com.br
338|RENTANK MACROGALPOES INDUSTRIA E COMERCIO DE COBERTURAS LTDA|18540-000|AV ARMANDO LOPES RIBEIRO|0|COLONIA RODRIGO SILVA|PORTO FELIZ|SP|BRASIL|02.624.956/0006-02|0|1|1|1|0|0|6/18/20 9:01|6/18/20 9:01|AREA 3|(NULL)|(NULL)|(NULL)|(NULL)|351|131|338|6/18/20 9:01|12/28/20 9:56|Amanda.Lemos@dsm.com, Bruna.Moraes@dsm.com, Beatriz.Souza@dsm.com, Brenda.Antinarelli@dsm.com, Luiz-Guilherme-Xavier-Cacao.Luiz-Cacao@dsm.com, SHE.CONTRACTOR@dsm.com|veronice.freires@rentank.onmicrosoft.com
83|REQUINTE INDÚSTRIA DE ARTEFATOS PLÁSTICOS LTDA|08539-120|RUA JOSÉ BRUNO DA COSTA|191|VILA LAONDA|FERRAS DE VASCONCELOS|SP|BRASIL|11.076.322/0001-76|0|1|1|1|0|0|9/18/19 10:55|3/6/20 16:41|RUA ESPERANÇA, 201|bruna.moraes@dsm.com, beatriz.souza@dsm.com, amanda.camargo@dsm.com, she.contractor@dsm.com|(NULL)|comercial@interhouse.ind.br, comercial2@interhouse.ind.br|g3.dsm@abacotecnologia.com.br|534|3|83|3/2/21 13:32|3/2/21 13:32|isadora.bonato@dsm.com, she.contractor@dsm.com|comercial5@interhouse.ind.br
408|REVCAL COMERCIO E MANUTENCAO DE INSTRUMENTOS DE PRECISAO LTDA|09195-430|R COTOXO|257|VILA LEOPOLDINA|SANTO ANDRÉ|SP|BRASIL|10.827.801/0001-89|0|1|1|1|0|0|12/1/20 13:43|12/1/20 13:43|(NULL)|vendas@revcal.com.br|(NULL)|(NULL)|g3.dsm@abacotecnologia.com.br|469|3|408|12/3/20 9:19|2/8/21 15:42|isadora.bonato@dsm.com, she.contractor@dsm.com|vendas@revcal.com.br qualidade@revcal.com.br
265|RL PINTURAS|24436-000|R ABILIO JOSE DE MATOS|2896|PORTO DA PEDRA|SAO GONCALO|RJ|BRASIL|36.582.355/0001-83|0|1|1|1|0|0|3/13/20 16:20|3/13/20 16:20|SLJ|SHE.CONTRACTOR@dsm.com, Bruna.Moraes@dsm.com, Amanda.Camargo@dsm.com, Beatriz.Souza@dsm.com|(NULL)|felipelima@rczengenharia.com.br, assumpcao.rsa@gmail.com, mfilho@rczengenharia.com.br|g3.dsm@abacotecnologia.com.br|258|3|265|3/13/20 16:22|2/8/21 15:42|Amanda.Lemos@dsm.com, Bruna.Moraes@dsm.com, Beatriz.Souza@dsm.com, Brenda.Antinarelli@dsm.com, Luiz-Guilherme-Xavier-Cacao.Luiz-Cacao@dsm.com, SHE.CONTRACTOR@dsm.com|felipelima@rczengenharia.com.br, assumpcao.rsa@gmail.com, mfilho@rczengenharia.com.br
322|RM SERVIÇOS|25272-120|R UM (LOT CACHOEIRA)|0|TAQUARA|DUQUE DE CAXIAS|RJ|BRASIL|33.992.069/0001-06|0|1|1|1|0|0|4/23/20 10:23|4/23/20 10:23|QUADRA B;LOTE 31|(NULL)|(NULL)|(NULL)|g3.dsm@abacotecnologia.com.br|330|3|322|4/23/20 10:23|4/23/20 10:23|(NULL)|(NULL)
244|ROBELITO BALDUINO RODRIGUES CORREA|13455-675|R JOAO GOMES MOREIRA|715|PARQUE PLANALTO|SANTA BARBARA D'OESTE|SP|BRASIL|27.858.264/0001-37|0|1|1|1|0|0|2/24/20 9:43|2/24/20 9:43|BLOCO C APTO 102|(NULL)|(NULL)|(NULL)|(NULL)|238|131|244|2/24/20 9:43|2/24/20 9:43|(NULL)|(NULL)
275|ROBSON CARPINTEIRO|26165-600|R ANTONIO PARREIRAS|39|VILA JOLA|BELFORD ROXO|RJ|BRASIL|36.700.856/0001-17|0|1|1|1|0|0|3/19/20 11:17|3/19/20 11:17|(NULL)|Bruna.Moraes@dsm.com, Amanda.Camargo@dsm.com, Beatriz.Souza@dsm.com, she.contractor@dsm.com|(NULL)|felipelima@rczengenharia.com.br|g3.dsm@dsm.com|267|3|275|3/19/20 11:19|2/8/21 15:42|Amanda.Lemos@dsm.com, Bruna.Moraes@dsm.com, Beatriz.Souza@dsm.com, Brenda.Antinarelli@dsm.com, Luiz-Guilherme-Xavier-Cacao.Luiz-Cacao@dsm.com, SHE.CONTRACTOR@dsm.com|felipelima@rczengenharia.com.br
119|ROCHA MACHADO ENGENHARIA LTDA|13061-155|AVENIDA ANTONIO ARTIOLI,|570|SWISS PARK|CAMPINAS|SP|BRASIL|15.810.953/0001-92|0|1|1|1|0|0|10/29/19 13:22|10/29/19 13:22|EDIFÍCIO ZUG, SALA Nº 40.|(NULL)|(NULL)|(NULL)|(NULL)|288|3|119|4/2/20 14:43|4/2/20 14:43|(NULL)|(NULL)
85|ROCHAFORTE TRANSPORTES E SERVIÇOS EIRELI|18081-400|RUA JOÃO MENDES GOMES|105|JARDIM MARCO ANTONIO|SOROCABA|SP|BRASIL|04.965.146/0001-22|0|1|1|1|0|0|9/18/19 11:05|3/6/20 9:55|(NULL)|natalie.montebello@dsm.com, she.contractor@dsm.com|(NULL)|logistica@rochafortesaneamento.com.br, comercial3@rochafortesaneamento.com.br|g3.dsm@abacotecnologia.com.br|81|3|85|11/5/19 17:34|2/8/21 15:43|natalie.montebello@dsm.com, she.contractor@dsm.com|log2@rochafortesaneamento.com.br, logistica@rochafortesaneamento.com.br, comercial3@rochafortesaneamento.com.br
413|ROCKWELL AUTOMATION DO BRASIL LTDA|04719-904|R VERBO DIVINO|1488|CHACARA SANTO ANTONIO|São Paulo|SP|BRASIL|46.323.754/0017-40|0|1|1|1|0|0|12/4/20 15:51|12/4/20 15:51|ANDAR 1|(NULL)|(NULL)|(NULL)|(NULL)|477|3|413|12/7/20 9:51|12/7/20 9:52|Amanda.Lemos@dsm.com, Bruna.Moraes@dsm.com, Beatriz.Souza@dsm.com, Brenda.Antinarelli@dsm.com, Luiz-Guilherme-Xavier-Cacao.Luiz-Cacao@dsm.com, SHE.CONTRACTOR@dsm.com|AdeAlme@ra.rockwell.com
387|RODRIGO RANGEL DE ARAUJO|27264-010|R FRANCISCO ALVES|58|EUCALIPTAL|VOLTA REDONDA|RJ|BRASIL|28.615.931/0001-13|0|1|1|1|0|0|10/9/20 13:10|10/9/20 13:10|CASA 1|(NULL)|(NULL)|(NULL)|(NULL)|431|3|387|10/9/20 13:11|10/9/20 13:14|Amanda.Lemos@dsm.com, Bruna.Moraes@dsm.com, Beatriz.Souza@dsm.com, Brenda.Antinarelli@dsm.com, Luiz-Guilherme-Xavier-Cacao.Luiz-Cacao@dsm.com, SHE.CONTRACTOR@dsm.com|rh@installautomacao.com.br
86|ROHR S.A. ESTRUTURAS TUBULARES|05276-000|VIA ANHAGUERA, Km25,2|0|PERUS|SÃO PAULO|SP|BRASIL|61.480.380/0009-50|0|1|1|1|0|0|9/18/19 11:11|9/18/19 11:11|(NULL)|(NULL)|(NULL)|(NULL)|(NULL)|402|3|86|8/21/20 13:23|10/25/21 12:05|Isadora.Bonato@dsm.com, she.contractor@dsm.com|admtv@rohr.com.br, transportevertical@rohr.com.br
473|RONALDO DE LUCCA|18132-305|AV BRASIL|1400|JARDIM CARAMBEI|SAO ROQUE|SP|BRASIL|60.322.401/0001-90|0|1|1|1|0|0|4/8/21 8:58|4/8/21 8:58|(NULL)|(NULL)|(NULL)|(NULL)|(NULL)|550|3|473|4/8/21 8:59|4/8/21 8:59|Amanda.Lemos@dsm.com, Bruna.Moraes@dsm.com, Beatriz.Souza@dsm.com, Brenda.Antinarelli@dsm.com, Luiz-Guilherme-Xavier-Cacao.Luiz-Cacao@dsm.com, SHE.CONTRACTOR@dsm.com|lindomar@guiterconstrucoes.com.br, patricia@nacobase.com.br
386|RP CONTROLS MONTAGENS E AUTOMACAO INDUSTRIAL EIRELI|07793-385|R ITAOCA|100|SAO LUIZ (POLVILHO)|CAJAMAR|SP|BRASIL|14.712.890/0001-79|0|1|1|1|0|0|10/8/20 13:25|10/8/20 13:25|(NULL)|(NULL)|(NULL)|(NULL)|(NULL)|557|131|386|5/7/21 9:24|5/7/21 9:24|(NULL)|(NULL)
386|RP CONTROLS MONTAGENS E AUTOMACAO INDUSTRIAL EIRELI|07793-385|R ITAOCA|100|SAO LUIZ (POLVILHO)|CAJAMAR|SP|BRASIL|14.712.890/0001-79|0|1|1|1|0|0|10/8/20 13:25|10/8/20 13:25|(NULL)|(NULL)|(NULL)|(NULL)|(NULL)|430|3|386|10/8/20 13:26|2/8/21 15:43|Amanda.Lemos@dsm.com, Bruna.Moraes@dsm.com, Beatriz.Souza@dsm.com, Brenda.Antinarelli@dsm.com, Luiz-Guilherme-Xavier-Cacao.Luiz-Cacao@dsm.com, SHE.CONTRACTOR@dsm.com|rh@rpcontrols.com.br
256|RPA METALURGICA E MONTAGEM EIRELI|62015-505|AV SENADOR JOSE ERMIRIO DE MORAES|1951|DOM JOSE|SOBRAL|CE|BRASIL|17.345.025/0001-20|0|1|1|1|0|0|3/9/20 9:38|3/9/20 9:38|GALPAO2|bruna.moraes@dsm.com,beatriz.souza@dsm.com,amanda.camargo@dsm.com,she.contractor@dsm.com,maria.barbosa@dsm.com|(NULL)|erico.tiago@rpamontagem.com,adm_rpamontagens@outlook.com|g3.dsm@abacotecnologia.com.br|249|131|256|3/9/20 9:39|6/16/20 12:27|Amanda.Lemos@dsm.com, Bruna.Moraes@dsm.com, Beatriz.Souza@dsm.com, Brenda.Antinarelli@dsm.com, Luiz-Guilherme-Xavier-Cacao.Luiz-Cacao@dsm.com, SHE.CONTRACTOR@dsm.com|erico.tiago@rpamontagem.com,adm_rpamontagens@outlook.com
144|RUD CORRENTES INDUSTRIAIS LTDA|87452-060|RUA ANDRÉAS FLORIAN RIEGER|381|VILA JUNDIAÍ|MOGI DAS CRUZES|SP|BRASIL|89.519.706/0001-78|0|1|1|1|0|0|12/11/19 9:40|3/6/20 9:56|(NULL)|luciana.florentino@dsm.com, she.contractor@dsm.com|(NULL)|vendasg41@rud.com.br|g3.dsm@abacotecnologia.com.br|380|3|144|7/15/20 8:22|2/8/21 15:44|isadora.bonato@dsm.com, she.contractor@dsm.com|vendasg43@rud.com.br
87|RV MONT INSTALAÇÕES E MONTAGENS EIRELI|18250-000|RODOVIA ARISTIDES DA COSTA|21|JACUTINGA|GUAREI|SP|BRASIL|19.428.610/0001-19|0|1|1|1|0|0|9/18/19 11:15|3/6/20 16:44|(NULL)|bruna.moraes@dsm.com, beatriz.souza@dsm.com, amanda.camargo@dsm.com, she.contractor@dsm.com|(NULL)|rvmont@ymail.com, rvmont.obras@gmail.com, rvmont.rh@gmail.com|g3.dsm@abacotecnologia.com.br|435|3|87|10/19/20 12:18|2/8/21 15:44|Amanda.Lemos@dsm.com, Bruna.Moraes@dsm.com, Beatriz.Souza@dsm.com, Brenda.Antinarelli@dsm.com, Luiz-Guilherme-Xavier-Cacao.Luiz-Cacao@dsm.com, SHE.CONTRACTOR@dsm.com|rvmont@ymail.com, rvmont.obras@gmail.com, rvmont.rh@gmail.com
253|RZ DESENHOS LTDA|03563-040|R BARTOLOMEU ESTEVES|77|CIDADE PATRIARCA|SAO PAULO|SP|BRASIL|08.748.856/0001-51|0|1|1|1|0|0|3/5/20 15:11|3/5/20 15:12|A|(NULL)|(NULL)|(NULL)|(NULL)|246|3|253|3/5/20 15:12|3/5/20 15:12|(NULL)|(NULL)
491|S M A TEIXEIRA|61916-500|R SANTO INACIO|1180|JARI|MARACANAU|CE|BRASIL|21.140.981/0001-42|0|1|1|1|0|0|6/11/21 10:29|6/11/21 10:29|(NULL)|(NULL)|(NULL)|(NULL)|(NULL)|571|131|491|6/11/21 10:33|6/11/21 10:38|Lorenna.Sousa@dsm.com, she.contractor@dsm.com|elisa.rabelo@polimatec.com.br
510|S. LAERCIO BARBOSA ELETROINDUSTRIA|84052-430|R PROFESSOR JOSE ANTONIO DAROS|161|CONTORNO|PONTA GROSSA|PR|BRASIL|30.480.728/0001-29|0|1|1|1|0|0|7/19/21 16:27|7/19/21 16:27|CASA FRENTE|(NULL)|(NULL)|(NULL)|(NULL)|593|3|510|7/19/21 16:27|7/19/21 16:38|Amanda.Lemos@dsm.com, Bruna.Moraes@dsm.com, Beatriz.Souza@dsm.com, Brenda.Antinarelli@dsm.com, Luiz-Guilherme-Xavier-Cacao.Luiz-Cacao@dsm.com, SHE.CONTRACTOR@dsm.com|sandra.marques@cyklop.com.br
347|SAL ENGENHARIA|13073-340|R CAMARGO PIMENTEL|38|JARDIM GUANABARA|CAMPINAS|SP|BRASIL|15.251.931/0001-30|0|1|1|1|0|0|7/3/20 10:37|7/3/20 10:37|(NULL)|(NULL)|(NULL)|(NULL)|(NULL)|371|3|347|7/3/20 10:42|2/8/21 15:45|isadora.bonato@dsm.com, she.contractor@dsm.com|logistica@salengenharia.com.br, logistica2@salengenharia.com.br
448|SALES MONTAGENS LTDA|06714-300|R EURICLEDES FORMIGA|130|JARDIM CLAUDIO|COTIA|SP|BRASIL|23.492.700/0001-46|0|1|1|1|0|0|12/30/20 14:00|12/30/20 14:00|(NULL)|(NULL)|(NULL)|(NULL)|(NULL)|511|3|448|12/30/20 14:01|2/8/21 15:45|isadora.bonato@dsm.com, she.contractor@dsm.com|anderson@reconlog.com.br
351|SANEARTEC SERVICOS LTDA|60170-021|R BARBOSA DE FREITAS|1741|ALDEOTA|FORTALEZA|CE|BRASIL|03.003.545/0001-40|0|1|1|1|0|0|7/7/20 11:34|7/7/20 11:34|(NULL)|(NULL)|(NULL)|(NULL)|(NULL)|375|131|351|7/7/20 11:34|7/7/20 11:56|Lorenna.Sousa@dsm.com, maria.barbosa@dsm.com, she.contractor@dsm.com, g3.dsm@abacotecnologia.com.br, Aldo.Vasconcelos@dsm.com|comercial@saneartec.com.br
89|SANTEC COMÉRCIO E PRESTAÇÃO DE SERVIÇOS DE MANUTENÇÃO DE EQUIPAMENTOS LTDA|06194-060|AVENIDA DOS AUTONOMISTAS|4900|Km 18|OSASCO|SP|BRASIL|12.003.431/0001-90|0|1|1|1|0|0|9/18/19 11:32|3/6/20 16:50|GALPÃO 406 G A|bruna.moraes@dsm.com, beatriz.souza@dsm.com, amanda.camargo@dsm.com, she.contractor@dsm.com|(NULL)|santec@santecautomacao.com.br|g3.dsm@abacotecnologia.com.br|85|3|89|11/5/19 17:34|2/8/21 15:45|Amanda.Lemos@dsm.com, Bruna.Moraes@dsm.com, Beatriz.Souza@dsm.com, Brenda.Antinarelli@dsm.com, Luiz-Guilherme-Xavier-Cacao.Luiz-Cacao@dsm.com, SHE.CONTRACTOR@dsm.com|santec@santecautomacao.com.br
417|SAULO RAFAEL VIEIRA DA SILVA|13876-875|R ALCEU BATISTA|648|JARDIM DAS TULIPAS|SAO JOAO DA BOA VISTA|SP|BRASIL|29.426.778/0001-49|0|1|1|1|0|0|12/8/20 12:04|12/8/20 12:04|CASA|(NULL)|(NULL)|(NULL)|(NULL)|480|3|417|12/8/20 12:11|12/8/20 12:11|(NULL)|lucineide@villarta.com.br
352|SCALLARE TERCEIRIZACAO LTDA|60170-021|R BARBOSA DE FREITAS|1741|ALDEOTA|FORTALEZA|CE|BRASIL|12.057.933/0001-02|0|1|1|1|0|0|7/7/20 12:56|7/7/20 12:56|(NULL)|(NULL)|(NULL)|(NULL)|(NULL)|376|131|352|7/7/20 12:56|7/7/20 12:57|Lorenna.Sousa@dsm.com, maria.barbosa@dsm.com, she.contractor@dsm.com, g3.dsm@abacotecnologia.com.br, Aldo.Vasconcelos@dsm.com|comercial@saneartec.com.br
457|SCARPIM ALIMENTOS LTDA|18919-899|ROD SEBASTIAO TEIXEIRA COELHO|0|DAS PEROBAS|SANTA CRUZ DO RIO PARDO|SP|BRASIL|13.434.114/0001-91|0|1|1|1|0|0|2/1/21 9:15|2/1/21 9:15|KM 07 500 METROS|(NULL)|(NULL)|(NULL)|(NULL)|524|131|457|2/1/21 11:49|2/1/21 11:53|Lorenna.Sousa@dsm.com, she.contractor@dsm.com|elisa.rabelo@polimatec.com.br
477|SCHEFFER LOGISTICA E AUTOMACAO LTDA|84071-210|R PEDRO MEZZOMO|256|JARDIM LOS ANGELES|PONTA GROSSA|PR|BRASIL|04.255.500/0001-25|0|1|1|1|0|0|5/3/21 12:44|5/3/21 12:44|(NULL)|(NULL)|(NULL)|(NULL)|(NULL)|556|3|477|5/3/21 12:45|5/27/21 10:14|Amanda.Lemos@dsm.com, Bruna.Moraes@dsm.com, Beatriz.Souza@dsm.com, Brenda.Antinarelli@dsm.com, Luiz-Guilherme-Xavier-Cacao.Luiz-Cacao@dsm.com, SHE.CONTRACTOR@dsm.com|sandra.marques@cyklop.com.br
434|SCM - DESENHOS E PROJETOS DE ENGENHARIA LTDA|18079-446|R JOSE RODRIGUES CLARO|700|JARDIM SANTA CATARINA|SOROCABA|SP|BRASIL|28.401.162/0001-50|0|1|1|1|0|0|12/18/20 11:24|12/18/20 11:24|CASA 82|(NULL)|(NULL)|(NULL)|(NULL)|500|3|434|12/18/20 11:24|2/8/21 15:46|Amanda.Lemos@dsm.com, Bruna.Moraes@dsm.com, Beatriz.Souza@dsm.com, Brenda.Antinarelli@dsm.com, Luiz-Guilherme-Xavier-Cacao.Luiz-Cacao@dsm.com, SHE.CONTRACTOR@dsm.com|lidia.planejamento@genpro.com.br
523|SEGMENTUM CONSULTORIA E PROJETOS LTDA|09170-270|R GONCALO COELHO|95|VILA JOAO RAMALHO|SANTO ANDRE|SP|BRASIL|05.296.723/0001-01|0|1|1|1|0|0|8/26/21 12:50|8/26/21 12:50|(NULL)|(NULL)|(NULL)|(NULL)|(NULL)|611|3|523|8/26/21 12:50|8/26/21 12:50|Amanda.Lemos@dsm.com, Bruna.Moraes@dsm.com, Beatriz.Souza@dsm.com, Brenda.Antinarelli@dsm.com, Luiz-Guilherme-Xavier-Cacao.Luiz-Cacao@dsm.com, SHE.CONTRACTOR@dsm.com|daniel.planejamento@genpro.com.br
516|SERGIO JUNIOR PPA PORTAS|06040-000|AV PRESTES MAIA|47|JARDIM D'ABRIL|OSASCO|SP|BRASIL|07.158.519/0001-41|0|1|1|1|0|0|7/29/21 12:41|7/29/21 12:41|(NULL)|(NULL)|(NULL)|(NULL)|(NULL)|600|3|516|7/29/21 12:41|7/29/21 12:41|Amanda.Lemos@dsm.com, Bruna.Moraes@dsm.com, Beatriz.Souza@dsm.com, Brenda.Antinarelli@dsm.com, Luiz-Guilherme-Xavier-Cacao.Luiz-Cacao@dsm.com, SHE.CONTRACTOR@dsm.com| sandra.marques@cyklop.com.br
382|SERVIS ELETRONICA DEFENSE LTDA|60115-081|R BARAO DE ARACATI|1363|ALDEOTA|FORTALEZA|CE|BRASIL|04.196.136/0001-70|0|1|1|1|0|0|9/29/20 11:08|9/29/20 11:08|(NULL)|(NULL)|(NULL)|(NULL)|(NULL)|422|131|382|9/29/20 11:09|9/29/20 11:09|lorenna.sousa@dsm.com, SHE.CONTRACTOR@dsm.com, maria.barbosa@dsm.com|luiscarlos@serviseletronica.com.br
90|SERVITEC CERIONI SANEAMENTO LTDA|18120-000|RUA MOISES DE CARMARGO|43|JARDIM GRANADA|MAIRINQUE|SP|BRASIL|66.117.425/0001-93|0|1|1|1|0|0|9/18/19 11:38|4/9/20 9:56|(NULL)|Jessica.Paixao@dsm.com, Bruna.Moraes@dsm.com, Beatriz.Souza@dsm.com, claudemir.lucindo@dsm.com, paulo.pereira@dsm.com, she.contractor@dsm.com|(NULL)|comercial@serviteccerioni.com.br, vendas5@serviteccerioni.com.br|g3.dsm@abacotecnologia.com.br|86|3|90|11/5/19 17:34|4/22/21 12:20|g3.dsm@abacotecnologia.com.br, Jessica.Paixao@dsm.com, Bruna.Moraes@dsm.com, Beatriz.Souza@dsm.com, paulo.pereira@dsm.com, she.contractor@dsm.com, Macleane.Sales-Araujo@dsm.com, amanda.lemos@dsm.com|comercial@serviteccerioni.com.br, vendas5@serviteccerioni.com.br
407|SEW-EURODRIVE BRASIL LTDA|60860-540|R MARECHAL BITTENCOURT|805|DIAS MACEDO|FORTALEZA|CE|BRASIL|50.981.018/0023-03|0|1|1|1|0|0|11/30/20 12:50|11/30/20 12:50|(NULL)|diana.delfino@sew.com.br|(NULL)|(NULL)|g3.dsm@abacotecnologia.com.br|470|131|407|12/3/20 11:17|12/3/20 11:46|Lorenna.Sousa@dsm.com, SHE.CONTRACTOR@dsm.com|diana.delfino@sew.com.br
237|SHIRLEY MARIA TEIXEIRA RIBEIRO - POLIMATEC|61905-240|R SANTA LUCIA|1183|JACANAU|MARACANAU|CE|BRASIL|35.026.350/0001-01|0|1|1|1|0|0|2/19/20 15:56|3/30/20 16:47|(NULL)|bruna.moraes@dsm.com, beatriz.souza@dsm.com, amanda.camargo@dsm.com, she.contractor@dsm.com, maria.barbosa@dsm.com|(NULL)|dp@grupopolimatec.com.br, credenciamento@polimatec.com.br, kaio@polimatec.com.br|g3.dsm@abacotecnologia.com.br|231|131|237|2/19/20 15:57|5/7/21 13:31|Lorenna.Sousa@dsm.com, Amanda.Lemos@dsm.com, Bruna.Moraes@dsm.com, Beatriz.Souza@dsm.com, Brenda.Antinarelli@dsm.com, Luiz-Guilherme-Xavier-Cacao.Luiz-Cacao@dsm.com, SHE.CONTRACTOR@dsm.com|elisa.rabelo@polimatec.com.br
143|SILTECH|05205-380|RUA DO BAMBURRAL|597|JARDIM RUSSO|SÃO PAUÇO|SP|BRASIL|33.830.080/0001-61|0|1|1|1|0|0|12/10/19 17:37|12/10/19 17:37|(NULL)|(NULL)|(NULL)|(NULL)|(NULL)|273|3|143|3/30/20 15:45|2/8/21 15:47|Amanda.Lemos@dsm.com, Bruna.Moraes@dsm.com, Beatriz.Souza@dsm.com, Brenda.Antinarelli@dsm.com, Luiz-Guilherme-Xavier-Cacao.Luiz-Cacao@dsm.com, SHE.CONTRACTOR@dsm.com|silvio@siltech.com.br
91|SINTONIA QUALIDADE DE VIDA E BEM ESTAR LTDA|02031-020|RUA SANTA EULALIA|127|SANTANA|SÃO PAULO|SP|BRASIL|13.375.840/0001-80|0|1|1|1|0|0|9/18/19 11:41|9/18/19 11:41|1º ANDAR|(NULL)|(NULL)|(NULL)|(NULL)|87|3|91|11/5/19 17:34|11/5/19 17:34|(NULL)|(NULL)
92|SINTRAMERPRO - SINDICATO DOS TRABALHADORES|18120-000|RUA THOMAZ NATALE|239|CENTRO|MAIRINQUE|SP|BRASIL|57.050.049/0001-76|0|1|1|1|0|0|9/18/19 11:51|3/6/20 9:57|(NULL)|natalie.montebello@dsm.com, denis.almeida@dsm.com, she.contractor@dsm.com|(NULL)|adm.mairinque@sintramerpro.org.br, seguranca.sintramerpro@gmail.com|g3.dsm@abacotecnologia.com.br|88|3|92|11/5/19 17:34|2/8/21 15:47|natalie.montebello@dsm.com, denis.almeida@dsm.com, she.contractor@dsm.com|adm.mairinque@sintramerpro.org.br, seguranca.sintramerpro@gmail.com
136|SINTRAMOCE - SINDICATO DOS TRABALHADORES|60035-160|RUA METON DE ALENCAR|625|CENTRO|FORTALEZA|CE|BRASIL|10.857.200/0001-19|0|1|1|1|0|0|11/13/19 11:15|3/30/20 16:48|(NULL)|Diego.Dias@dsm.com|(NULL)|sindicalistabrisola@hotmail.com, rafael.sintramoce@outlook.com|g3.dsm@abacotecnologia.com.br|128|131|136|11/13/19 11:38|6/17/20 9:17|Diego.Dias@dsm.com, maria.barbosa@dsm.com, she.contractor@dsm.com|sindicalistabrisola@hotmail.com, rafael.sintramoce@outlook.com
93|SKF DO BRASIL|07709-190|RODOVIA ANHANGUERA|0|EMPRESARIAL ITAIM|CAJAMAR|SP|BRASIL|61.077.327/0001-56|0|1|1|1|0|0|9/18/19 12:00|3/6/20 9:58|KM 30|luciana.florentino@dsm.com, she.contractor@dsm.com|(NULL)|estevao.cardoso@skf.com, tatiane.Aleixo@skf.com|g3.dsm@abacotecnologia.com.br|355|3|93|6/19/20 9:05|2/8/21 15:47|isadora.bonato@dsm.com, she.contractor@dsm.com|hugo.ortiz@skf.com, adriana.bueno@skf.com, Thiago.Lima@skf.com
484|SMART SERV COMBUSTAO E BOMBEAMENTO LTDA|08576-490|R SANTO AMARO|150|JARDIM NOSSA SENHORA D'AJUDA|ITAQUAQUECETUBA|SP|BRASIL|27.881.232/0001-52|0|1|1|1|0|0|5/20/21 11:03|5/20/21 11:03|(NULL)|(NULL)|(NULL)|(NULL)|(NULL)|565|3|484|5/20/21 13:06|5/20/21 13:52|isadora.bonato@dsm.com, she.contractor@dsm.com|assistencia@teccalor.com.br
196|SOLUMAR PEREIRA VILELA|18120-000|R ALFREDO HERCULANO GIUSSEPE BERTOLINI|297|VILA SOROCABANA|MAIRINQUE|SP|BRASIL|21.195.734/0001-43|0|1|1|1|0|0|2/4/20 18:10|2/4/20 18:10|BOX: 2;|(NULL)|(NULL)|(NULL)|(NULL)|459|3|196|11/16/20 14:29|11/16/20 14:35|Luiz.Bittencourt@dsm.com, she.contractor@dsm.com|dvsmontagemindustrial@hotmail.com
195|SOROCABA AMBIENTAL LTDA|18013-280|AV ENG. CARLOS REINALDO MENDES|1480|VILA RICA|SOROCABA|SP|BRASIL|47.807.409/0001-88|0|1|1|1|0|0|2/4/20 17:31|3/6/20 9:59|(NULL)|leticia.ramos@dsm.com, gislaine.oliveira@dsm.com, ivelize.machado@dsm.com, she.contractor@dsm.com|(NULL)|marcos@sorocabaambiental.com.br|g3.dsm@abacotecnologia.com.br|370|3|195|7/2/20 12:15|2/8/21 15:47|isadora.bonato@dsm.com, she.contractor@dsm.com|rh2@sorocabaambiental.com.br, sgi@sorocabaambiental.com.br, sorocaba@sorocabaambiental.com.br
194|SST SERVIÇOS E CONSULTORIA ANALÍTICA - EIRELI|05422-030|R CLAUDIO SOARES|72|PINHEIROS|SAO PAULO|SP|BRASIL|23.496.974/0001-03|0|1|1|1|0|0|2/4/20 17:06|2/17/20 17:07|ANDAR 9 SALA 912|(NULL)|(NULL)|(NULL)|(NULL)|185|3|194|2/4/20 17:07|10/21/20 8:46|rafael.souza@dsm.com, SHE.CONTRACTOR@dsm.com|laurafelix@sstanalitica.com
470|STARS AR CONDICIONADOS|18120-000|R IVAN DE CAMARGO|21|VILA GRANADA S.R.C.C. - GLEBA A|MAIRINQUE|SP|BRASIL|36.300.255/0001-17|0|1|1|1|0|0|3/22/21 12:18|3/22/21 12:18|CASA 22|(NULL)|(NULL)|(NULL)|(NULL)|546|3|470|3/22/21 12:22|3/22/21 12:23|Amanda.Lemos@dsm.com, Bruna.Moraes@dsm.com, Beatriz.Souza@dsm.com, Brenda.Antinarelli@dsm.com, Luiz-Guilherme-Xavier-Cacao.Luiz-Cacao@dsm.com, SHE.CONTRACTOR@dsm.com|renata.porcelani@gmail.com
147|STF TRANSPORTES EIRELI|18140-042|RUA ELISA SANTOS NUNES|108|CENTRO|SÃO ROQUE|SP|BR|22.104.747/0001-22|0|1|1|1|0|0|12/27/19 9:12|3/6/20 10:00|(NULL)|denis.almeida@dsm.com, she.contractor@dsm.com|(NULL)|gustavo.stftransporte@gmail.com|g3.dsm@abacotecnologia.com.br|136|3|147|12/27/19 9:14|6/22/20 13:49|g3.dsm@abacotecnologia.com.br, denis.almeida@dsm.com, she.contractor@dsm.com|gustavo.stftransporte@gmail.com
385|STP - SISTEMA DE TRANSPORTES PRÁTICOS LTDA|12414-020|AV GASTAO VIDIGAL NETO|876|BAIRRO IPIRANGA|PINDAMONHANGABA|SP|BRASIL|12.812.242/0001-69|0|1|1|1|0|0|10/2/20 9:43|10/2/20 9:43|LOTEAMENTO CIDADE NOVA|(NULL)|(NULL)|(NULL)|(NULL)|427|3|385|10/2/20 9:44|2/8/21 15:53|isadora.bonato@dsm.com, she.contractor@dsm.com|rh02@banmaq.com.br, fabricio.santos@engecomp.ind.br
122|SUNNYVALE COMÉRCIO E REPRESENTAÇÕES LTDA|08586-430|RUA RADIUM|100|JARDIM NASCENTE|ITAQUAQUECETUBA|SP|BR|49.467.293/0002-91|0|1|1|1|0|0|10/30/19 12:51|2/17/20 17:07|R DAVID BEN GURION, 701|(NULL)|(NULL)|(NULL)|(NULL)|551|3|122|4/8/21 10:37|4/8/21 10:37|isadora.bonato@dsm.com, she.contractor@dsm.com|(NULL)
490|SUPERMIX CONCRETO S/A|18120-000|R DIVALDO ROCHA DOS SANTOS|160|DONA CATARINA|MAIRINQUE|SP|BRASIL|34.230.979/0170-09|0|1|1|1|0|0|6/10/21 9:58|6/10/21 9:58|(NULL)|(NULL)|(NULL)|(NULL)|(NULL)|570|3|490|6/10/21 9:59|6/10/21 9:59|Amanda.Lemos@dsm.com, Bruna.Moraes@dsm.com, Beatriz.Souza@dsm.com, Brenda.Antinarelli@dsm.com, Luiz-Guilherme-Xavier-Cacao.Luiz-Cacao@dsm.com, SHE.CONTRACTOR@dsm.com|renata.porcelani@gmail.com
498|T R FERRARI|13387-772|R DA ALEGRIA|732|JARDIM RESIDENCIAL FIBRA|NOVA ODESSA|SP|BRASIL|37.580.284/0001-42|0|1|1|1|0|0|7/7/21 11:39|7/7/21 11:39|(NULL)|(NULL)|(NULL)|(NULL)|(NULL)|580|3|498|7/7/21 11:40|7/7/21 11:42|isadora.bonato@dsm.com, she.contractor@dsm.com|caique.silva@lubrin.com.br
203|T.P.S ISOMAC PAULISTANA ISOLAMENTOS TÉRMICOS EIRELI|02220-002|R ITAMONTE|1453|VILA MEDEIROS|SAO PAULO|SP|BRASIL|32.111.636/0001-05|0|1|1|1|0|0|2/6/20 16:51|2/17/20 17:08|(NULL)|(NULL)|(NULL)|(NULL)|(NULL)|194|3|203|2/6/20 16:52|2/6/20 16:52|(NULL)|(NULL)
366|TAGUS-TEC SERVIÇOS TECNOLÓGICOS LTDA|60120-001|AV BARAO DE STUDART|1165|ALDEOTA|FORTALEZA|CE|BRASIL|61.099.008/0018-90|0|1|1|1|0|0|8/14/20 9:19|8/14/20 9:19|304|(NULL)|(NULL)|(NULL)|(NULL)|417|3|366|9/23/20 9:57|9/23/20 9:57|paulo.pires@dsm.com, she.contractor@dsm.com, Greice.Raio@dsm.com|dircelene.patrinheri@tagus-tec.com.br
366|TAGUS-TEC SERVIÇOS TECNOLÓGICOS LTDA|60120-001|AV BARAO DE STUDART|1165|ALDEOTA|FORTALEZA|CE|BRASIL|61.099.008/0018-90|0|1|1|1|0|0|8/14/20 9:19|8/14/20 9:19|304|(NULL)|(NULL)|(NULL)|(NULL)|398|131|366|8/14/20 9:19|5/31/21 12:53|Maria.Sombra@dsm.com, SHE.CONTRACTOR@dsm.com, Bruno.Mantini@dsm.com|anne.braga@tagus-tec.com.br
233|TB ENGENHARIA - LTDA ME|60831-610|RUA RAMIRO FERREIRA FAÇANHA|100|LAGOA REDONDA|FORTALEZA|CE|BRASIL|21.385.764/0001-12|0|1|1|1|0|0|2/19/20 10:13|2/19/20 10:13|CASA 16|(NULL)|(NULL)|(NULL)|(NULL)|227|131|233|2/19/20 10:14|2/19/20 10:14|(NULL)|(NULL)
329|TCHE PACK EMBALAGENS LTDA|04361-090|R GASTAO DA CUNHA|474|VILA PAULISTA|SAO PAULO|SP|BRASIL|18.975.106/0001-76|0|1|1|1|0|0|5/6/20 10:25|5/6/20 10:25|(NULL)|Luciana.Florentino@dsm.com, SHE.CONTRACTOR@dsm.com|(NULL)|karina.basso@tchepack.com.br|g3.dsm@abacotecnologia.com.br|577|3|329|7/2/21 11:58|7/2/21 11:59|Amanda.Lemos@dsm.com, Bruna.Moraes@dsm.com, Beatriz.Souza@dsm.com, Brenda.Antinarelli@dsm.com, Luiz-Guilherme-Xavier-Cacao.Luiz-Cacao@dsm.com, SHE.CONTRACTOR@dsm.com|sandra.marques@cyklop.com.br, douglas.lima@tchepack.com.br
329|TCHE PACK EMBALAGENS LTDA|04361-090|R GASTAO DA CUNHA|474|VILA PAULISTA|SAO PAULO|SP|BRASIL|18.975.106/0001-76|0|1|1|1|0|0|5/6/20 10:25|5/6/20 10:25|(NULL)|Luciana.Florentino@dsm.com, SHE.CONTRACTOR@dsm.com|(NULL)|karina.basso@tchepack.com.br|g3.dsm@abacotecnologia.com.br|437|131|329|10/20/20 10:03|10/20/20 10:03|(NULL)|(NULL)
521|TECAMA MOVEIS PARA ESCRITORIO LTDA|18136-200|R DOS CRISANTEMOS|10|VL SANTA ROSALIA|SAO ROQUE|SP|BRASIL|70.939.988/0001-34|0|1|1|1|0|0|8/25/21 10:59|8/25/21 10:59|(NULL)|(NULL)|(NULL)|(NULL)|(NULL)|609|3|521|8/25/21 11:01|8/25/21 11:02|Fernanda.Bueno-da-Silva@dsm.com, she.contractor@dsm.com|ricardo@tmobili.com.br
172|TECENERGY SOLUÇÕES EM ENERGIA EIRELI|18051-725|AV PROFESSOR FLAVIO FAZANO|411|JARDIM PIAZZA DI ROMA|SOROCABA|SP|BRASIL|24.199.347/0001-73|0|1|1|1|0|0|1/27/20 12:31|2/17/20 17:08|(NULL)|(NULL)|(NULL)|(NULL)|(NULL)|163|3|172|1/27/20 12:33|1/27/20 12:33|(NULL)|(NULL)
424|TECFIBRA EMPREITEIRA E REVESTIMENTOS ANTICORROSIVOS LTDA|57160-000|ROD DIVALDO SURUAGY|0|POLO CLOROQUIMICO|MARECHAL DEODORO|AL|Brasil|35.728.880/0001-00|0|1|1|1|0|0|12/11/20 18:14|12/11/20 18:14|VIA 1,GALPAO B|(NULL)|(NULL)|(NULL)|g3.dsm@abacotecnologia.com.br|492|3|424|12/11/20 18:45|2/8/21 15:48|isadora.bonato@dsm.com, she.contractor@dsm.com|(NULL)
330|TECNIFLEX INSTALACAO E MANUTENCAO ELETRICA LTDA|09911-260|R AMELIA EUGENIA|135|CENTRO|DIADEMA|SP|BRASIL|14.993.993/0001-54|0|1|1|1|0|0|5/6/20 11:04|5/6/20 11:04|SALA 3|Luciana.Florentino@dsm.com, SHE.CONTRACTOR@dsm.com|(NULL)|vendas04@interpower.com.br|g3.dsm@abacotecnologia.com.br|339|3|330|5/6/20 11:04|2/8/21 15:48|isadora.bonato@dsm.com, she.contractor@dsm.com|vendas04@interpower.com.br
379|TEJOFRAN DE SANEAMENTO E SERVICOS EIRELI|07750-020|AV TENENTE MARQUES|2051|POLVILHO|CAJAMAR|SP|BRASIL|61.288.437/0001-67|0|1|1|1|0|0|9/23/20 13:23|9/23/20 13:26|1 ANDAR SALA 14|(NULL)|(NULL)|(NULL)|(NULL)|419|3|379|9/23/20 13:24|9/23/20 14:30|isadora.bonato@dsm.com, she.contractor@dsm.com|gabriela.tejofran@gmail.com
365|TERSIO ARRUDA CAMPOS FILHO 08188085863|18111-377|R RAIMUNDO DUARTE|277|RIO ACIMA|VOTORANTIM|SP|BRASIL|37.814.813/0001-25|0|1|1|1|0|0|8/13/20 11:54|8/13/20 11:54|SALA 01|(NULL)|(NULL)|(NULL)|(NULL)|397|3|365|8/13/20 11:55|2/8/21 15:49|Amanda.Lemos@dsm.com, Bruna.Moraes@dsm.com, Beatriz.Souza@dsm.com, Brenda.Antinarelli@dsm.com, Luiz-Guilherme-Xavier-Cacao.Luiz-Cacao@dsm.com, SHE.CONTRACTOR@dsm.com|xicrinha2@yahoo.com.br, caeamorim@gmail.com
527|TESHIMA COMERCIO E SERVICOS DE DESENHOS LTDA|04473-290|R DAS CORVINAS|93|SAO FRANCISCO|SAO PAULO|SP|BRASIL|05.813.831/0001-04|0|1|1|1|0|0|9/2/21 10:44|9/2/21 10:44|FUNDOS|(NULL)|(NULL)|(NULL)|(NULL)|616|3|527|9/2/21 10:45|9/2/21 10:46|Amanda.Lemos@dsm.com, Bruna.Moraes@dsm.com, Beatriz.Souza@dsm.com, Brenda.Antinarelli@dsm.com, Luiz-Guilherme-Xavier-Cacao.Luiz-Cacao@dsm.com, SHE.CONTRACTOR@dsm.com|daniel.planejamento@genpro.com.br
96|TEST SERVICE MATERIAIS E SERVIÇOS ELÉTRICOS EIRELI|18120-000|RUA EDUARDO MANDADORI ANTUNES|86|JARDIM CRUZEIRO|MAIRINQUE|SP|BRASIL|19.299.770/0001-05|0|1|1|1|0|0|9/18/19 12:34|3/12/20 16:10|(NULL)|luciana.florentino@dsm.com, she.contractor@dsm.com|(NULL)|administrativo@testservice.com.br, comercial@testservice.com.br|g3.dsm@abacotecnologia.com.br|92|3|96|11/5/19 17:34|9/8/21 10:47|isadora.bonato@dsm.com, SHE.CONTRACTOR@dsm.com|administrativo@testservice.com.br, comercial@testservice.com.br
145|TEX INSTALAÇÕES|12200-200|ESTRADA MUNICIPAL JOEL DE PAULA|210|EUGÊNIO DE MELO|SÃO JOSÉ DOS CAMPOS|SP|BRASIL|24.754.423/0001-65|0|1|1|1|0|0|12/11/19 11:58|3/6/20 16:57|(NULL)|bruna.moraes@dsm.com, beatriz.souza@dsm.com, amanda.camargo@dsm.com, she.contractor@dsm.com|(NULL)|rh@fabricamedeiros.com|g3.dsm@abacotecnologia.com.br|222|3|145|2/18/20 13:22|2/8/21 15:49|Amanda.Lemos@dsm.com, Bruna.Moraes@dsm.com, Beatriz.Souza@dsm.com, Brenda.Antinarelli@dsm.com, Luiz-Guilherme-Xavier-Cacao.Luiz-Cacao@dsm.com, SHE.CONTRACTOR@dsm.com|rh@fabricamedeiros.com
396|THIAGO DINIZ TEIXEIRA DE FREITAS|60741-025|R DOUTOR JUSTA ARAUJO|1280|SERRINHA|FORTALEZA|CE|BRASIL|12.719.925/0001-76|0|1|1|1|0|0|10/30/20 14:05|10/30/20 14:05|(NULL)|(NULL)|(NULL)|(NULL)|(NULL)|448|131|396|10/30/20 14:06|11/6/20 10:12|renata.mattos@dsm.com, SHE.CONTRACTOR@dsm.com|Lucas.Silva@planus.com.br, marcos.takahashi@planus.com.br
348|THOMPSON CUNHA E SILVA JUNIOR 37149823882|13073-180|R CONEGO NERY|140|JARDIM GUANABARA|CAMPINAS|SP|BRASIL|34.673.436/0001-63|0|1|1|1|0|0|7/7/20 8:32|7/7/20 8:32|APT 51|(NULL)|(NULL)|(NULL)|(NULL)|372|3|348|7/7/20 8:32|2/8/21 15:50|isadora.bonato@dsm.com, she.contractor@dsm.com|logistica@salengenharia.com.br, logistica2@salengenharia.com.br
401|TIAGO VINICIUS PAZIANOTO|13310-370|R CORINTHO GALVAO DE TOLEDO|210|CRUZ DAS ALMAS|ITU|SP|BRASIL|39.498.702/0001-82|0|1|1|1|0|0|11/13/20 13:40|11/13/20 13:40|(NULL)|(NULL)|(NULL)|(NULL)|(NULL)|456|3|401|11/13/20 13:40|2/8/21 15:50|Amanda.Lemos@dsm.com, Bruna.Moraes@dsm.com, Beatriz.Souza@dsm.com, Brenda.Antinarelli@dsm.com, Luiz-Guilherme-Xavier-Cacao.Luiz-Cacao@dsm.com, SHE.CONTRACTOR@dsm.com|adm@glbtechautomacao.com.br
140|TITÃ GUINDASTES E LOCAÇÕES|18108-000|AVENEIDA BANDEIRANTES|2670|BRIGADEIRO TOBIAS|SOROCABA|SP|BRASIL|14.838.687/0001-43|0|1|1|1|0|0|11/26/19 12:19|3/6/20 17:02|(NULL)|bruna.moraes@dsm.com, beatriz.souza@dsm.com, amanda.camargo@dsm.com, she.contractor@dsm.com|(NULL)|gerente.adm@montalug.com.br, departamentopessoal@montalug.com.br|g3.dsm@abacotecnologia.com.br|133|3|140|11/26/19 12:24|2/8/21 15:50|Amanda.Lemos@dsm.com, Bruna.Moraes@dsm.com, Beatriz.Souza@dsm.com, Brenda.Antinarelli@dsm.com, Luiz-Guilherme-Xavier-Cacao.Luiz-Cacao@dsm.com, SHE.CONTRACTOR@dsm.com|gerente.adm@montalug.com.br, departamentopessoal@montalug.com.br
140|TITÃ GUINDASTES E LOCAÇÕES|18108-000|AVENEIDA BANDEIRANTES|2670|BRIGADEIRO TOBIAS|SOROCABA|SP|BRASIL|14.838.687/0001-43|0|1|1|1|0|0|11/26/19 12:19|3/6/20 17:02|(NULL)|bruna.moraes@dsm.com, beatriz.souza@dsm.com, amanda.camargo@dsm.com, she.contractor@dsm.com|(NULL)|gerente.adm@montalug.com.br, departamentopessoal@montalug.com.br|g3.dsm@abacotecnologia.com.br|454|131|140|11/13/20 9:46|11/13/20 9:47|Amanda.Lemos@dsm.com, Bruna.Moraes@dsm.com, Beatriz.Souza@dsm.com, Brenda.Antinarelli@dsm.com, Luiz-Guilherme-Xavier-Cacao.Luiz-Cacao@dsm.com, SHE.CONTRACTOR@dsm.com|departamentopessoal@montalug.com.br, gerente.adm@montalug.com.br
282|TOLEDO DO BRASIL INDUSTRIA DE BALANÇAS LTDA - PECÉM|60015-220|R PADRE MORORO|915|CENTRO|FORTALEZA|CE|BRASIL|59.704.510/0021-36|0|1|1|1|0|0|4/1/20 10:04|4/1/20 10:04|(NULL)|Lorenna.Sousa@dsm.com, maria.barbosa@dsm.com, she.contractor@dsm.com|(NULL)|aldelene.castro@toledobrasil.com.br, jetterson.lima@toledobrasil.com.br|g3.dsm@abacotecnologia.com.br|276|131|282|4/1/20 10:05|4/1/20 10:05|Lorenna.Sousa@dsm.com, maria.barbosa@dsm.com, she.contractor@dsm.com|aldelene.castro@toledobrasil.com.br, jetterson.lima@toledobrasil.com.br
311|TOLEDO DO BRASIL INDÚSTRIA DE BALANÇAS LTDA - MAIRINQUE|13274-350|AV DOUTOR ALTINO GOUVEIA|827|JARDIM PINHEIROS|VALINHOS|SP|BRASIL|59.704.510/0012-45|0|1|1|1|0|0|4/20/20 11:01|5/15/20 13:20|(NULL)|Sarah.Victoria-Avelina-Ribeiro@dsm.com, she.contractor@dsm.com|(NULL)|elton.lopes@toledobrasil.com.br, amanda.rodrigues@toledobrasil.com.br|g3.dsm@abacotecnologia.com.br|318|3|311|4/20/20 11:01|6/1/21 9:41|isadora.bonato@dsm.com, she.contractor@dsm.com|fabio.santos@toledobrasil.com.br
137|TOP SERVICE SERVIÇOS E SISTEMAS LTDA|60135-208|RUA CORONEL ALVES TEIXEIRA|1500|DIONISIO TORRES|FORTALEZA|CE|BRASIL|00.973.749/0019-44|0|1|1|1|0|0|11/18/19 14:45|3/30/20 16:48|(NULL)|SHE.CONTRACTOR@dsm.com, Maria.Barbosa@dsm.com, Aldo.Vasconcelos@dsm.com, maria.sombra@dsm.com|(NULL)|Pedro.lima@gpssa.com.br, marcio.evangelista@gpssa.com.br|g3.dsm@abacotecnologia.com.br|130|131|137|11/18/19 16:58|5/31/21 12:53|maria.sombra@dsm.com, maria.barbosa@dsm.com, she.contractor@dsm.com, Natanielle.Silva@dsm.com, Bruno.Mantini@dsm.com|marcio.evangelista@gpssa.com.br
531|TWENTY|18087-125|ROD SENADOR JOSE ERMIRIO DE MORAES|0|IPORANGA|SOROCABA|SP|BRASIL|18.975.503/0001-48|0|1|1|1|0|0|9/10/21 12:03|9/10/21 12:03|AV. ANTONIO BARDELLA N 2610|(NULL)|(NULL)|(NULL)|(NULL)|619|3|531|9/10/21 12:03|9/10/21 12:04|Fernanda.Bueno-da-Silva@dsm.com, she.contractor@dsm.com|comercial@twentyeventos.com, administrativo@twentyeventos.com
99|U.P.R UNIÃO DE PLÁSTICOS REFORÇADOS LTDA|13508-500|ESTRADA RIO CLARO|0|CENTRO (AJAPI)|RIO CLARO|SP|BRASIL|02.949.355/0001-57|0|1|1|1|0|0|9/18/19 13:45|2/17/20 17:09|KM 15 450METROS|(NULL)|(NULL)|(NULL)|(NULL)|353|3|99|6/18/20 13:11|6/22/20 13:49|g3.dsm@abacotecnologia.com.br, natalie.montebello@dsm.com, leandro.fogaca@dsm.com, she.contractor@dsm.com|administrativo@uprbrasil.com.br
367|ULTRAGAS - 4M ENGENHARIA|60864-205|R CENTRAL (LOT CAJAZEIRAS I)|629|CAJAZEIRAS|FORTALEZA|CE|BRASIL|19.125.554/0001-43|0|1|1|1|0|0|8/18/20 8:50|8/18/20 8:50|(NULL)|(NULL)|(NULL)|(NULL)|(NULL)|399|131|367|8/18/20 8:51|8/18/20 8:52|Lorenna.Sousa@dsm.com, maria.barbosa@dsm.com, she.contractor@dsm.com|atendimento.ultragaz@4msengenharia.com
515|UNIK EXPLO ATMOSFERAS EXPLOSIVAS EIRELI|09195-230|R MARTIM AFONSO DE SOUZA|131|VILA PIRES|SANTO ANDRE|SP|BRASIL|30.131.900/0001-39|0|1|1|1|0|0|7/26/21 10:04|7/26/21 10:04|(NULL)|(NULL)|(NULL)|(NULL)|(NULL)|599|3|515|7/26/21 10:05|7/27/21 11:25|she.contractor@dsm.com, luciano.neto@dsm.com|priscila.pitstop@gmail.com
123|UNIQUE CONSULT PROJETOS E MONTAGENS LTDA|06429-200|AVENIDA REAL|37|CENTRO COMERCIAL MORADA DOS LAGOS|BARUERI|SP|BRASIL|10.590.825/0001-67|0|1|1|1|0|0|10/30/19 14:21|3/6/20 17:01|SALA 03|bruna.moraes@dsm.com, beatriz.souza@dsm.com, amanda.camargo@dsm.com, she.contractor@dsm.com|(NULL)|cosmemacruz@uniqueweb.com.br, jose.soares@uniqueweb.com.br|g3.dsm@abacotecnologia.com.br|118|3|123|11/5/19 17:34|2/8/21 15:51|Amanda.Lemos@dsm.com, Bruna.Moraes@dsm.com, Beatriz.Souza@dsm.com, Brenda.Antinarelli@dsm.com, Luiz-Guilherme-Xavier-Cacao.Luiz-Cacao@dsm.com, SHE.CONTRACTOR@dsm.com|cosmemacruz@uniqueweb.com.br, jose.soares@uniqueweb.com.br
100|VALDIR CAMILO VIEIRA JUNIOR|18160-000|RODOVIA JOÃO LEME DOS SANTOS|1060|MORRO BRANCO|SALTO DE PIRAPORA|SP|BRASIL|12.402.952/0001-10|0|1|1|1|0|0|9/18/19 13:51|3/6/20 17:03|(NULL)|bruna.moraes@dsm.com, beatriz.souza@dsm.com, amanda.camargo@dsm.com, she.contractor@dsm.com|(NULL)|rvmont@ymail.com, rvmont.obras@gmail.com, rvmont.rh@gmail.com|g3.dsm@abacotecnologia.com.br|434|3|100|10/19/20 10:00|2/8/21 15:51|Amanda.Lemos@dsm.com, Bruna.Moraes@dsm.com, Beatriz.Souza@dsm.com, Brenda.Antinarelli@dsm.com, Luiz-Guilherme-Xavier-Cacao.Luiz-Cacao@dsm.com, SHE.CONTRACTOR@dsm.com|rvmont.rh@gmail.com
461|VALE MOTA ENGENHARIA LTDA|60873-005|R DOCA SALES|423|PARQUE SANTA MARIA|FORTALEZA|CE|BRASIL|12.458.204/0001-50|0|1|1|1|0|0|2/17/21 11:51|2/17/21 11:51|(NULL)|(NULL)|(NULL)|(NULL)|(NULL)|531|131|461|2/17/21 11:51|2/17/21 11:51|(NULL)|(NULL)
471|VALTER ANDRADE FRANCA 29731083812|18120-000|AV AMERICO PEREIRA|512|GRANADA|MAIRINQUE|SP|BRASIL|36.089.716/0001-54|0|1|1|1|0|0|3/23/21 8:53|3/23/21 8:53|(NULL)|(NULL)|(NULL)|(NULL)|(NULL)|547|3|471|3/23/21 8:55|3/23/21 8:56|Amanda.Lemos@dsm.com, Bruna.Moraes@dsm.com, Beatriz.Souza@dsm.com, Brenda.Antinarelli@dsm.com, Luiz-Guilherme-Xavier-Cacao.Luiz-Cacao@dsm.com, SHE.CONTRACTOR@dsm.com|renata.porcelani@gmail.com
359|VIKA CONTROLS COMERCIO DE INSTRUMENTOS E SISTEMAS LTDA|05002-062|R DONA GERMAINE BURCHARD|443|PERDIZES|SAO PAULO|SP|BRASIL|03.986.907/0001-60|0|1|1|1|0|0|8/6/20 8:58|8/6/20 8:58|(NULL)|(NULL)|(NULL)|(NULL)|(NULL)|391|3|359|8/6/20 8:59|2/8/21 15:51|Amanda.Lemos@dsm.com, Bruna.Moraes@dsm.com, Beatriz.Souza@dsm.com, Brenda.Antinarelli@dsm.com, Luiz-Guilherme-Xavier-Cacao.Luiz-Cacao@dsm.com, SHE.CONTRACTOR@dsm.com|ivan@vikacontrols.com.br
488|VINICIUS DA SILVA VIEIRA|18125-000|R ISALTINO RIBEIRO MEDEIROS|44|BRASILINA|ALUMINIO|SP|BRASIL|42.034.012/0001-87|0|1|1|1|0|0|6/7/21 9:00|6/7/21 9:00|FUNDOS 2|(NULL)|(NULL)|(NULL)|(NULL)|568|3|488|6/7/21 9:01|6/7/21 9:01|Amanda.Lemos@dsm.com, Bruna.Moraes@dsm.com, Beatriz.Souza@dsm.com, Brenda.Antinarelli@dsm.com, Luiz-Guilherme-Xavier-Cacao.Luiz-Cacao@dsm.com, SHE.CONTRACTOR@dsm.com|renata.porcelani@gmail.com
538|VITOR FERREIRA CASARIN|12940-384|R MANOEL NETTO|25|VILA DOS NETTOS|ATIBAIA|SP|BRASIL|11.593.744/0001-83|0|1|1|1|0|0|10/7/21 16:03|10/7/21 16:03|(NULL)|(NULL)|(NULL)|(NULL)|(NULL)|627|3|538|10/7/21 16:04|10/7/21 16:06|Amanda.Lemos@dsm.com, Bruna.Moraes@dsm.com, Beatriz.Souza@dsm.com, Brenda.Antinarelli@dsm.com, Luiz-Guilherme-Xavier-Cacao.Luiz-Cacao@dsm.com, SHE.CONTRACTOR@dsm.com|vitor@casarinvendas.com.br
138|VP POMPEU DE OLIVEIRA|61620-976|AVENIDA CENTRAL DA TABUBA|695|TABUBA|CAUCAIA|CE|BRASIL|14.561.236/0001-01|0|1|1|1|0|0|11/18/19 16:25|3/30/20 16:49|(NULL)|maria.sombra@dsm.com, maria.barbosa@dsm.com, marcio.garcia@dsm.com|(NULL)|xisto@vpxservicos.com, contato@vpxservicos.com|g3.dsm@abacotecnologia.com.br|131|131|138|11/18/19 17:41|8/9/21 11:42|bruna.moraes@dsm.com, marcio.garcia@dsm.com, maria.barbosa@dsm.com, she.contractor@dsm.com, amanda.lemos@dsm.com, Beatriz.Souza@dsm.com, Brenda.Antinarelli@dsm.com, Lorenna.Sousa@dsm.com, Luiz-Guilherme-Xavier-Cacao.Luiz-Cacao@dsm.com|rh@vpxservicos.com, xisto@vpxservicos.com, contato@vpxservicos.com, seguranca.trabalho@vpxservicos.com
102|VULCAMIX VULCANIZAÇÃO E COMÉRCIO LTDA|04417-080|RUA TOMÉ ANDRÉ|47|JARDIM MIRIAN|SÃO PAULO|SP|BRASIL|66.104.373/0001-10|0|1|1|1|0|0|9/18/19 14:00|5/13/20 11:00|(NULL)|luciana.florentino@dsm.com, she.contractor@dsm.com, Sarah.Victoria-Avelina-Ribeiro@dsm.com|(NULL)|monica@vulcamix.com.br, gabriela@vulcamix.com.br|g3.dsm@abacotecnologia.com.br|326|3|102|4/22/20 11:58|3/25/21 10:48|isadora.bonato@dsm.com, she.contractor@dsm.com|monica@vulcamix.com.br, gabriela@vulcamix.com.br
517|WATERS TECHNOLOGIES DO BRASIL LTDA|06422-120|AV GUPE|10767|JARDIM BELVAL|BARUERI|SP|BRASIL|00.158.141/0001-37|0|1|1|1|0|0|8/18/21 9:28|8/18/21 9:28|BLOCO II GALPAO 10|(NULL)|(NULL)|(NULL)|(NULL)|602|3|517|8/18/21 9:28|8/18/21 9:29|Luiz.Bittencourt@dsm.com, she.contractor@dsm.com|Andreia_Melo@waters.com
308|WEISHAUPT DO BRASIL|13338-010|LOGRADOURO AV VISCONDE DE INDAIATUBA|1801|VILA VITORIA I|INDAIATUBA|SP|BRASIL|43.084.466/0001-25|0|1|1|1|0|0|4/15/20 9:36|4/15/20 9:36|(NULL)|luciana.florentino@dsm.com, she.contractor@dsm.com|(NULL)|tecnica@weishaupt.com.br|g3.dsm@abacotecnologia.com.br|378|3|308|7/10/20 9:37|2/8/21 15:53|isadora.bonato@dsm.com, she.contractor@dsm.com|tecnica@weishaupt.com.br
103|WI INSPEÇÃO TÉCNICA E SERVIÇOS LTDA|18111-060|RUA FELIPE NERI DE CAMPOS|68|PROTESTANTES|VOTORANTIM|SP|BRASIL|16.731.661/0001-27|0|1|1|1|0|0|9/18/19 14:04|9/18/19 14:04|LOTE E|(NULL)|(NULL)|(NULL)|(NULL)|99|3|103|11/5/19 17:34|9/8/21 10:47|isadora.bonato@dsm.com, SHE.CONTRACTOR@dsm.com|thiago.marcondes@wiinspecao.com.br, plinio.vieira@wiinspecao.com.br
103|WI INSPEÇÃO TÉCNICA E SERVIÇOS LTDA|18111-060|RUA FELIPE NERI DE CAMPOS|68|PROTESTANTES|VOTORANTIM|SP|BRASIL|16.731.661/0001-27|0|1|1|1|0|0|9/18/19 14:04|9/18/19 14:04|LOTE E|(NULL)|(NULL)|(NULL)|(NULL)|484|131|103|12/9/20 12:02|12/9/20 12:03|lorenna.sousa@dsm.com, she.contractor@dsm.com|thiago.marcondes@wiinspecao.com.br, plinio.vieira@wiinspecao.com.br
105|ZANUTO TRANSPORTES E GUINDASTES LTDA|19913-500|VITÓRIO TEZOTO|111|DISTRITO INDUSTRIAL II|OURINHOS|SP|BRASIL|00.978.370/0001-06|0|1|1|1|0|0|9/18/19 14:11|3/6/20 17:04|(NULL)|bruna.moraes@dsm.com, beatriz.souza@dsm.com, amanda.camargo@dsm.com, she.contractor@dsm.com|(NULL)|augusto.projeto@zanuto.com.br, sarita.documentos@zanuto.com.br|g3.dsm@abacotecnologia.com.br|461|3|105|11/20/20 10:25|2/8/21 15:52|Amanda.Lemos@dsm.com, Bruna.Moraes@dsm.com, Beatriz.Souza@dsm.com, Brenda.Antinarelli@dsm.com, Luiz-Guilherme-Xavier-Cacao.Luiz-Cacao@dsm.com, SHE.CONTRACTOR@dsm.com|seguranca@zanuto.com.br
106|ZAP IND. COM. DE EQUIPAMENTOS PARA CONSTRUÇÃO LTDA|09445-400|AVENIDA VEREADOR AROLDO ALVES NEVES|1600|POUSO ALEGRE|RIBEIRÃO PIRES|SP|BRASIL|05.472.594/0001-57|0|1|1|1|0|0|9/18/19 14:15|3/6/20 10:06|(NULL)|luciana.florentino@dsm.com, she.contractor@dsm.com|(NULL)|fabricio.santos@engecomp.ind.br|g3.dsm@abacotecnologia.com.br|102|3|106|11/5/19 17:34|2/8/21 15:52|isadora.bonato@dsm.com, she.contractor@dsm.com|engenharia@brasmodulos.com.br